{"type":"FeatureCollection","features":[{"type":"Feature","geometry":{"type":"Point","coordinates":[-109.042,40.5733]},"properties":{"s":24.1,"pub":true}},{"type":"Feature","geometry":{"type":"Point","coordinates":[-109.042,40.5791]},"properties":{"s":24.1,"pub":true}},{"type":"Feature","geometry":{"type":"Point","coordinates":[-109.042,40.5849]},"properties":{"s":24.1,"pub":true}},{"type":"Feature","geometry":{"type":"Point","coordinates":[-109.042,40.5907]},"properties":{"s":24.1,"pub":true}},{"type":"Feature","geometry":{"type":"Point","coordinates":[-109.042,40.5965]},"properties":{"s":24.1,"pub":true}},{"type":"Feature","geometry":{"type":"Point","coordinates":[-109.042,40.6023]},"properties":{"s":24.1,"pub":true}},{"type":"Feature","geometry":{"type":"Point","coordinates":[-109.042,40.6081]},"properties":{"s":24.1,"pub":true}},{"type":"Feature","geometry":{"type":"Point","coordinates":[-109.042,40.6139]},"properties":{"s":24.1,"pub":true}},{"type":"Feature","geometry":{"type":"Point","coordinates":[-109.042,40.6487]},"properties":{"s":48.3,"pub":true}},{"type":"Feature","geometry":{"type":"Point","coordinates":[-109.042,40.6545]},"properties":{"s":48.3,"pub":true}},{"type":"Feature","geometry":{"type":"Point","coordinates":[-109.042,40.6603]},"properties":{"s":48.3,"pub":true}},{"type":"Feature","geometry":{"type":"Point","coordinates":[-109.042,40.6777]},"properties":{"s":48.3,"pub":true}},{"type":"Feature","geometry":{"type":"Point","coordinates":[-109.042,40.6835]},"properties":{"s":48.3,"pub":true}},{"type":"Feature","geometry":{"type":"Point","coordinates":[-109.042,40.6893]},"properties":{"s":48.3,"pub":true}},{"type":"Feature","geometry":{"type":"Point","coordinates":[-109.042,40.6951]},"properties":{"s":48.3,"pub":true}},{"type":"Feature","geometry":{"type":"Point","coordinates":[-109.042,40.7009]},"properties":{"s":48.3,"pub":true}},{"type":"Feature","geometry":{"type":"Point","coordinates":[-109.042,40.7067]},"properties":{"s":48.3,"pub":true}},{"type":"Feature","geometry":{"type":"Point","coordinates":[-109.042,40.7125]},"properties":{"s":89.7,"pub":true}},{"type":"Feature","geometry":{"type":"Point","coordinates":[-109.042,40.7183]},"properties":{"s":89.7,"pub":true}},{"type":"Feature","geometry":{"type":"Point","coordinates":[-109.042,40.7241]},"properties":{"s":62.1,"pub":true}},{"type":"Feature","geometry":{"type":"Point","coordinates":[-109.042,40.7299]},"properties":{"s":89.7,"pub":true}},{"type":"Feature","geometry":{"type":"Point","coordinates":[-109.042,40.7357]},"properties":{"s":48.3,"pub":true}},{"type":"Feature","geometry":{"type":"Point","coordinates":[-109.042,40.7415]},"properties":{"s":89.7,"pub":true}},{"type":"Feature","geometry":{"type":"Point","coordinates":[-109.042,40.7473]},"properties":{"s":89.7,"pub":true}},{"type":"Feature","geometry":{"type":"Point","coordinates":[-109.042,40.7531]},"properties":{"s":89.7,"pub":true}},{"type":"Feature","geometry":{"type":"Point","coordinates":[-109.042,40.7589]},"properties":{"s":48.3,"pub":true}},{"type":"Feature","geometry":{"type":"Point","coordinates":[-109.042,40.7647]},"properties":{"s":48.3,"pub":true}},{"type":"Feature","geometry":{"type":"Point","coordinates":[-109.042,40.7705]},"properties":{"s":48.3,"pub":true}},{"type":"Feature","geometry":{"type":"Point","coordinates":[-109.042,40.7763]},"properties":{"s":89.7,"pub":true}},{"type":"Feature","geometry":{"type":"Point","coordinates":[-109.042,40.7821]},"properties":{"s":62.1,"pub":true}},{"type":"Feature","geometry":{"type":"Point","coordinates":[-109.042,40.7879]},"properties":{"s":65.5,"pub":true}},{"type":"Feature","geometry":{"type":"Point","coordinates":[-109.042,40.7937]},"properties":{"s":65.5,"pub":true}},{"type":"Feature","geometry":{"type":"Point","coordinates":[-109.042,40.7995]},"properties":{"s":65.5,"pub":true}},{"type":"Feature","geometry":{"type":"Point","coordinates":[-109.042,40.8053]},"properties":{"s":44.8,"pub":true}},{"type":"Feature","geometry":{"type":"Point","coordinates":[-109.0345,40.5675]},"properties":{"s":24.1,"pub":true}},{"type":"Feature","geometry":{"type":"Point","coordinates":[-109.0345,40.5733]},"properties":{"s":24.1,"pub":true}},{"type":"Feature","geometry":{"type":"Point","coordinates":[-109.0345,40.5791]},"properties":{"s":24.1,"pub":true}},{"type":"Feature","geometry":{"type":"Point","coordinates":[-109.0345,40.5849]},"properties":{"s":24.1,"pub":true}},{"type":"Feature","geometry":{"type":"Point","coordinates":[-109.0345,40.5907]},"properties":{"s":24.1,"pub":true}},{"type":"Feature","geometry":{"type":"Point","coordinates":[-109.0345,40.5965]},"properties":{"s":24.1,"pub":true}},{"type":"Feature","geometry":{"type":"Point","coordinates":[-109.0345,40.6023]},"properties":{"s":24.1,"pub":true}},{"type":"Feature","geometry":{"type":"Point","coordinates":[-109.0345,40.6081]},"properties":{"s":24.1,"pub":true}},{"type":"Feature","geometry":{"type":"Point","coordinates":[-109.0345,40.6139]},"properties":{"s":24.1,"pub":true}},{"type":"Feature","geometry":{"type":"Point","coordinates":[-109.0345,40.6197]},"properties":{"s":65.5,"pub":true}},{"type":"Feature","geometry":{"type":"Point","coordinates":[-109.0345,40.6255]},"properties":{"s":65.5,"pub":true}},{"type":"Feature","geometry":{"type":"Point","coordinates":[-109.0345,40.6313]},"properties":{"s":65.5,"pub":true}},{"type":"Feature","geometry":{"type":"Point","coordinates":[-109.0345,40.6371]},"properties":{"s":48.3,"pub":true}},{"type":"Feature","geometry":{"type":"Point","coordinates":[-109.0345,40.6429]},"properties":{"s":48.3,"pub":true}},{"type":"Feature","geometry":{"type":"Point","coordinates":[-109.0345,40.6487]},"properties":{"s":89.7,"pub":true}},{"type":"Feature","geometry":{"type":"Point","coordinates":[-109.0345,40.6545]},"properties":{"s":62.1,"pub":false}},{"type":"Feature","geometry":{"type":"Point","coordinates":[-109.0345,40.6603]},"properties":{"s":62.1,"pub":false}},{"type":"Feature","geometry":{"type":"Point","coordinates":[-109.0345,40.6777]},"properties":{"s":48.3,"pub":true}},{"type":"Feature","geometry":{"type":"Point","coordinates":[-109.0345,40.6835]},"properties":{"s":48.3,"pub":true}},{"type":"Feature","geometry":{"type":"Point","coordinates":[-109.0345,40.6893]},"properties":{"s":48.3,"pub":true}},{"type":"Feature","geometry":{"type":"Point","coordinates":[-109.0345,40.6951]},"properties":{"s":48.3,"pub":true}},{"type":"Feature","geometry":{"type":"Point","coordinates":[-109.0345,40.7009]},"properties":{"s":48.3,"pub":true}},{"type":"Feature","geometry":{"type":"Point","coordinates":[-109.0345,40.7067]},"properties":{"s":48.3,"pub":true}},{"type":"Feature","geometry":{"type":"Point","coordinates":[-109.0345,40.7125]},"properties":{"s":62.1,"pub":false}},{"type":"Feature","geometry":{"type":"Point","coordinates":[-109.0345,40.7183]},"properties":{"s":65.5,"pub":true}},{"type":"Feature","geometry":{"type":"Point","coordinates":[-109.0345,40.7241]},"properties":{"s":65.5,"pub":true}},{"type":"Feature","geometry":{"type":"Point","coordinates":[-109.0345,40.7299]},"properties":{"s":62.1,"pub":true}},{"type":"Feature","geometry":{"type":"Point","coordinates":[-109.0345,40.7357]},"properties":{"s":89.7,"pub":true}},{"type":"Feature","geometry":{"type":"Point","coordinates":[-109.0345,40.7415]},"properties":{"s":62.1,"pub":true}},{"type":"Feature","geometry":{"type":"Point","coordinates":[-109.0345,40.7473]},"properties":{"s":65.5,"pub":true}},{"type":"Feature","geometry":{"type":"Point","coordinates":[-109.0345,40.7531]},"properties":{"s":65.5,"pub":true}},{"type":"Feature","geometry":{"type":"Point","coordinates":[-109.0345,40.7647]},"properties":{"s":48.3,"pub":true}},{"type":"Feature","geometry":{"type":"Point","coordinates":[-109.0345,40.7705]},"properties":{"s":48.3,"pub":true}},{"type":"Feature","geometry":{"type":"Point","coordinates":[-109.0345,40.7763]},"properties":{"s":89.7,"pub":true}},{"type":"Feature","geometry":{"type":"Point","coordinates":[-109.0345,40.7821]},"properties":{"s":65.5,"pub":true}},{"type":"Feature","geometry":{"type":"Point","coordinates":[-109.0345,40.7879]},"properties":{"s":65.5,"pub":true}},{"type":"Feature","geometry":{"type":"Point","coordinates":[-109.0345,40.7937]},"properties":{"s":65.5,"pub":true}},{"type":"Feature","geometry":{"type":"Point","coordinates":[-109.0345,40.7995]},"properties":{"s":65.5,"pub":true}},{"type":"Feature","geometry":{"type":"Point","coordinates":[-109.0345,40.8053]},"properties":{"s":44.8,"pub":true}},{"type":"Feature","geometry":{"type":"Point","coordinates":[-109.027,40.5617]},"properties":{"s":24.1,"pub":true}},{"type":"Feature","geometry":{"type":"Point","coordinates":[-109.027,40.5675]},"properties":{"s":24.1,"pub":true}},{"type":"Feature","geometry":{"type":"Point","coordinates":[-109.027,40.5733]},"properties":{"s":24.1,"pub":true}},{"type":"Feature","geometry":{"type":"Point","coordinates":[-109.027,40.5791]},"properties":{"s":24.1,"pub":true}},{"type":"Feature","geometry":{"type":"Point","coordinates":[-109.027,40.5849]},"properties":{"s":24.1,"pub":true}},{"type":"Feature","geometry":{"type":"Point","coordinates":[-109.027,40.5907]},"properties":{"s":24.1,"pub":true}},{"type":"Feature","geometry":{"type":"Point","coordinates":[-109.027,40.5965]},"properties":{"s":24.1,"pub":true}},{"type":"Feature","geometry":{"type":"Point","coordinates":[-109.027,40.6023]},"properties":{"s":65.5,"pub":true}},{"type":"Feature","geometry":{"type":"Point","coordinates":[-109.027,40.6081]},"properties":{"s":65.5,"pub":true}},{"type":"Feature","geometry":{"type":"Point","coordinates":[-109.027,40.6139]},"properties":{"s":65.5,"pub":true}},{"type":"Feature","geometry":{"type":"Point","coordinates":[-109.027,40.6197]},"properties":{"s":65.5,"pub":true}},{"type":"Feature","geometry":{"type":"Point","coordinates":[-109.027,40.6255]},"properties":{"s":65.5,"pub":true}},{"type":"Feature","geometry":{"type":"Point","coordinates":[-109.027,40.6313]},"properties":{"s":93.1,"pub":true}},{"type":"Feature","geometry":{"type":"Point","coordinates":[-109.027,40.6371]},"properties":{"s":93.1,"pub":true}},{"type":"Feature","geometry":{"type":"Point","coordinates":[-109.027,40.6429]},"properties":{"s":89.7,"pub":true}},{"type":"Feature","geometry":{"type":"Point","coordinates":[-109.027,40.6487]},"properties":{"s":62.1,"pub":false}},{"type":"Feature","geometry":{"type":"Point","coordinates":[-109.027,40.6545]},"properties":{"s":62.1,"pub":false}},{"type":"Feature","geometry":{"type":"Point","coordinates":[-109.027,40.6603]},"properties":{"s":62.1,"pub":false}},{"type":"Feature","geometry":{"type":"Point","coordinates":[-109.027,40.6661]},"properties":{"s":62.1,"pub":false}},{"type":"Feature","geometry":{"type":"Point","coordinates":[-109.027,40.6719]},"properties":{"s":48.3,"pub":true}},{"type":"Feature","geometry":{"type":"Point","coordinates":[-109.027,40.6777]},"properties":{"s":48.3,"pub":true}},{"type":"Feature","geometry":{"type":"Point","coordinates":[-109.027,40.6835]},"properties":{"s":48.3,"pub":true}},{"type":"Feature","geometry":{"type":"Point","coordinates":[-109.027,40.6893]},"properties":{"s":48.3,"pub":true}},{"type":"Feature","geometry":{"type":"Point","coordinates":[-109.027,40.6951]},"properties":{"s":48.3,"pub":true}},{"type":"Feature","geometry":{"type":"Point","coordinates":[-109.027,40.7009]},"properties":{"s":48.3,"pub":true}},{"type":"Feature","geometry":{"type":"Point","coordinates":[-109.027,40.7067]},"properties":{"s":62.1,"pub":true}},{"type":"Feature","geometry":{"type":"Point","coordinates":[-109.027,40.7125]},"properties":{"s":62.1,"pub":true}},{"type":"Feature","geometry":{"type":"Point","coordinates":[-109.027,40.7183]},"properties":{"s":65.5,"pub":true}},{"type":"Feature","geometry":{"type":"Point","coordinates":[-109.027,40.7241]},"properties":{"s":24.1,"pub":true}},{"type":"Feature","geometry":{"type":"Point","coordinates":[-109.027,40.7299]},"properties":{"s":65.5,"pub":true}},{"type":"Feature","geometry":{"type":"Point","coordinates":[-109.027,40.7357]},"properties":{"s":62.1,"pub":true}},{"type":"Feature","geometry":{"type":"Point","coordinates":[-109.027,40.7415]},"properties":{"s":65.5,"pub":true}},{"type":"Feature","geometry":{"type":"Point","coordinates":[-109.027,40.7473]},"properties":{"s":65.5,"pub":true}},{"type":"Feature","geometry":{"type":"Point","coordinates":[-109.027,40.7647]},"properties":{"s":48.3,"pub":true}},{"type":"Feature","geometry":{"type":"Point","coordinates":[-109.027,40.7705]},"properties":{"s":48.3,"pub":true}},{"type":"Feature","geometry":{"type":"Point","coordinates":[-109.027,40.7821]},"properties":{"s":65.5,"pub":true}},{"type":"Feature","geometry":{"type":"Point","coordinates":[-109.027,40.7879]},"properties":{"s":65.5,"pub":true}},{"type":"Feature","geometry":{"type":"Point","coordinates":[-109.027,40.7937]},"properties":{"s":65.5,"pub":true}},{"type":"Feature","geometry":{"type":"Point","coordinates":[-109.027,40.7995]},"properties":{"s":44.8,"pub":true}},{"type":"Feature","geometry":{"type":"Point","coordinates":[-109.0195,40.5617]},"properties":{"s":24.1,"pub":true}},{"type":"Feature","geometry":{"type":"Point","coordinates":[-109.0195,40.5675]},"properties":{"s":24.1,"pub":true}},{"type":"Feature","geometry":{"type":"Point","coordinates":[-109.0195,40.5733]},"properties":{"s":65.5,"pub":true}},{"type":"Feature","geometry":{"type":"Point","coordinates":[-109.0195,40.5791]},"properties":{"s":65.5,"pub":true}},{"type":"Feature","geometry":{"type":"Point","coordinates":[-109.0195,40.5849]},"properties":{"s":65.5,"pub":true}},{"type":"Feature","geometry":{"type":"Point","coordinates":[-109.0195,40.5907]},"properties":{"s":65.5,"pub":true}},{"type":"Feature","geometry":{"type":"Point","coordinates":[-109.0195,40.5965]},"properties":{"s":65.5,"pub":true}},{"type":"Feature","geometry":{"type":"Point","coordinates":[-109.0195,40.6023]},"properties":{"s":65.5,"pub":true}},{"type":"Feature","geometry":{"type":"Point","coordinates":[-109.0195,40.6081]},"properties":{"s":65.5,"pub":true}},{"type":"Feature","geometry":{"type":"Point","coordinates":[-109.0195,40.6139]},"properties":{"s":65.5,"pub":true}},{"type":"Feature","geometry":{"type":"Point","coordinates":[-109.0195,40.6197]},"properties":{"s":65.5,"pub":true}},{"type":"Feature","geometry":{"type":"Point","coordinates":[-109.0195,40.6255]},"properties":{"s":65.5,"pub":true}},{"type":"Feature","geometry":{"type":"Point","coordinates":[-109.0195,40.6313]},"properties":{"s":65.5,"pub":true}},{"type":"Feature","geometry":{"type":"Point","coordinates":[-109.0195,40.6371]},"properties":{"s":65.5,"pub":false}},{"type":"Feature","geometry":{"type":"Point","coordinates":[-109.0195,40.6429]},"properties":{"s":65.5,"pub":false}},{"type":"Feature","geometry":{"type":"Point","coordinates":[-109.0195,40.6487]},"properties":{"s":65.5,"pub":false}},{"type":"Feature","geometry":{"type":"Point","coordinates":[-109.0195,40.6545]},"properties":{"s":65.5,"pub":true}},{"type":"Feature","geometry":{"type":"Point","coordinates":[-109.0195,40.6603]},"properties":{"s":65.5,"pub":false}},{"type":"Feature","geometry":{"type":"Point","coordinates":[-109.0195,40.6661]},"properties":{"s":65.5,"pub":true}},{"type":"Feature","geometry":{"type":"Point","coordinates":[-109.0195,40.6777]},"properties":{"s":48.3,"pub":true}},{"type":"Feature","geometry":{"type":"Point","coordinates":[-109.0195,40.6835]},"properties":{"s":48.3,"pub":true}},{"type":"Feature","geometry":{"type":"Point","coordinates":[-109.0195,40.7067]},"properties":{"s":62.1,"pub":false}},{"type":"Feature","geometry":{"type":"Point","coordinates":[-109.0195,40.7125]},"properties":{"s":65.5,"pub":false}},{"type":"Feature","geometry":{"type":"Point","coordinates":[-109.0195,40.7183]},"properties":{"s":24.1,"pub":true}},{"type":"Feature","geometry":{"type":"Point","coordinates":[-109.0195,40.7241]},"properties":{"s":24.1,"pub":true}},{"type":"Feature","geometry":{"type":"Point","coordinates":[-109.0195,40.7299]},"properties":{"s":24.1,"pub":true}},{"type":"Feature","geometry":{"type":"Point","coordinates":[-109.0195,40.7357]},"properties":{"s":62.1,"pub":true}},{"type":"Feature","geometry":{"type":"Point","coordinates":[-109.0195,40.7415]},"properties":{"s":65.5,"pub":true}},{"type":"Feature","geometry":{"type":"Point","coordinates":[-109.0195,40.7473]},"properties":{"s":65.5,"pub":true}},{"type":"Feature","geometry":{"type":"Point","coordinates":[-109.0195,40.7879]},"properties":{"s":24.1,"pub":true}},{"type":"Feature","geometry":{"type":"Point","coordinates":[-109.0195,40.7937]},"properties":{"s":24.1,"pub":true}},{"type":"Feature","geometry":{"type":"Point","coordinates":[-109.012,40.5675]},"properties":{"s":65.5,"pub":true}},{"type":"Feature","geometry":{"type":"Point","coordinates":[-109.012,40.5733]},"properties":{"s":65.5,"pub":true}},{"type":"Feature","geometry":{"type":"Point","coordinates":[-109.012,40.5791]},"properties":{"s":65.5,"pub":true}},{"type":"Feature","geometry":{"type":"Point","coordinates":[-109.012,40.5849]},"properties":{"s":65.5,"pub":true}},{"type":"Feature","geometry":{"type":"Point","coordinates":[-109.012,40.5907]},"properties":{"s":65.5,"pub":true}},{"type":"Feature","geometry":{"type":"Point","coordinates":[-109.012,40.5965]},"properties":{"s":65.5,"pub":true}},{"type":"Feature","geometry":{"type":"Point","coordinates":[-109.012,40.6023]},"properties":{"s":65.5,"pub":true}},{"type":"Feature","geometry":{"type":"Point","coordinates":[-109.012,40.6081]},"properties":{"s":65.5,"pub":true}},{"type":"Feature","geometry":{"type":"Point","coordinates":[-109.012,40.6139]},"properties":{"s":65.5,"pub":true}},{"type":"Feature","geometry":{"type":"Point","coordinates":[-109.012,40.6197]},"properties":{"s":65.5,"pub":true}},{"type":"Feature","geometry":{"type":"Point","coordinates":[-109.012,40.6255]},"properties":{"s":65.5,"pub":true}},{"type":"Feature","geometry":{"type":"Point","coordinates":[-109.012,40.6313]},"properties":{"s":65.5,"pub":true}},{"type":"Feature","geometry":{"type":"Point","coordinates":[-109.012,40.6371]},"properties":{"s":65.5,"pub":false}},{"type":"Feature","geometry":{"type":"Point","coordinates":[-109.012,40.6429]},"properties":{"s":65.5,"pub":false}},{"type":"Feature","geometry":{"type":"Point","coordinates":[-109.012,40.6487]},"properties":{"s":65.5,"pub":false}},{"type":"Feature","geometry":{"type":"Point","coordinates":[-109.012,40.6545]},"properties":{"s":65.5,"pub":true}},{"type":"Feature","geometry":{"type":"Point","coordinates":[-109.012,40.6603]},"properties":{"s":65.5,"pub":false}},{"type":"Feature","geometry":{"type":"Point","coordinates":[-109.012,40.6661]},"properties":{"s":65.5,"pub":false}},{"type":"Feature","geometry":{"type":"Point","coordinates":[-109.012,40.6893]},"properties":{"s":24.1,"pub":false}},{"type":"Feature","geometry":{"type":"Point","coordinates":[-109.012,40.6951]},"properties":{"s":24.1,"pub":false}},{"type":"Feature","geometry":{"type":"Point","coordinates":[-109.012,40.7067]},"properties":{"s":24.1,"pub":false}},{"type":"Feature","geometry":{"type":"Point","coordinates":[-109.012,40.7125]},"properties":{"s":24.1,"pub":false}},{"type":"Feature","geometry":{"type":"Point","coordinates":[-109.012,40.7183]},"properties":{"s":24.1,"pub":true}},{"type":"Feature","geometry":{"type":"Point","coordinates":[-109.012,40.7241]},"properties":{"s":24.1,"pub":true}},{"type":"Feature","geometry":{"type":"Point","coordinates":[-109.012,40.7299]},"properties":{"s":24.1,"pub":true}},{"type":"Feature","geometry":{"type":"Point","coordinates":[-109.012,40.7357]},"properties":{"s":24.1,"pub":true}},{"type":"Feature","geometry":{"type":"Point","coordinates":[-109.012,40.7415]},"properties":{"s":24.1,"pub":true}},{"type":"Feature","geometry":{"type":"Point","coordinates":[-109.012,40.7473]},"properties":{"s":24.1,"pub":true}},{"type":"Feature","geometry":{"type":"Point","coordinates":[-109.012,40.7531]},"properties":{"s":24.1,"pub":true}},{"type":"Feature","geometry":{"type":"Point","coordinates":[-109.012,40.7821]},"properties":{"s":24.1,"pub":true}},{"type":"Feature","geometry":{"type":"Point","coordinates":[-109.012,40.7879]},"properties":{"s":24.1,"pub":true}},{"type":"Feature","geometry":{"type":"Point","coordinates":[-109.012,40.7937]},"properties":{"s":24.1,"pub":true}},{"type":"Feature","geometry":{"type":"Point","coordinates":[-109.012,40.7995]},"properties":{"s":24.1,"pub":true}},{"type":"Feature","geometry":{"type":"Point","coordinates":[-109.0045,40.5675]},"properties":{"s":65.5,"pub":true}},{"type":"Feature","geometry":{"type":"Point","coordinates":[-109.0045,40.5733]},"properties":{"s":24.1,"pub":true}},{"type":"Feature","geometry":{"type":"Point","coordinates":[-109.0045,40.5791]},"properties":{"s":24.1,"pub":true}},{"type":"Feature","geometry":{"type":"Point","coordinates":[-109.0045,40.5907]},"properties":{"s":24.1,"pub":true}},{"type":"Feature","geometry":{"type":"Point","coordinates":[-109.0045,40.5965]},"properties":{"s":65.5,"pub":true}},{"type":"Feature","geometry":{"type":"Point","coordinates":[-109.0045,40.6023]},"properties":{"s":65.5,"pub":true}},{"type":"Feature","geometry":{"type":"Point","coordinates":[-109.0045,40.6081]},"properties":{"s":65.5,"pub":true}},{"type":"Feature","geometry":{"type":"Point","coordinates":[-109.0045,40.6139]},"properties":{"s":65.5,"pub":true}},{"type":"Feature","geometry":{"type":"Point","coordinates":[-109.0045,40.6197]},"properties":{"s":65.5,"pub":true}},{"type":"Feature","geometry":{"type":"Point","coordinates":[-109.0045,40.6255]},"properties":{"s":65.5,"pub":true}},{"type":"Feature","geometry":{"type":"Point","coordinates":[-109.0045,40.6313]},"properties":{"s":65.5,"pub":false}},{"type":"Feature","geometry":{"type":"Point","coordinates":[-109.0045,40.6371]},"properties":{"s":65.5,"pub":false}},{"type":"Feature","geometry":{"type":"Point","coordinates":[-109.0045,40.6429]},"properties":{"s":65.5,"pub":true}},{"type":"Feature","geometry":{"type":"Point","coordinates":[-109.0045,40.6487]},"properties":{"s":65.5,"pub":true}},{"type":"Feature","geometry":{"type":"Point","coordinates":[-109.0045,40.6545]},"properties":{"s":65.5,"pub":true}},{"type":"Feature","geometry":{"type":"Point","coordinates":[-109.0045,40.6603]},"properties":{"s":65.5,"pub":false}},{"type":"Feature","geometry":{"type":"Point","coordinates":[-109.0045,40.6661]},"properties":{"s":65.5,"pub":false}},{"type":"Feature","geometry":{"type":"Point","coordinates":[-109.0045,40.6719]},"properties":{"s":65.5,"pub":false}},{"type":"Feature","geometry":{"type":"Point","coordinates":[-109.0045,40.6777]},"properties":{"s":24.1,"pub":false}},{"type":"Feature","geometry":{"type":"Point","coordinates":[-109.0045,40.6835]},"properties":{"s":24.1,"pub":false}},{"type":"Feature","geometry":{"type":"Point","coordinates":[-109.0045,40.6893]},"properties":{"s":24.1,"pub":false}},{"type":"Feature","geometry":{"type":"Point","coordinates":[-109.0045,40.6951]},"properties":{"s":24.1,"pub":false}},{"type":"Feature","geometry":{"type":"Point","coordinates":[-109.0045,40.7009]},"properties":{"s":24.1,"pub":false}},{"type":"Feature","geometry":{"type":"Point","coordinates":[-109.0045,40.7067]},"properties":{"s":24.1,"pub":false}},{"type":"Feature","geometry":{"type":"Point","coordinates":[-109.0045,40.7125]},"properties":{"s":24.1,"pub":true}},{"type":"Feature","geometry":{"type":"Point","coordinates":[-109.0045,40.7183]},"properties":{"s":24.1,"pub":true}},{"type":"Feature","geometry":{"type":"Point","coordinates":[-109.0045,40.7241]},"properties":{"s":24.1,"pub":true}},{"type":"Feature","geometry":{"type":"Point","coordinates":[-109.0045,40.7299]},"properties":{"s":24.1,"pub":true}},{"type":"Feature","geometry":{"type":"Point","coordinates":[-109.0045,40.7473]},"properties":{"s":24.1,"pub":true}},{"type":"Feature","geometry":{"type":"Point","coordinates":[-109.0045,40.7763]},"properties":{"s":24.1,"pub":true}},{"type":"Feature","geometry":{"type":"Point","coordinates":[-109.0045,40.7821]},"properties":{"s":24.1,"pub":true}},{"type":"Feature","geometry":{"type":"Point","coordinates":[-109.0045,40.7879]},"properties":{"s":24.1,"pub":true}},{"type":"Feature","geometry":{"type":"Point","coordinates":[-109.0045,40.7937]},"properties":{"s":24.1,"pub":true}},{"type":"Feature","geometry":{"type":"Point","coordinates":[-109.0045,40.7995]},"properties":{"s":24.1,"pub":true}},{"type":"Feature","geometry":{"type":"Point","coordinates":[-108.997,40.5617]},"properties":{"s":24.1,"pub":true}},{"type":"Feature","geometry":{"type":"Point","coordinates":[-108.997,40.5675]},"properties":{"s":24.1,"pub":true}},{"type":"Feature","geometry":{"type":"Point","coordinates":[-108.997,40.6023]},"properties":{"s":24.1,"pub":true}},{"type":"Feature","geometry":{"type":"Point","coordinates":[-108.997,40.6081]},"properties":{"s":65.5,"pub":true}},{"type":"Feature","geometry":{"type":"Point","coordinates":[-108.997,40.6139]},"properties":{"s":65.5,"pub":true}},{"type":"Feature","geometry":{"type":"Point","coordinates":[-108.997,40.6197]},"properties":{"s":65.5,"pub":true}},{"type":"Feature","geometry":{"type":"Point","coordinates":[-108.997,40.6255]},"properties":{"s":65.5,"pub":false}},{"type":"Feature","geometry":{"type":"Point","coordinates":[-108.997,40.6313]},"properties":{"s":24.1,"pub":false}},{"type":"Feature","geometry":{"type":"Point","coordinates":[-108.997,40.6371]},"properties":{"s":65.5,"pub":false}},{"type":"Feature","geometry":{"type":"Point","coordinates":[-108.997,40.6429]},"properties":{"s":65.5,"pub":true}},{"type":"Feature","geometry":{"type":"Point","coordinates":[-108.997,40.6487]},"properties":{"s":65.5,"pub":true}},{"type":"Feature","geometry":{"type":"Point","coordinates":[-108.997,40.6545]},"properties":{"s":65.5,"pub":true}},{"type":"Feature","geometry":{"type":"Point","coordinates":[-108.997,40.6603]},"properties":{"s":65.5,"pub":false}},{"type":"Feature","geometry":{"type":"Point","coordinates":[-108.997,40.6661]},"properties":{"s":65.5,"pub":false}},{"type":"Feature","geometry":{"type":"Point","coordinates":[-108.997,40.6719]},"properties":{"s":24.1,"pub":true}},{"type":"Feature","geometry":{"type":"Point","coordinates":[-108.997,40.6777]},"properties":{"s":24.1,"pub":true}},{"type":"Feature","geometry":{"type":"Point","coordinates":[-108.997,40.6835]},"properties":{"s":24.1,"pub":true}},{"type":"Feature","geometry":{"type":"Point","coordinates":[-108.997,40.6893]},"properties":{"s":24.1,"pub":false}},{"type":"Feature","geometry":{"type":"Point","coordinates":[-108.997,40.6951]},"properties":{"s":24.1,"pub":false}},{"type":"Feature","geometry":{"type":"Point","coordinates":[-108.997,40.7009]},"properties":{"s":24.1,"pub":false}},{"type":"Feature","geometry":{"type":"Point","coordinates":[-108.997,40.7067]},"properties":{"s":24.1,"pub":false}},{"type":"Feature","geometry":{"type":"Point","coordinates":[-108.997,40.7125]},"properties":{"s":24.1,"pub":false}},{"type":"Feature","geometry":{"type":"Point","coordinates":[-108.997,40.7183]},"properties":{"s":24.1,"pub":true}},{"type":"Feature","geometry":{"type":"Point","coordinates":[-108.997,40.7241]},"properties":{"s":24.1,"pub":true}},{"type":"Feature","geometry":{"type":"Point","coordinates":[-108.997,40.7763]},"properties":{"s":24.1,"pub":true}},{"type":"Feature","geometry":{"type":"Point","coordinates":[-108.997,40.7821]},"properties":{"s":24.1,"pub":true}},{"type":"Feature","geometry":{"type":"Point","coordinates":[-108.997,40.7879]},"properties":{"s":31.0,"pub":true}},{"type":"Feature","geometry":{"type":"Point","coordinates":[-108.997,40.7937]},"properties":{"s":24.1,"pub":true}},{"type":"Feature","geometry":{"type":"Point","coordinates":[-108.997,40.7995]},"properties":{"s":24.1,"pub":true}},{"type":"Feature","geometry":{"type":"Point","coordinates":[-108.997,40.8053]},"properties":{"s":31.0,"pub":true}},{"type":"Feature","geometry":{"type":"Point","coordinates":[-108.997,40.8111]},"properties":{"s":31.0,"pub":true}},{"type":"Feature","geometry":{"type":"Point","coordinates":[-108.997,40.8169]},"properties":{"s":31.0,"pub":true}},{"type":"Feature","geometry":{"type":"Point","coordinates":[-108.997,40.8227]},"properties":{"s":31.0,"pub":true}},{"type":"Feature","geometry":{"type":"Point","coordinates":[-108.9895,40.5617]},"properties":{"s":24.1,"pub":true}},{"type":"Feature","geometry":{"type":"Point","coordinates":[-108.9895,40.6081]},"properties":{"s":24.1,"pub":true}},{"type":"Feature","geometry":{"type":"Point","coordinates":[-108.9895,40.6139]},"properties":{"s":65.5,"pub":true}},{"type":"Feature","geometry":{"type":"Point","coordinates":[-108.9895,40.6197]},"properties":{"s":24.1,"pub":true}},{"type":"Feature","geometry":{"type":"Point","coordinates":[-108.9895,40.6255]},"properties":{"s":24.1,"pub":true}},{"type":"Feature","geometry":{"type":"Point","coordinates":[-108.9895,40.6313]},"properties":{"s":24.1,"pub":false}},{"type":"Feature","geometry":{"type":"Point","coordinates":[-108.9895,40.6371]},"properties":{"s":24.1,"pub":false}},{"type":"Feature","geometry":{"type":"Point","coordinates":[-108.9895,40.6429]},"properties":{"s":65.5,"pub":true}},{"type":"Feature","geometry":{"type":"Point","coordinates":[-108.9895,40.6487]},"properties":{"s":65.5,"pub":true}},{"type":"Feature","geometry":{"type":"Point","coordinates":[-108.9895,40.6545]},"properties":{"s":65.5,"pub":false}},{"type":"Feature","geometry":{"type":"Point","coordinates":[-108.9895,40.6603]},"properties":{"s":65.5,"pub":false}},{"type":"Feature","geometry":{"type":"Point","coordinates":[-108.9895,40.6661]},"properties":{"s":24.1,"pub":true}},{"type":"Feature","geometry":{"type":"Point","coordinates":[-108.9895,40.6719]},"properties":{"s":24.1,"pub":true}},{"type":"Feature","geometry":{"type":"Point","coordinates":[-108.9895,40.6777]},"properties":{"s":24.1,"pub":true}},{"type":"Feature","geometry":{"type":"Point","coordinates":[-108.9895,40.6835]},"properties":{"s":24.1,"pub":true}},{"type":"Feature","geometry":{"type":"Point","coordinates":[-108.9895,40.6893]},"properties":{"s":24.1,"pub":true}},{"type":"Feature","geometry":{"type":"Point","coordinates":[-108.9895,40.6951]},"properties":{"s":24.1,"pub":true}},{"type":"Feature","geometry":{"type":"Point","coordinates":[-108.9895,40.7009]},"properties":{"s":24.1,"pub":false}},{"type":"Feature","geometry":{"type":"Point","coordinates":[-108.9895,40.7067]},"properties":{"s":24.1,"pub":false}},{"type":"Feature","geometry":{"type":"Point","coordinates":[-108.9895,40.7125]},"properties":{"s":24.1,"pub":true}},{"type":"Feature","geometry":{"type":"Point","coordinates":[-108.9895,40.7183]},"properties":{"s":24.1,"pub":false}},{"type":"Feature","geometry":{"type":"Point","coordinates":[-108.9895,40.7241]},"properties":{"s":24.1,"pub":true}},{"type":"Feature","geometry":{"type":"Point","coordinates":[-108.9895,40.7299]},"properties":{"s":24.1,"pub":true}},{"type":"Feature","geometry":{"type":"Point","coordinates":[-108.9895,40.7763]},"properties":{"s":24.1,"pub":true}},{"type":"Feature","geometry":{"type":"Point","coordinates":[-108.9895,40.7821]},"properties":{"s":24.1,"pub":true}},{"type":"Feature","geometry":{"type":"Point","coordinates":[-108.9895,40.7879]},"properties":{"s":24.1,"pub":true}},{"type":"Feature","geometry":{"type":"Point","coordinates":[-108.9895,40.7937]},"properties":{"s":31.0,"pub":true}},{"type":"Feature","geometry":{"type":"Point","coordinates":[-108.9895,40.7995]},"properties":{"s":31.0,"pub":true}},{"type":"Feature","geometry":{"type":"Point","coordinates":[-108.9895,40.8053]},"properties":{"s":31.0,"pub":true}},{"type":"Feature","geometry":{"type":"Point","coordinates":[-108.9895,40.8111]},"properties":{"s":31.0,"pub":true}},{"type":"Feature","geometry":{"type":"Point","coordinates":[-108.9895,40.8169]},"properties":{"s":31.0,"pub":true}},{"type":"Feature","geometry":{"type":"Point","coordinates":[-108.9895,40.8227]},"properties":{"s":31.0,"pub":true}},{"type":"Feature","geometry":{"type":"Point","coordinates":[-108.9895,40.8285]},"properties":{"s":31.0,"pub":true}},{"type":"Feature","geometry":{"type":"Point","coordinates":[-108.982,40.6139]},"properties":{"s":24.1,"pub":true}},{"type":"Feature","geometry":{"type":"Point","coordinates":[-108.982,40.6197]},"properties":{"s":24.1,"pub":true}},{"type":"Feature","geometry":{"type":"Point","coordinates":[-108.982,40.6255]},"properties":{"s":24.1,"pub":true}},{"type":"Feature","geometry":{"type":"Point","coordinates":[-108.982,40.6313]},"properties":{"s":24.1,"pub":true}},{"type":"Feature","geometry":{"type":"Point","coordinates":[-108.982,40.6371]},"properties":{"s":24.1,"pub":true}},{"type":"Feature","geometry":{"type":"Point","coordinates":[-108.982,40.6429]},"properties":{"s":24.1,"pub":true}},{"type":"Feature","geometry":{"type":"Point","coordinates":[-108.982,40.6487]},"properties":{"s":65.5,"pub":true}},{"type":"Feature","geometry":{"type":"Point","coordinates":[-108.982,40.6545]},"properties":{"s":65.5,"pub":false}},{"type":"Feature","geometry":{"type":"Point","coordinates":[-108.982,40.6603]},"properties":{"s":24.1,"pub":false}},{"type":"Feature","geometry":{"type":"Point","coordinates":[-108.982,40.6661]},"properties":{"s":24.1,"pub":true}},{"type":"Feature","geometry":{"type":"Point","coordinates":[-108.982,40.6719]},"properties":{"s":24.1,"pub":true}},{"type":"Feature","geometry":{"type":"Point","coordinates":[-108.982,40.6777]},"properties":{"s":65.5,"pub":true}},{"type":"Feature","geometry":{"type":"Point","coordinates":[-108.982,40.6835]},"properties":{"s":24.1,"pub":true}},{"type":"Feature","geometry":{"type":"Point","coordinates":[-108.982,40.6893]},"properties":{"s":24.1,"pub":true}},{"type":"Feature","geometry":{"type":"Point","coordinates":[-108.982,40.6951]},"properties":{"s":24.1,"pub":true}},{"type":"Feature","geometry":{"type":"Point","coordinates":[-108.982,40.7009]},"properties":{"s":24.1,"pub":false}},{"type":"Feature","geometry":{"type":"Point","coordinates":[-108.982,40.7067]},"properties":{"s":24.1,"pub":true}},{"type":"Feature","geometry":{"type":"Point","coordinates":[-108.982,40.7125]},"properties":{"s":24.1,"pub":false}},{"type":"Feature","geometry":{"type":"Point","coordinates":[-108.982,40.7183]},"properties":{"s":24.1,"pub":true}},{"type":"Feature","geometry":{"type":"Point","coordinates":[-108.982,40.7241]},"properties":{"s":24.1,"pub":true}},{"type":"Feature","geometry":{"type":"Point","coordinates":[-108.982,40.7299]},"properties":{"s":24.1,"pub":true}},{"type":"Feature","geometry":{"type":"Point","coordinates":[-108.982,40.7357]},"properties":{"s":24.1,"pub":true}},{"type":"Feature","geometry":{"type":"Point","coordinates":[-108.982,40.7647]},"properties":{"s":24.1,"pub":true}},{"type":"Feature","geometry":{"type":"Point","coordinates":[-108.982,40.7705]},"properties":{"s":24.1,"pub":true}},{"type":"Feature","geometry":{"type":"Point","coordinates":[-108.982,40.7763]},"properties":{"s":24.1,"pub":true}},{"type":"Feature","geometry":{"type":"Point","coordinates":[-108.982,40.7821]},"properties":{"s":24.1,"pub":true}},{"type":"Feature","geometry":{"type":"Point","coordinates":[-108.982,40.7879]},"properties":{"s":24.1,"pub":true}},{"type":"Feature","geometry":{"type":"Point","coordinates":[-108.982,40.7937]},"properties":{"s":31.0,"pub":true}},{"type":"Feature","geometry":{"type":"Point","coordinates":[-108.982,40.7995]},"properties":{"s":31.0,"pub":true}},{"type":"Feature","geometry":{"type":"Point","coordinates":[-108.982,40.8053]},"properties":{"s":31.0,"pub":true}},{"type":"Feature","geometry":{"type":"Point","coordinates":[-108.982,40.8111]},"properties":{"s":31.0,"pub":true}},{"type":"Feature","geometry":{"type":"Point","coordinates":[-108.982,40.8169]},"properties":{"s":31.0,"pub":true}},{"type":"Feature","geometry":{"type":"Point","coordinates":[-108.982,40.8227]},"properties":{"s":31.0,"pub":true}},{"type":"Feature","geometry":{"type":"Point","coordinates":[-108.982,40.8285]},"properties":{"s":31.0,"pub":true}},{"type":"Feature","geometry":{"type":"Point","coordinates":[-108.9745,40.6197]},"properties":{"s":24.1,"pub":true}},{"type":"Feature","geometry":{"type":"Point","coordinates":[-108.9745,40.6255]},"properties":{"s":24.1,"pub":true}},{"type":"Feature","geometry":{"type":"Point","coordinates":[-108.9745,40.6313]},"properties":{"s":24.1,"pub":true}},{"type":"Feature","geometry":{"type":"Point","coordinates":[-108.9745,40.6371]},"properties":{"s":24.1,"pub":true}},{"type":"Feature","geometry":{"type":"Point","coordinates":[-108.9745,40.6429]},"properties":{"s":65.5,"pub":true}},{"type":"Feature","geometry":{"type":"Point","coordinates":[-108.9745,40.6487]},"properties":{"s":65.5,"pub":true}},{"type":"Feature","geometry":{"type":"Point","coordinates":[-108.9745,40.6545]},"properties":{"s":24.1,"pub":false}},{"type":"Feature","geometry":{"type":"Point","coordinates":[-108.9745,40.6603]},"properties":{"s":24.1,"pub":true}},{"type":"Feature","geometry":{"type":"Point","coordinates":[-108.9745,40.6661]},"properties":{"s":24.1,"pub":true}},{"type":"Feature","geometry":{"type":"Point","coordinates":[-108.9745,40.6719]},"properties":{"s":65.5,"pub":true}},{"type":"Feature","geometry":{"type":"Point","coordinates":[-108.9745,40.6777]},"properties":{"s":65.5,"pub":true}},{"type":"Feature","geometry":{"type":"Point","coordinates":[-108.9745,40.6835]},"properties":{"s":65.5,"pub":true}},{"type":"Feature","geometry":{"type":"Point","coordinates":[-108.9745,40.6893]},"properties":{"s":24.1,"pub":true}},{"type":"Feature","geometry":{"type":"Point","coordinates":[-108.9745,40.6951]},"properties":{"s":24.1,"pub":true}},{"type":"Feature","geometry":{"type":"Point","coordinates":[-108.9745,40.7009]},"properties":{"s":24.1,"pub":false}},{"type":"Feature","geometry":{"type":"Point","coordinates":[-108.9745,40.7067]},"properties":{"s":24.1,"pub":true}},{"type":"Feature","geometry":{"type":"Point","coordinates":[-108.9745,40.7125]},"properties":{"s":24.1,"pub":false}},{"type":"Feature","geometry":{"type":"Point","coordinates":[-108.9745,40.7183]},"properties":{"s":24.1,"pub":false}},{"type":"Feature","geometry":{"type":"Point","coordinates":[-108.9745,40.7241]},"properties":{"s":24.1,"pub":true}},{"type":"Feature","geometry":{"type":"Point","coordinates":[-108.9745,40.7415]},"properties":{"s":24.1,"pub":true}},{"type":"Feature","geometry":{"type":"Point","coordinates":[-108.9745,40.7647]},"properties":{"s":24.1,"pub":true}},{"type":"Feature","geometry":{"type":"Point","coordinates":[-108.9745,40.7705]},"properties":{"s":24.1,"pub":true}},{"type":"Feature","geometry":{"type":"Point","coordinates":[-108.9745,40.7763]},"properties":{"s":24.1,"pub":true}},{"type":"Feature","geometry":{"type":"Point","coordinates":[-108.9745,40.7821]},"properties":{"s":31.0,"pub":true}},{"type":"Feature","geometry":{"type":"Point","coordinates":[-108.9745,40.7879]},"properties":{"s":31.0,"pub":true}},{"type":"Feature","geometry":{"type":"Point","coordinates":[-108.9745,40.7937]},"properties":{"s":31.0,"pub":true}},{"type":"Feature","geometry":{"type":"Point","coordinates":[-108.9745,40.7995]},"properties":{"s":31.0,"pub":true}},{"type":"Feature","geometry":{"type":"Point","coordinates":[-108.9745,40.8053]},"properties":{"s":31.0,"pub":true}},{"type":"Feature","geometry":{"type":"Point","coordinates":[-108.9745,40.8111]},"properties":{"s":31.0,"pub":true}},{"type":"Feature","geometry":{"type":"Point","coordinates":[-108.9745,40.8169]},"properties":{"s":31.0,"pub":true}},{"type":"Feature","geometry":{"type":"Point","coordinates":[-108.9745,40.8227]},"properties":{"s":31.0,"pub":true}},{"type":"Feature","geometry":{"type":"Point","coordinates":[-108.967,40.6313]},"properties":{"s":24.1,"pub":true}},{"type":"Feature","geometry":{"type":"Point","coordinates":[-108.967,40.6371]},"properties":{"s":24.1,"pub":true}},{"type":"Feature","geometry":{"type":"Point","coordinates":[-108.967,40.6429]},"properties":{"s":65.5,"pub":true}},{"type":"Feature","geometry":{"type":"Point","coordinates":[-108.967,40.6487]},"properties":{"s":65.5,"pub":true}},{"type":"Feature","geometry":{"type":"Point","coordinates":[-108.967,40.6545]},"properties":{"s":24.1,"pub":true}},{"type":"Feature","geometry":{"type":"Point","coordinates":[-108.967,40.6603]},"properties":{"s":24.1,"pub":true}},{"type":"Feature","geometry":{"type":"Point","coordinates":[-108.967,40.6661]},"properties":{"s":65.5,"pub":true}},{"type":"Feature","geometry":{"type":"Point","coordinates":[-108.967,40.6719]},"properties":{"s":65.5,"pub":true}},{"type":"Feature","geometry":{"type":"Point","coordinates":[-108.967,40.6777]},"properties":{"s":65.5,"pub":true}},{"type":"Feature","geometry":{"type":"Point","coordinates":[-108.967,40.6835]},"properties":{"s":65.5,"pub":true}},{"type":"Feature","geometry":{"type":"Point","coordinates":[-108.967,40.6893]},"properties":{"s":24.1,"pub":true}},{"type":"Feature","geometry":{"type":"Point","coordinates":[-108.967,40.6951]},"properties":{"s":24.1,"pub":true}},{"type":"Feature","geometry":{"type":"Point","coordinates":[-108.967,40.7009]},"properties":{"s":24.1,"pub":true}},{"type":"Feature","geometry":{"type":"Point","coordinates":[-108.967,40.7067]},"properties":{"s":24.1,"pub":true}},{"type":"Feature","geometry":{"type":"Point","coordinates":[-108.967,40.7125]},"properties":{"s":24.1,"pub":false}},{"type":"Feature","geometry":{"type":"Point","coordinates":[-108.967,40.7183]},"properties":{"s":24.1,"pub":true}},{"type":"Feature","geometry":{"type":"Point","coordinates":[-108.967,40.7241]},"properties":{"s":24.1,"pub":true}},{"type":"Feature","geometry":{"type":"Point","coordinates":[-108.967,40.7299]},"properties":{"s":24.1,"pub":true}},{"type":"Feature","geometry":{"type":"Point","coordinates":[-108.967,40.7357]},"properties":{"s":24.1,"pub":true}},{"type":"Feature","geometry":{"type":"Point","coordinates":[-108.967,40.7415]},"properties":{"s":24.1,"pub":true}},{"type":"Feature","geometry":{"type":"Point","coordinates":[-108.967,40.7647]},"properties":{"s":24.1,"pub":true}},{"type":"Feature","geometry":{"type":"Point","coordinates":[-108.967,40.7705]},"properties":{"s":24.1,"pub":true}},{"type":"Feature","geometry":{"type":"Point","coordinates":[-108.967,40.7763]},"properties":{"s":24.1,"pub":true}},{"type":"Feature","geometry":{"type":"Point","coordinates":[-108.967,40.7821]},"properties":{"s":24.1,"pub":true}},{"type":"Feature","geometry":{"type":"Point","coordinates":[-108.967,40.7879]},"properties":{"s":24.1,"pub":true}},{"type":"Feature","geometry":{"type":"Point","coordinates":[-108.967,40.7937]},"properties":{"s":31.0,"pub":true}},{"type":"Feature","geometry":{"type":"Point","coordinates":[-108.967,40.7995]},"properties":{"s":31.0,"pub":true}},{"type":"Feature","geometry":{"type":"Point","coordinates":[-108.967,40.8053]},"properties":{"s":31.0,"pub":true}},{"type":"Feature","geometry":{"type":"Point","coordinates":[-108.967,40.8111]},"properties":{"s":31.0,"pub":true}},{"type":"Feature","geometry":{"type":"Point","coordinates":[-108.9595,40.6487]},"properties":{"s":24.1,"pub":true}},{"type":"Feature","geometry":{"type":"Point","coordinates":[-108.9595,40.6545]},"properties":{"s":24.1,"pub":true}},{"type":"Feature","geometry":{"type":"Point","coordinates":[-108.9595,40.6603]},"properties":{"s":24.1,"pub":true}},{"type":"Feature","geometry":{"type":"Point","coordinates":[-108.9595,40.6661]},"properties":{"s":65.5,"pub":true}},{"type":"Feature","geometry":{"type":"Point","coordinates":[-108.9595,40.6719]},"properties":{"s":65.5,"pub":true}},{"type":"Feature","geometry":{"type":"Point","coordinates":[-108.9595,40.6777]},"properties":{"s":65.5,"pub":true}},{"type":"Feature","geometry":{"type":"Point","coordinates":[-108.9595,40.6835]},"properties":{"s":65.5,"pub":true}},{"type":"Feature","geometry":{"type":"Point","coordinates":[-108.9595,40.6893]},"properties":{"s":24.1,"pub":true}},{"type":"Feature","geometry":{"type":"Point","coordinates":[-108.9595,40.6951]},"properties":{"s":24.1,"pub":true}},{"type":"Feature","geometry":{"type":"Point","coordinates":[-108.9595,40.7009]},"properties":{"s":24.1,"pub":true}},{"type":"Feature","geometry":{"type":"Point","coordinates":[-108.9595,40.7067]},"properties":{"s":24.1,"pub":true}},{"type":"Feature","geometry":{"type":"Point","coordinates":[-108.9595,40.7125]},"properties":{"s":24.1,"pub":true}},{"type":"Feature","geometry":{"type":"Point","coordinates":[-108.9595,40.7183]},"properties":{"s":24.1,"pub":true}},{"type":"Feature","geometry":{"type":"Point","coordinates":[-108.9595,40.7241]},"properties":{"s":24.1,"pub":true}},{"type":"Feature","geometry":{"type":"Point","coordinates":[-108.9595,40.7299]},"properties":{"s":24.1,"pub":true}},{"type":"Feature","geometry":{"type":"Point","coordinates":[-108.9595,40.7357]},"properties":{"s":24.1,"pub":true}},{"type":"Feature","geometry":{"type":"Point","coordinates":[-108.9595,40.7415]},"properties":{"s":24.1,"pub":true}},{"type":"Feature","geometry":{"type":"Point","coordinates":[-108.9595,40.7473]},"properties":{"s":24.1,"pub":true}},{"type":"Feature","geometry":{"type":"Point","coordinates":[-108.9595,40.7531]},"properties":{"s":24.1,"pub":true}},{"type":"Feature","geometry":{"type":"Point","coordinates":[-108.9595,40.7589]},"properties":{"s":24.1,"pub":true}},{"type":"Feature","geometry":{"type":"Point","coordinates":[-108.9595,40.7647]},"properties":{"s":24.1,"pub":true}},{"type":"Feature","geometry":{"type":"Point","coordinates":[-108.9595,40.7705]},"properties":{"s":24.1,"pub":true}},{"type":"Feature","geometry":{"type":"Point","coordinates":[-108.9595,40.7763]},"properties":{"s":24.1,"pub":true}},{"type":"Feature","geometry":{"type":"Point","coordinates":[-108.9595,40.7821]},"properties":{"s":24.1,"pub":true}},{"type":"Feature","geometry":{"type":"Point","coordinates":[-108.9595,40.7879]},"properties":{"s":24.1,"pub":true}},{"type":"Feature","geometry":{"type":"Point","coordinates":[-108.9595,40.7937]},"properties":{"s":24.1,"pub":true}},{"type":"Feature","geometry":{"type":"Point","coordinates":[-108.9595,40.7995]},"properties":{"s":31.0,"pub":true}},{"type":"Feature","geometry":{"type":"Point","coordinates":[-108.9595,40.8053]},"properties":{"s":31.0,"pub":true}},{"type":"Feature","geometry":{"type":"Point","coordinates":[-108.9595,40.8111]},"properties":{"s":31.0,"pub":true}},{"type":"Feature","geometry":{"type":"Point","coordinates":[-108.952,40.6545]},"properties":{"s":24.1,"pub":true}},{"type":"Feature","geometry":{"type":"Point","coordinates":[-108.952,40.6603]},"properties":{"s":24.1,"pub":true}},{"type":"Feature","geometry":{"type":"Point","coordinates":[-108.952,40.6661]},"properties":{"s":65.5,"pub":true}},{"type":"Feature","geometry":{"type":"Point","coordinates":[-108.952,40.6719]},"properties":{"s":65.5,"pub":true}},{"type":"Feature","geometry":{"type":"Point","coordinates":[-108.952,40.6777]},"properties":{"s":65.5,"pub":true}},{"type":"Feature","geometry":{"type":"Point","coordinates":[-108.952,40.6835]},"properties":{"s":24.1,"pub":true}},{"type":"Feature","geometry":{"type":"Point","coordinates":[-108.952,40.6893]},"properties":{"s":24.1,"pub":true}},{"type":"Feature","geometry":{"type":"Point","coordinates":[-108.952,40.6951]},"properties":{"s":24.1,"pub":true}},{"type":"Feature","geometry":{"type":"Point","coordinates":[-108.952,40.7009]},"properties":{"s":24.1,"pub":true}},{"type":"Feature","geometry":{"type":"Point","coordinates":[-108.952,40.7067]},"properties":{"s":24.1,"pub":true}},{"type":"Feature","geometry":{"type":"Point","coordinates":[-108.952,40.7125]},"properties":{"s":24.1,"pub":true}},{"type":"Feature","geometry":{"type":"Point","coordinates":[-108.952,40.7183]},"properties":{"s":24.1,"pub":true}},{"type":"Feature","geometry":{"type":"Point","coordinates":[-108.952,40.7241]},"properties":{"s":24.1,"pub":true}},{"type":"Feature","geometry":{"type":"Point","coordinates":[-108.952,40.7299]},"properties":{"s":24.1,"pub":true}},{"type":"Feature","geometry":{"type":"Point","coordinates":[-108.952,40.7357]},"properties":{"s":24.1,"pub":true}},{"type":"Feature","geometry":{"type":"Point","coordinates":[-108.952,40.7415]},"properties":{"s":24.1,"pub":true}},{"type":"Feature","geometry":{"type":"Point","coordinates":[-108.952,40.7473]},"properties":{"s":24.1,"pub":true}},{"type":"Feature","geometry":{"type":"Point","coordinates":[-108.952,40.7531]},"properties":{"s":24.1,"pub":true}},{"type":"Feature","geometry":{"type":"Point","coordinates":[-108.952,40.7589]},"properties":{"s":24.1,"pub":true}},{"type":"Feature","geometry":{"type":"Point","coordinates":[-108.952,40.7647]},"properties":{"s":24.1,"pub":true}},{"type":"Feature","geometry":{"type":"Point","coordinates":[-108.952,40.7705]},"properties":{"s":24.1,"pub":true}},{"type":"Feature","geometry":{"type":"Point","coordinates":[-108.952,40.7763]},"properties":{"s":24.1,"pub":true}},{"type":"Feature","geometry":{"type":"Point","coordinates":[-108.952,40.7821]},"properties":{"s":24.1,"pub":true}},{"type":"Feature","geometry":{"type":"Point","coordinates":[-108.952,40.7879]},"properties":{"s":24.1,"pub":true}},{"type":"Feature","geometry":{"type":"Point","coordinates":[-108.952,40.7937]},"properties":{"s":31.0,"pub":true}},{"type":"Feature","geometry":{"type":"Point","coordinates":[-108.9445,40.6603]},"properties":{"s":24.1,"pub":true}},{"type":"Feature","geometry":{"type":"Point","coordinates":[-108.9445,40.6661]},"properties":{"s":65.5,"pub":true}},{"type":"Feature","geometry":{"type":"Point","coordinates":[-108.9445,40.6719]},"properties":{"s":65.5,"pub":true}},{"type":"Feature","geometry":{"type":"Point","coordinates":[-108.9445,40.6777]},"properties":{"s":65.5,"pub":true}},{"type":"Feature","geometry":{"type":"Point","coordinates":[-108.9445,40.6835]},"properties":{"s":65.5,"pub":true}},{"type":"Feature","geometry":{"type":"Point","coordinates":[-108.9445,40.6893]},"properties":{"s":24.1,"pub":true}},{"type":"Feature","geometry":{"type":"Point","coordinates":[-108.9445,40.6951]},"properties":{"s":24.1,"pub":true}},{"type":"Feature","geometry":{"type":"Point","coordinates":[-108.9445,40.7009]},"properties":{"s":65.5,"pub":true}},{"type":"Feature","geometry":{"type":"Point","coordinates":[-108.9445,40.7067]},"properties":{"s":24.1,"pub":true}},{"type":"Feature","geometry":{"type":"Point","coordinates":[-108.9445,40.7125]},"properties":{"s":24.1,"pub":true}},{"type":"Feature","geometry":{"type":"Point","coordinates":[-108.9445,40.7183]},"properties":{"s":24.1,"pub":true}},{"type":"Feature","geometry":{"type":"Point","coordinates":[-108.9445,40.7241]},"properties":{"s":24.1,"pub":true}},{"type":"Feature","geometry":{"type":"Point","coordinates":[-108.9445,40.7299]},"properties":{"s":24.1,"pub":true}},{"type":"Feature","geometry":{"type":"Point","coordinates":[-108.9445,40.7357]},"properties":{"s":24.1,"pub":true}},{"type":"Feature","geometry":{"type":"Point","coordinates":[-108.9445,40.7415]},"properties":{"s":24.1,"pub":true}},{"type":"Feature","geometry":{"type":"Point","coordinates":[-108.9445,40.7473]},"properties":{"s":24.1,"pub":true}},{"type":"Feature","geometry":{"type":"Point","coordinates":[-108.9445,40.7531]},"properties":{"s":24.1,"pub":true}},{"type":"Feature","geometry":{"type":"Point","coordinates":[-108.9445,40.7589]},"properties":{"s":24.1,"pub":true}},{"type":"Feature","geometry":{"type":"Point","coordinates":[-108.9445,40.7647]},"properties":{"s":24.1,"pub":true}},{"type":"Feature","geometry":{"type":"Point","coordinates":[-108.9445,40.7705]},"properties":{"s":24.1,"pub":true}},{"type":"Feature","geometry":{"type":"Point","coordinates":[-108.9445,40.7763]},"properties":{"s":24.1,"pub":true}},{"type":"Feature","geometry":{"type":"Point","coordinates":[-108.9445,40.7821]},"properties":{"s":24.1,"pub":true}},{"type":"Feature","geometry":{"type":"Point","coordinates":[-108.9445,40.7879]},"properties":{"s":24.1,"pub":true}},{"type":"Feature","geometry":{"type":"Point","coordinates":[-108.9445,40.7937]},"properties":{"s":31.0,"pub":true}},{"type":"Feature","geometry":{"type":"Point","coordinates":[-108.937,40.6661]},"properties":{"s":24.1,"pub":true}},{"type":"Feature","geometry":{"type":"Point","coordinates":[-108.937,40.6719]},"properties":{"s":65.5,"pub":true}},{"type":"Feature","geometry":{"type":"Point","coordinates":[-108.937,40.6777]},"properties":{"s":65.5,"pub":true}},{"type":"Feature","geometry":{"type":"Point","coordinates":[-108.937,40.6835]},"properties":{"s":65.5,"pub":true}},{"type":"Feature","geometry":{"type":"Point","coordinates":[-108.937,40.6893]},"properties":{"s":65.5,"pub":true}},{"type":"Feature","geometry":{"type":"Point","coordinates":[-108.937,40.6951]},"properties":{"s":24.1,"pub":true}},{"type":"Feature","geometry":{"type":"Point","coordinates":[-108.937,40.7009]},"properties":{"s":65.5,"pub":true}},{"type":"Feature","geometry":{"type":"Point","coordinates":[-108.937,40.7067]},"properties":{"s":65.5,"pub":true}},{"type":"Feature","geometry":{"type":"Point","coordinates":[-108.937,40.7125]},"properties":{"s":65.5,"pub":true}},{"type":"Feature","geometry":{"type":"Point","coordinates":[-108.937,40.7183]},"properties":{"s":24.1,"pub":true}},{"type":"Feature","geometry":{"type":"Point","coordinates":[-108.937,40.7241]},"properties":{"s":24.1,"pub":true}},{"type":"Feature","geometry":{"type":"Point","coordinates":[-108.937,40.7299]},"properties":{"s":24.1,"pub":true}},{"type":"Feature","geometry":{"type":"Point","coordinates":[-108.937,40.7357]},"properties":{"s":24.1,"pub":true}},{"type":"Feature","geometry":{"type":"Point","coordinates":[-108.937,40.7415]},"properties":{"s":24.1,"pub":true}},{"type":"Feature","geometry":{"type":"Point","coordinates":[-108.937,40.7473]},"properties":{"s":24.1,"pub":true}},{"type":"Feature","geometry":{"type":"Point","coordinates":[-108.937,40.7531]},"properties":{"s":24.1,"pub":true}},{"type":"Feature","geometry":{"type":"Point","coordinates":[-108.937,40.7589]},"properties":{"s":24.1,"pub":true}},{"type":"Feature","geometry":{"type":"Point","coordinates":[-108.937,40.7647]},"properties":{"s":24.1,"pub":true}},{"type":"Feature","geometry":{"type":"Point","coordinates":[-108.937,40.7705]},"properties":{"s":31.0,"pub":true}},{"type":"Feature","geometry":{"type":"Point","coordinates":[-108.937,40.7763]},"properties":{"s":24.1,"pub":true}},{"type":"Feature","geometry":{"type":"Point","coordinates":[-108.937,40.7821]},"properties":{"s":24.1,"pub":true}},{"type":"Feature","geometry":{"type":"Point","coordinates":[-108.937,40.7879]},"properties":{"s":31.0,"pub":true}},{"type":"Feature","geometry":{"type":"Point","coordinates":[-108.937,40.7937]},"properties":{"s":31.0,"pub":true}},{"type":"Feature","geometry":{"type":"Point","coordinates":[-108.937,40.7995]},"properties":{"s":31.0,"pub":true}},{"type":"Feature","geometry":{"type":"Point","coordinates":[-108.9295,40.6603]},"properties":{"s":24.1,"pub":true}},{"type":"Feature","geometry":{"type":"Point","coordinates":[-108.9295,40.6661]},"properties":{"s":65.5,"pub":true}},{"type":"Feature","geometry":{"type":"Point","coordinates":[-108.9295,40.6719]},"properties":{"s":65.5,"pub":true}},{"type":"Feature","geometry":{"type":"Point","coordinates":[-108.9295,40.6777]},"properties":{"s":65.5,"pub":true}},{"type":"Feature","geometry":{"type":"Point","coordinates":[-108.9295,40.6835]},"properties":{"s":65.5,"pub":true}},{"type":"Feature","geometry":{"type":"Point","coordinates":[-108.9295,40.6893]},"properties":{"s":65.5,"pub":true}},{"type":"Feature","geometry":{"type":"Point","coordinates":[-108.9295,40.6951]},"properties":{"s":65.5,"pub":true}},{"type":"Feature","geometry":{"type":"Point","coordinates":[-108.9295,40.7009]},"properties":{"s":65.5,"pub":true}},{"type":"Feature","geometry":{"type":"Point","coordinates":[-108.9295,40.7067]},"properties":{"s":65.5,"pub":true}},{"type":"Feature","geometry":{"type":"Point","coordinates":[-108.9295,40.7125]},"properties":{"s":24.1,"pub":true}},{"type":"Feature","geometry":{"type":"Point","coordinates":[-108.9295,40.7183]},"properties":{"s":31.0,"pub":true}},{"type":"Feature","geometry":{"type":"Point","coordinates":[-108.9295,40.7241]},"properties":{"s":31.0,"pub":true}},{"type":"Feature","geometry":{"type":"Point","coordinates":[-108.9295,40.7299]},"properties":{"s":24.1,"pub":true}},{"type":"Feature","geometry":{"type":"Point","coordinates":[-108.9295,40.7357]},"properties":{"s":24.1,"pub":true}},{"type":"Feature","geometry":{"type":"Point","coordinates":[-108.9295,40.7415]},"properties":{"s":24.1,"pub":true}},{"type":"Feature","geometry":{"type":"Point","coordinates":[-108.9295,40.7473]},"properties":{"s":65.5,"pub":true}},{"type":"Feature","geometry":{"type":"Point","coordinates":[-108.9295,40.7531]},"properties":{"s":24.1,"pub":true}},{"type":"Feature","geometry":{"type":"Point","coordinates":[-108.9295,40.7589]},"properties":{"s":24.1,"pub":true}},{"type":"Feature","geometry":{"type":"Point","coordinates":[-108.9295,40.7647]},"properties":{"s":24.1,"pub":true}},{"type":"Feature","geometry":{"type":"Point","coordinates":[-108.9295,40.7705]},"properties":{"s":31.0,"pub":true}},{"type":"Feature","geometry":{"type":"Point","coordinates":[-108.9295,40.7763]},"properties":{"s":31.0,"pub":true}},{"type":"Feature","geometry":{"type":"Point","coordinates":[-108.9295,40.7821]},"properties":{"s":31.0,"pub":true}},{"type":"Feature","geometry":{"type":"Point","coordinates":[-108.9295,40.7879]},"properties":{"s":31.0,"pub":true}},{"type":"Feature","geometry":{"type":"Point","coordinates":[-108.9295,40.7937]},"properties":{"s":31.0,"pub":true}},{"type":"Feature","geometry":{"type":"Point","coordinates":[-108.9295,40.7995]},"properties":{"s":31.0,"pub":true}},{"type":"Feature","geometry":{"type":"Point","coordinates":[-108.922,40.6661]},"properties":{"s":24.1,"pub":true}},{"type":"Feature","geometry":{"type":"Point","coordinates":[-108.922,40.6719]},"properties":{"s":65.5,"pub":true}},{"type":"Feature","geometry":{"type":"Point","coordinates":[-108.922,40.6777]},"properties":{"s":65.5,"pub":true}},{"type":"Feature","geometry":{"type":"Point","coordinates":[-108.922,40.6835]},"properties":{"s":65.5,"pub":true}},{"type":"Feature","geometry":{"type":"Point","coordinates":[-108.922,40.6893]},"properties":{"s":65.5,"pub":true}},{"type":"Feature","geometry":{"type":"Point","coordinates":[-108.922,40.6951]},"properties":{"s":65.5,"pub":true}},{"type":"Feature","geometry":{"type":"Point","coordinates":[-108.922,40.7009]},"properties":{"s":65.5,"pub":true}},{"type":"Feature","geometry":{"type":"Point","coordinates":[-108.922,40.7067]},"properties":{"s":72.4,"pub":true}},{"type":"Feature","geometry":{"type":"Point","coordinates":[-108.922,40.7125]},"properties":{"s":31.0,"pub":true}},{"type":"Feature","geometry":{"type":"Point","coordinates":[-108.922,40.7183]},"properties":{"s":31.0,"pub":true}},{"type":"Feature","geometry":{"type":"Point","coordinates":[-108.922,40.7241]},"properties":{"s":31.0,"pub":true}},{"type":"Feature","geometry":{"type":"Point","coordinates":[-108.922,40.7299]},"properties":{"s":31.0,"pub":true}},{"type":"Feature","geometry":{"type":"Point","coordinates":[-108.922,40.7357]},"properties":{"s":72.4,"pub":true}},{"type":"Feature","geometry":{"type":"Point","coordinates":[-108.922,40.7415]},"properties":{"s":65.5,"pub":true}},{"type":"Feature","geometry":{"type":"Point","coordinates":[-108.922,40.7473]},"properties":{"s":65.5,"pub":true}},{"type":"Feature","geometry":{"type":"Point","coordinates":[-108.922,40.7531]},"properties":{"s":93.1,"pub":true}},{"type":"Feature","geometry":{"type":"Point","coordinates":[-108.922,40.7589]},"properties":{"s":93.1,"pub":true}},{"type":"Feature","geometry":{"type":"Point","coordinates":[-108.922,40.7647]},"properties":{"s":93.1,"pub":true}},{"type":"Feature","geometry":{"type":"Point","coordinates":[-108.922,40.7705]},"properties":{"s":93.1,"pub":true}},{"type":"Feature","geometry":{"type":"Point","coordinates":[-108.922,40.7763]},"properties":{"s":93.1,"pub":true}},{"type":"Feature","geometry":{"type":"Point","coordinates":[-108.922,40.7821]},"properties":{"s":100.0,"pub":true}},{"type":"Feature","geometry":{"type":"Point","coordinates":[-108.922,40.7879]},"properties":{"s":100.0,"pub":true}},{"type":"Feature","geometry":{"type":"Point","coordinates":[-108.922,40.7937]},"properties":{"s":100.0,"pub":true}},{"type":"Feature","geometry":{"type":"Point","coordinates":[-108.922,40.7995]},"properties":{"s":100.0,"pub":true}},{"type":"Feature","geometry":{"type":"Point","coordinates":[-108.9145,40.6719]},"properties":{"s":24.1,"pub":true}},{"type":"Feature","geometry":{"type":"Point","coordinates":[-108.9145,40.6777]},"properties":{"s":24.1,"pub":true}},{"type":"Feature","geometry":{"type":"Point","coordinates":[-108.9145,40.6893]},"properties":{"s":24.1,"pub":true}},{"type":"Feature","geometry":{"type":"Point","coordinates":[-108.9145,40.6951]},"properties":{"s":65.5,"pub":true}},{"type":"Feature","geometry":{"type":"Point","coordinates":[-108.9145,40.7009]},"properties":{"s":65.5,"pub":true}},{"type":"Feature","geometry":{"type":"Point","coordinates":[-108.9145,40.7067]},"properties":{"s":72.4,"pub":true}},{"type":"Feature","geometry":{"type":"Point","coordinates":[-108.9145,40.7125]},"properties":{"s":72.4,"pub":true}},{"type":"Feature","geometry":{"type":"Point","coordinates":[-108.9145,40.7183]},"properties":{"s":72.4,"pub":true}},{"type":"Feature","geometry":{"type":"Point","coordinates":[-108.9145,40.7241]},"properties":{"s":75.9,"pub":true}},{"type":"Feature","geometry":{"type":"Point","coordinates":[-108.9145,40.7299]},"properties":{"s":75.9,"pub":true}},{"type":"Feature","geometry":{"type":"Point","coordinates":[-108.9145,40.7357]},"properties":{"s":75.9,"pub":true}},{"type":"Feature","geometry":{"type":"Point","coordinates":[-108.9145,40.7415]},"properties":{"s":72.4,"pub":true}},{"type":"Feature","geometry":{"type":"Point","coordinates":[-108.9145,40.7473]},"properties":{"s":100.0,"pub":true}},{"type":"Feature","geometry":{"type":"Point","coordinates":[-108.9145,40.7531]},"properties":{"s":93.1,"pub":true}},{"type":"Feature","geometry":{"type":"Point","coordinates":[-108.9145,40.7589]},"properties":{"s":93.1,"pub":true}},{"type":"Feature","geometry":{"type":"Point","coordinates":[-108.9145,40.7647]},"properties":{"s":93.1,"pub":true}},{"type":"Feature","geometry":{"type":"Point","coordinates":[-108.9145,40.7705]},"properties":{"s":93.1,"pub":true}},{"type":"Feature","geometry":{"type":"Point","coordinates":[-108.9145,40.7763]},"properties":{"s":100.0,"pub":true}},{"type":"Feature","geometry":{"type":"Point","coordinates":[-108.9145,40.7821]},"properties":{"s":100.0,"pub":true}},{"type":"Feature","geometry":{"type":"Point","coordinates":[-108.907,40.7009]},"properties":{"s":72.4,"pub":true}},{"type":"Feature","geometry":{"type":"Point","coordinates":[-108.907,40.7067]},"properties":{"s":72.4,"pub":true}},{"type":"Feature","geometry":{"type":"Point","coordinates":[-108.907,40.7125]},"properties":{"s":72.4,"pub":true}},{"type":"Feature","geometry":{"type":"Point","coordinates":[-108.907,40.7183]},"properties":{"s":72.4,"pub":true}},{"type":"Feature","geometry":{"type":"Point","coordinates":[-108.907,40.7241]},"properties":{"s":75.9,"pub":true}},{"type":"Feature","geometry":{"type":"Point","coordinates":[-108.907,40.7299]},"properties":{"s":75.9,"pub":true}},{"type":"Feature","geometry":{"type":"Point","coordinates":[-108.907,40.7357]},"properties":{"s":75.9,"pub":true}},{"type":"Feature","geometry":{"type":"Point","coordinates":[-108.907,40.7415]},"properties":{"s":72.4,"pub":true}},{"type":"Feature","geometry":{"type":"Point","coordinates":[-108.907,40.7473]},"properties":{"s":100.0,"pub":true}},{"type":"Feature","geometry":{"type":"Point","coordinates":[-108.907,40.7531]},"properties":{"s":100.0,"pub":true}},{"type":"Feature","geometry":{"type":"Point","coordinates":[-108.907,40.7589]},"properties":{"s":100.0,"pub":true}},{"type":"Feature","geometry":{"type":"Point","coordinates":[-108.907,40.7647]},"properties":{"s":100.0,"pub":true}},{"type":"Feature","geometry":{"type":"Point","coordinates":[-108.907,40.7705]},"properties":{"s":100.0,"pub":true}},{"type":"Feature","geometry":{"type":"Point","coordinates":[-108.907,40.7763]},"properties":{"s":100.0,"pub":true}},{"type":"Feature","geometry":{"type":"Point","coordinates":[-108.8995,40.7125]},"properties":{"s":72.4,"pub":true}},{"type":"Feature","geometry":{"type":"Point","coordinates":[-108.8995,40.7183]},"properties":{"s":72.4,"pub":true}},{"type":"Feature","geometry":{"type":"Point","coordinates":[-108.8995,40.7241]},"properties":{"s":75.9,"pub":true}},{"type":"Feature","geometry":{"type":"Point","coordinates":[-108.8995,40.7299]},"properties":{"s":75.9,"pub":true}},{"type":"Feature","geometry":{"type":"Point","coordinates":[-108.8995,40.7357]},"properties":{"s":75.9,"pub":true}},{"type":"Feature","geometry":{"type":"Point","coordinates":[-108.8995,40.7415]},"properties":{"s":75.9,"pub":true}},{"type":"Feature","geometry":{"type":"Point","coordinates":[-108.8995,40.7473]},"properties":{"s":100.0,"pub":true}},{"type":"Feature","geometry":{"type":"Point","coordinates":[-108.8995,40.7531]},"properties":{"s":100.0,"pub":true}},{"type":"Feature","geometry":{"type":"Point","coordinates":[-108.8995,40.7589]},"properties":{"s":100.0,"pub":true}},{"type":"Feature","geometry":{"type":"Point","coordinates":[-108.8995,40.7763]},"properties":{"s":100.0,"pub":true}},{"type":"Feature","geometry":{"type":"Point","coordinates":[-108.892,40.7299]},"properties":{"s":75.9,"pub":true}},{"type":"Feature","geometry":{"type":"Point","coordinates":[-108.892,40.7357]},"properties":{"s":75.9,"pub":true}},{"type":"Feature","geometry":{"type":"Point","coordinates":[-108.892,40.7415]},"properties":{"s":75.9,"pub":true}},{"type":"Feature","geometry":{"type":"Point","coordinates":[-108.892,40.7473]},"properties":{"s":72.4,"pub":true}},{"type":"Feature","geometry":{"type":"Point","coordinates":[-108.892,40.7531]},"properties":{"s":100.0,"pub":true}},{"type":"Feature","geometry":{"type":"Point","coordinates":[-108.892,40.7589]},"properties":{"s":100.0,"pub":true}},{"type":"Feature","geometry":{"type":"Point","coordinates":[-108.8845,40.7415]},"properties":{"s":75.9,"pub":true}},{"type":"Feature","geometry":{"type":"Point","coordinates":[-108.8845,40.7589]},"properties":{"s":100.0,"pub":true}}]}