{"type":"FeatureCollection","features":[{"type":"Feature","geometry":{"type":"Point","coordinates":[-104.5443,39.1344]},"properties":{"s":70.4,"pub":false}},{"type":"Feature","geometry":{"type":"Point","coordinates":[-104.5443,39.1402]},"properties":{"s":70.4,"pub":false}},{"type":"Feature","geometry":{"type":"Point","coordinates":[-104.5443,39.146]},"properties":{"s":70.4,"pub":false}},{"type":"Feature","geometry":{"type":"Point","coordinates":[-104.5368,39.1344]},"properties":{"s":70.4,"pub":false}},{"type":"Feature","geometry":{"type":"Point","coordinates":[-104.5368,39.1402]},"properties":{"s":70.4,"pub":false}},{"type":"Feature","geometry":{"type":"Point","coordinates":[-104.5368,39.146]},"properties":{"s":70.4,"pub":false}},{"type":"Feature","geometry":{"type":"Point","coordinates":[-104.5368,39.1518]},"properties":{"s":70.4,"pub":false}},{"type":"Feature","geometry":{"type":"Point","coordinates":[-104.5368,39.1576]},"properties":{"s":70.4,"pub":false}},{"type":"Feature","geometry":{"type":"Point","coordinates":[-104.5368,39.1808]},"properties":{"s":70.4,"pub":false}},{"type":"Feature","geometry":{"type":"Point","coordinates":[-104.5368,39.1866]},"properties":{"s":70.4,"pub":false}},{"type":"Feature","geometry":{"type":"Point","coordinates":[-104.5368,39.1924]},"properties":{"s":70.4,"pub":false}},{"type":"Feature","geometry":{"type":"Point","coordinates":[-104.5368,39.1982]},"properties":{"s":70.4,"pub":false}},{"type":"Feature","geometry":{"type":"Point","coordinates":[-104.5368,39.204]},"properties":{"s":70.4,"pub":false}},{"type":"Feature","geometry":{"type":"Point","coordinates":[-104.5368,39.2098]},"properties":{"s":70.4,"pub":false}},{"type":"Feature","geometry":{"type":"Point","coordinates":[-104.5293,39.1344]},"properties":{"s":70.4,"pub":false}},{"type":"Feature","geometry":{"type":"Point","coordinates":[-104.5293,39.1402]},"properties":{"s":70.4,"pub":false}},{"type":"Feature","geometry":{"type":"Point","coordinates":[-104.5293,39.146]},"properties":{"s":70.4,"pub":false}},{"type":"Feature","geometry":{"type":"Point","coordinates":[-104.5293,39.1518]},"properties":{"s":70.4,"pub":false}},{"type":"Feature","geometry":{"type":"Point","coordinates":[-104.5293,39.1576]},"properties":{"s":70.4,"pub":false}},{"type":"Feature","geometry":{"type":"Point","coordinates":[-104.5293,39.1634]},"properties":{"s":70.4,"pub":false}},{"type":"Feature","geometry":{"type":"Point","coordinates":[-104.5293,39.1692]},"properties":{"s":70.4,"pub":false}},{"type":"Feature","geometry":{"type":"Point","coordinates":[-104.5293,39.175]},"properties":{"s":70.4,"pub":false}},{"type":"Feature","geometry":{"type":"Point","coordinates":[-104.5293,39.1808]},"properties":{"s":70.4,"pub":false}},{"type":"Feature","geometry":{"type":"Point","coordinates":[-104.5293,39.1866]},"properties":{"s":70.4,"pub":false}},{"type":"Feature","geometry":{"type":"Point","coordinates":[-104.5293,39.1924]},"properties":{"s":70.4,"pub":false}},{"type":"Feature","geometry":{"type":"Point","coordinates":[-104.5293,39.1982]},"properties":{"s":70.4,"pub":false}},{"type":"Feature","geometry":{"type":"Point","coordinates":[-104.5293,39.204]},"properties":{"s":70.4,"pub":false}},{"type":"Feature","geometry":{"type":"Point","coordinates":[-104.5293,39.2098]},"properties":{"s":70.4,"pub":false}},{"type":"Feature","geometry":{"type":"Point","coordinates":[-104.5293,39.2156]},"properties":{"s":70.4,"pub":false}},{"type":"Feature","geometry":{"type":"Point","coordinates":[-104.5293,39.2214]},"properties":{"s":70.4,"pub":false}},{"type":"Feature","geometry":{"type":"Point","coordinates":[-104.5293,39.2272]},"properties":{"s":70.4,"pub":false}},{"type":"Feature","geometry":{"type":"Point","coordinates":[-104.5293,39.233]},"properties":{"s":48.1,"pub":false}},{"type":"Feature","geometry":{"type":"Point","coordinates":[-104.5293,39.2388]},"properties":{"s":48.1,"pub":false}},{"type":"Feature","geometry":{"type":"Point","coordinates":[-104.5293,39.2446]},"properties":{"s":48.1,"pub":false}},{"type":"Feature","geometry":{"type":"Point","coordinates":[-104.5293,39.2504]},"properties":{"s":48.1,"pub":false}},{"type":"Feature","geometry":{"type":"Point","coordinates":[-104.5218,39.1344]},"properties":{"s":70.4,"pub":false}},{"type":"Feature","geometry":{"type":"Point","coordinates":[-104.5218,39.1402]},"properties":{"s":70.4,"pub":false}},{"type":"Feature","geometry":{"type":"Point","coordinates":[-104.5218,39.146]},"properties":{"s":70.4,"pub":false}},{"type":"Feature","geometry":{"type":"Point","coordinates":[-104.5218,39.1518]},"properties":{"s":70.4,"pub":false}},{"type":"Feature","geometry":{"type":"Point","coordinates":[-104.5218,39.1576]},"properties":{"s":70.4,"pub":false}},{"type":"Feature","geometry":{"type":"Point","coordinates":[-104.5218,39.1634]},"properties":{"s":70.4,"pub":false}},{"type":"Feature","geometry":{"type":"Point","coordinates":[-104.5218,39.1692]},"properties":{"s":70.4,"pub":false}},{"type":"Feature","geometry":{"type":"Point","coordinates":[-104.5218,39.175]},"properties":{"s":70.4,"pub":false}},{"type":"Feature","geometry":{"type":"Point","coordinates":[-104.5218,39.1808]},"properties":{"s":70.4,"pub":false}},{"type":"Feature","geometry":{"type":"Point","coordinates":[-104.5218,39.1866]},"properties":{"s":70.4,"pub":false}},{"type":"Feature","geometry":{"type":"Point","coordinates":[-104.5218,39.1924]},"properties":{"s":70.4,"pub":false}},{"type":"Feature","geometry":{"type":"Point","coordinates":[-104.5218,39.1982]},"properties":{"s":70.4,"pub":false}},{"type":"Feature","geometry":{"type":"Point","coordinates":[-104.5218,39.204]},"properties":{"s":70.4,"pub":false}},{"type":"Feature","geometry":{"type":"Point","coordinates":[-104.5218,39.2098]},"properties":{"s":70.4,"pub":false}},{"type":"Feature","geometry":{"type":"Point","coordinates":[-104.5218,39.2156]},"properties":{"s":70.4,"pub":false}},{"type":"Feature","geometry":{"type":"Point","coordinates":[-104.5218,39.2214]},"properties":{"s":70.4,"pub":false}},{"type":"Feature","geometry":{"type":"Point","coordinates":[-104.5218,39.233]},"properties":{"s":48.1,"pub":false}},{"type":"Feature","geometry":{"type":"Point","coordinates":[-104.5218,39.2388]},"properties":{"s":48.1,"pub":false}},{"type":"Feature","geometry":{"type":"Point","coordinates":[-104.5218,39.2446]},"properties":{"s":48.1,"pub":false}},{"type":"Feature","geometry":{"type":"Point","coordinates":[-104.5218,39.2504]},"properties":{"s":48.1,"pub":false}},{"type":"Feature","geometry":{"type":"Point","coordinates":[-104.5218,39.2562]},"properties":{"s":48.1,"pub":false}},{"type":"Feature","geometry":{"type":"Point","coordinates":[-104.5218,39.262]},"properties":{"s":48.1,"pub":false}},{"type":"Feature","geometry":{"type":"Point","coordinates":[-104.5143,39.1344]},"properties":{"s":70.4,"pub":false}},{"type":"Feature","geometry":{"type":"Point","coordinates":[-104.5143,39.1402]},"properties":{"s":70.4,"pub":false}},{"type":"Feature","geometry":{"type":"Point","coordinates":[-104.5143,39.146]},"properties":{"s":70.4,"pub":false}},{"type":"Feature","geometry":{"type":"Point","coordinates":[-104.5143,39.1518]},"properties":{"s":70.4,"pub":false}},{"type":"Feature","geometry":{"type":"Point","coordinates":[-104.5143,39.1576]},"properties":{"s":70.4,"pub":false}},{"type":"Feature","geometry":{"type":"Point","coordinates":[-104.5143,39.1634]},"properties":{"s":70.4,"pub":false}},{"type":"Feature","geometry":{"type":"Point","coordinates":[-104.5143,39.1692]},"properties":{"s":70.4,"pub":false}},{"type":"Feature","geometry":{"type":"Point","coordinates":[-104.5143,39.175]},"properties":{"s":70.4,"pub":false}},{"type":"Feature","geometry":{"type":"Point","coordinates":[-104.5143,39.1808]},"properties":{"s":70.4,"pub":false}},{"type":"Feature","geometry":{"type":"Point","coordinates":[-104.5143,39.1866]},"properties":{"s":70.4,"pub":false}},{"type":"Feature","geometry":{"type":"Point","coordinates":[-104.5143,39.1924]},"properties":{"s":70.4,"pub":false}},{"type":"Feature","geometry":{"type":"Point","coordinates":[-104.5143,39.1982]},"properties":{"s":70.4,"pub":false}},{"type":"Feature","geometry":{"type":"Point","coordinates":[-104.5143,39.204]},"properties":{"s":70.4,"pub":false}},{"type":"Feature","geometry":{"type":"Point","coordinates":[-104.5143,39.2098]},"properties":{"s":70.4,"pub":false}},{"type":"Feature","geometry":{"type":"Point","coordinates":[-104.5143,39.2156]},"properties":{"s":70.4,"pub":false}},{"type":"Feature","geometry":{"type":"Point","coordinates":[-104.5143,39.2214]},"properties":{"s":70.4,"pub":false}},{"type":"Feature","geometry":{"type":"Point","coordinates":[-104.5143,39.2446]},"properties":{"s":48.1,"pub":false}},{"type":"Feature","geometry":{"type":"Point","coordinates":[-104.5143,39.2504]},"properties":{"s":48.1,"pub":false}},{"type":"Feature","geometry":{"type":"Point","coordinates":[-104.5143,39.2562]},"properties":{"s":48.1,"pub":false}},{"type":"Feature","geometry":{"type":"Point","coordinates":[-104.5143,39.262]},"properties":{"s":48.1,"pub":false}},{"type":"Feature","geometry":{"type":"Point","coordinates":[-104.5068,39.1344]},"properties":{"s":70.4,"pub":false}},{"type":"Feature","geometry":{"type":"Point","coordinates":[-104.5068,39.1402]},"properties":{"s":70.4,"pub":false}},{"type":"Feature","geometry":{"type":"Point","coordinates":[-104.5068,39.146]},"properties":{"s":70.4,"pub":false}},{"type":"Feature","geometry":{"type":"Point","coordinates":[-104.5068,39.1518]},"properties":{"s":70.4,"pub":false}},{"type":"Feature","geometry":{"type":"Point","coordinates":[-104.5068,39.1576]},"properties":{"s":70.4,"pub":false}},{"type":"Feature","geometry":{"type":"Point","coordinates":[-104.5068,39.1634]},"properties":{"s":70.4,"pub":false}},{"type":"Feature","geometry":{"type":"Point","coordinates":[-104.5068,39.1692]},"properties":{"s":70.4,"pub":false}},{"type":"Feature","geometry":{"type":"Point","coordinates":[-104.5068,39.175]},"properties":{"s":70.4,"pub":false}},{"type":"Feature","geometry":{"type":"Point","coordinates":[-104.5068,39.1808]},"properties":{"s":70.4,"pub":false}},{"type":"Feature","geometry":{"type":"Point","coordinates":[-104.5068,39.1866]},"properties":{"s":70.4,"pub":false}},{"type":"Feature","geometry":{"type":"Point","coordinates":[-104.5068,39.1924]},"properties":{"s":70.4,"pub":false}},{"type":"Feature","geometry":{"type":"Point","coordinates":[-104.5068,39.1982]},"properties":{"s":70.4,"pub":false}},{"type":"Feature","geometry":{"type":"Point","coordinates":[-104.5068,39.2562]},"properties":{"s":48.1,"pub":false}},{"type":"Feature","geometry":{"type":"Point","coordinates":[-104.5068,39.262]},"properties":{"s":48.1,"pub":false}},{"type":"Feature","geometry":{"type":"Point","coordinates":[-104.5068,39.2678]},"properties":{"s":48.1,"pub":false}},{"type":"Feature","geometry":{"type":"Point","coordinates":[-104.4993,39.1344]},"properties":{"s":48.1,"pub":false}},{"type":"Feature","geometry":{"type":"Point","coordinates":[-104.4993,39.1402]},"properties":{"s":70.4,"pub":false}},{"type":"Feature","geometry":{"type":"Point","coordinates":[-104.4993,39.146]},"properties":{"s":70.4,"pub":false}},{"type":"Feature","geometry":{"type":"Point","coordinates":[-104.4993,39.1518]},"properties":{"s":70.4,"pub":false}},{"type":"Feature","geometry":{"type":"Point","coordinates":[-104.4993,39.1576]},"properties":{"s":70.4,"pub":false}},{"type":"Feature","geometry":{"type":"Point","coordinates":[-104.4993,39.1634]},"properties":{"s":70.4,"pub":false}},{"type":"Feature","geometry":{"type":"Point","coordinates":[-104.4993,39.1692]},"properties":{"s":70.4,"pub":false}},{"type":"Feature","geometry":{"type":"Point","coordinates":[-104.4993,39.175]},"properties":{"s":70.4,"pub":false}},{"type":"Feature","geometry":{"type":"Point","coordinates":[-104.4993,39.1808]},"properties":{"s":70.4,"pub":false}},{"type":"Feature","geometry":{"type":"Point","coordinates":[-104.4993,39.1866]},"properties":{"s":70.4,"pub":false}},{"type":"Feature","geometry":{"type":"Point","coordinates":[-104.4993,39.2678]},"properties":{"s":48.1,"pub":false}},{"type":"Feature","geometry":{"type":"Point","coordinates":[-104.4918,39.1344]},"properties":{"s":48.1,"pub":false}},{"type":"Feature","geometry":{"type":"Point","coordinates":[-104.4918,39.1402]},"properties":{"s":70.4,"pub":false}},{"type":"Feature","geometry":{"type":"Point","coordinates":[-104.4918,39.146]},"properties":{"s":70.4,"pub":false}},{"type":"Feature","geometry":{"type":"Point","coordinates":[-104.4918,39.1518]},"properties":{"s":70.4,"pub":false}},{"type":"Feature","geometry":{"type":"Point","coordinates":[-104.4918,39.1576]},"properties":{"s":70.4,"pub":false}},{"type":"Feature","geometry":{"type":"Point","coordinates":[-104.4918,39.1634]},"properties":{"s":70.4,"pub":false}},{"type":"Feature","geometry":{"type":"Point","coordinates":[-104.4918,39.1692]},"properties":{"s":70.4,"pub":false}},{"type":"Feature","geometry":{"type":"Point","coordinates":[-104.4918,39.175]},"properties":{"s":70.4,"pub":false}},{"type":"Feature","geometry":{"type":"Point","coordinates":[-104.4918,39.1808]},"properties":{"s":70.4,"pub":false}},{"type":"Feature","geometry":{"type":"Point","coordinates":[-104.4918,39.1866]},"properties":{"s":70.4,"pub":false}},{"type":"Feature","geometry":{"type":"Point","coordinates":[-104.4918,39.2736]},"properties":{"s":48.1,"pub":false}},{"type":"Feature","geometry":{"type":"Point","coordinates":[-104.4843,39.1344]},"properties":{"s":70.4,"pub":false}},{"type":"Feature","geometry":{"type":"Point","coordinates":[-104.4843,39.1402]},"properties":{"s":70.4,"pub":false}},{"type":"Feature","geometry":{"type":"Point","coordinates":[-104.4843,39.146]},"properties":{"s":70.4,"pub":false}},{"type":"Feature","geometry":{"type":"Point","coordinates":[-104.4843,39.1518]},"properties":{"s":70.4,"pub":false}},{"type":"Feature","geometry":{"type":"Point","coordinates":[-104.4843,39.1576]},"properties":{"s":70.4,"pub":false}},{"type":"Feature","geometry":{"type":"Point","coordinates":[-104.4843,39.1634]},"properties":{"s":70.4,"pub":false}},{"type":"Feature","geometry":{"type":"Point","coordinates":[-104.4843,39.1692]},"properties":{"s":70.4,"pub":false}},{"type":"Feature","geometry":{"type":"Point","coordinates":[-104.4843,39.175]},"properties":{"s":70.4,"pub":false}},{"type":"Feature","geometry":{"type":"Point","coordinates":[-104.4843,39.1808]},"properties":{"s":70.4,"pub":false}},{"type":"Feature","geometry":{"type":"Point","coordinates":[-104.4768,39.1344]},"properties":{"s":70.4,"pub":false}},{"type":"Feature","geometry":{"type":"Point","coordinates":[-104.4768,39.1402]},"properties":{"s":70.4,"pub":false}},{"type":"Feature","geometry":{"type":"Point","coordinates":[-104.4768,39.146]},"properties":{"s":70.4,"pub":false}},{"type":"Feature","geometry":{"type":"Point","coordinates":[-104.4768,39.1518]},"properties":{"s":70.4,"pub":false}},{"type":"Feature","geometry":{"type":"Point","coordinates":[-104.4768,39.1576]},"properties":{"s":70.4,"pub":false}},{"type":"Feature","geometry":{"type":"Point","coordinates":[-104.4768,39.1634]},"properties":{"s":70.4,"pub":false}},{"type":"Feature","geometry":{"type":"Point","coordinates":[-104.4768,39.1692]},"properties":{"s":70.4,"pub":false}},{"type":"Feature","geometry":{"type":"Point","coordinates":[-104.4768,39.175]},"properties":{"s":70.4,"pub":false}},{"type":"Feature","geometry":{"type":"Point","coordinates":[-104.4768,39.1808]},"properties":{"s":70.4,"pub":false}},{"type":"Feature","geometry":{"type":"Point","coordinates":[-104.4693,39.1344]},"properties":{"s":70.4,"pub":false}},{"type":"Feature","geometry":{"type":"Point","coordinates":[-104.4693,39.1402]},"properties":{"s":70.4,"pub":false}},{"type":"Feature","geometry":{"type":"Point","coordinates":[-104.4693,39.146]},"properties":{"s":70.4,"pub":false}},{"type":"Feature","geometry":{"type":"Point","coordinates":[-104.4693,39.1518]},"properties":{"s":70.4,"pub":false}},{"type":"Feature","geometry":{"type":"Point","coordinates":[-104.4693,39.1576]},"properties":{"s":70.4,"pub":false}},{"type":"Feature","geometry":{"type":"Point","coordinates":[-104.4693,39.1634]},"properties":{"s":70.4,"pub":false}},{"type":"Feature","geometry":{"type":"Point","coordinates":[-104.4693,39.1692]},"properties":{"s":70.4,"pub":false}},{"type":"Feature","geometry":{"type":"Point","coordinates":[-104.4693,39.175]},"properties":{"s":70.4,"pub":false}},{"type":"Feature","geometry":{"type":"Point","coordinates":[-104.4693,39.1808]},"properties":{"s":70.4,"pub":false}},{"type":"Feature","geometry":{"type":"Point","coordinates":[-104.4618,39.1344]},"properties":{"s":70.4,"pub":false}},{"type":"Feature","geometry":{"type":"Point","coordinates":[-104.4618,39.1402]},"properties":{"s":70.4,"pub":false}},{"type":"Feature","geometry":{"type":"Point","coordinates":[-104.4618,39.146]},"properties":{"s":70.4,"pub":false}},{"type":"Feature","geometry":{"type":"Point","coordinates":[-104.4618,39.1518]},"properties":{"s":70.4,"pub":false}},{"type":"Feature","geometry":{"type":"Point","coordinates":[-104.4618,39.1576]},"properties":{"s":70.4,"pub":false}},{"type":"Feature","geometry":{"type":"Point","coordinates":[-104.4618,39.1634]},"properties":{"s":70.4,"pub":false}},{"type":"Feature","geometry":{"type":"Point","coordinates":[-104.4618,39.1692]},"properties":{"s":70.4,"pub":false}},{"type":"Feature","geometry":{"type":"Point","coordinates":[-104.4618,39.175]},"properties":{"s":70.4,"pub":false}},{"type":"Feature","geometry":{"type":"Point","coordinates":[-104.4543,39.1344]},"properties":{"s":70.4,"pub":false}},{"type":"Feature","geometry":{"type":"Point","coordinates":[-104.4543,39.1402]},"properties":{"s":70.4,"pub":false}},{"type":"Feature","geometry":{"type":"Point","coordinates":[-104.4543,39.146]},"properties":{"s":70.4,"pub":false}},{"type":"Feature","geometry":{"type":"Point","coordinates":[-104.4543,39.1518]},"properties":{"s":70.4,"pub":false}},{"type":"Feature","geometry":{"type":"Point","coordinates":[-104.4543,39.1576]},"properties":{"s":70.4,"pub":false}},{"type":"Feature","geometry":{"type":"Point","coordinates":[-104.4543,39.1634]},"properties":{"s":70.4,"pub":false}},{"type":"Feature","geometry":{"type":"Point","coordinates":[-104.4543,39.1692]},"properties":{"s":70.4,"pub":false}},{"type":"Feature","geometry":{"type":"Point","coordinates":[-104.4543,39.175]},"properties":{"s":70.4,"pub":false}},{"type":"Feature","geometry":{"type":"Point","coordinates":[-104.4543,39.1808]},"properties":{"s":70.4,"pub":false}},{"type":"Feature","geometry":{"type":"Point","coordinates":[-104.4543,39.1866]},"properties":{"s":70.4,"pub":false}},{"type":"Feature","geometry":{"type":"Point","coordinates":[-104.4468,39.1344]},"properties":{"s":70.4,"pub":false}},{"type":"Feature","geometry":{"type":"Point","coordinates":[-104.4468,39.1402]},"properties":{"s":70.4,"pub":false}},{"type":"Feature","geometry":{"type":"Point","coordinates":[-104.4468,39.146]},"properties":{"s":70.4,"pub":false}},{"type":"Feature","geometry":{"type":"Point","coordinates":[-104.4468,39.1518]},"properties":{"s":70.4,"pub":false}},{"type":"Feature","geometry":{"type":"Point","coordinates":[-104.4468,39.1576]},"properties":{"s":70.4,"pub":false}},{"type":"Feature","geometry":{"type":"Point","coordinates":[-104.4468,39.1634]},"properties":{"s":70.4,"pub":false}},{"type":"Feature","geometry":{"type":"Point","coordinates":[-104.4468,39.1692]},"properties":{"s":70.4,"pub":false}},{"type":"Feature","geometry":{"type":"Point","coordinates":[-104.4468,39.175]},"properties":{"s":70.4,"pub":false}},{"type":"Feature","geometry":{"type":"Point","coordinates":[-104.4468,39.1808]},"properties":{"s":70.4,"pub":false}},{"type":"Feature","geometry":{"type":"Point","coordinates":[-104.4468,39.1866]},"properties":{"s":70.4,"pub":false}},{"type":"Feature","geometry":{"type":"Point","coordinates":[-104.4468,39.1924]},"properties":{"s":70.4,"pub":false}},{"type":"Feature","geometry":{"type":"Point","coordinates":[-104.4468,39.1982]},"properties":{"s":70.4,"pub":false}},{"type":"Feature","geometry":{"type":"Point","coordinates":[-104.4393,39.1344]},"properties":{"s":48.1,"pub":false}},{"type":"Feature","geometry":{"type":"Point","coordinates":[-104.4393,39.1402]},"properties":{"s":70.4,"pub":false}},{"type":"Feature","geometry":{"type":"Point","coordinates":[-104.4393,39.146]},"properties":{"s":70.4,"pub":false}},{"type":"Feature","geometry":{"type":"Point","coordinates":[-104.4393,39.1518]},"properties":{"s":70.4,"pub":false}},{"type":"Feature","geometry":{"type":"Point","coordinates":[-104.4393,39.1576]},"properties":{"s":70.4,"pub":false}},{"type":"Feature","geometry":{"type":"Point","coordinates":[-104.4393,39.1634]},"properties":{"s":70.4,"pub":false}},{"type":"Feature","geometry":{"type":"Point","coordinates":[-104.4393,39.1692]},"properties":{"s":70.4,"pub":false}},{"type":"Feature","geometry":{"type":"Point","coordinates":[-104.4393,39.175]},"properties":{"s":70.4,"pub":false}},{"type":"Feature","geometry":{"type":"Point","coordinates":[-104.4393,39.1808]},"properties":{"s":70.4,"pub":false}},{"type":"Feature","geometry":{"type":"Point","coordinates":[-104.4393,39.1866]},"properties":{"s":70.4,"pub":false}},{"type":"Feature","geometry":{"type":"Point","coordinates":[-104.4393,39.1924]},"properties":{"s":70.4,"pub":false}},{"type":"Feature","geometry":{"type":"Point","coordinates":[-104.4393,39.1982]},"properties":{"s":70.4,"pub":false}},{"type":"Feature","geometry":{"type":"Point","coordinates":[-104.4393,39.204]},"properties":{"s":70.4,"pub":false}},{"type":"Feature","geometry":{"type":"Point","coordinates":[-104.4393,39.2098]},"properties":{"s":70.4,"pub":false}},{"type":"Feature","geometry":{"type":"Point","coordinates":[-104.4393,39.2156]},"properties":{"s":70.4,"pub":false}},{"type":"Feature","geometry":{"type":"Point","coordinates":[-104.4318,39.1344]},"properties":{"s":48.1,"pub":false}},{"type":"Feature","geometry":{"type":"Point","coordinates":[-104.4318,39.1402]},"properties":{"s":70.4,"pub":false}},{"type":"Feature","geometry":{"type":"Point","coordinates":[-104.4318,39.146]},"properties":{"s":70.4,"pub":false}},{"type":"Feature","geometry":{"type":"Point","coordinates":[-104.4318,39.1518]},"properties":{"s":70.4,"pub":false}},{"type":"Feature","geometry":{"type":"Point","coordinates":[-104.4318,39.1576]},"properties":{"s":70.4,"pub":false}},{"type":"Feature","geometry":{"type":"Point","coordinates":[-104.4318,39.1634]},"properties":{"s":70.4,"pub":false}},{"type":"Feature","geometry":{"type":"Point","coordinates":[-104.4318,39.1692]},"properties":{"s":70.4,"pub":false}},{"type":"Feature","geometry":{"type":"Point","coordinates":[-104.4318,39.175]},"properties":{"s":70.4,"pub":false}},{"type":"Feature","geometry":{"type":"Point","coordinates":[-104.4318,39.1808]},"properties":{"s":70.4,"pub":false}},{"type":"Feature","geometry":{"type":"Point","coordinates":[-104.4318,39.1866]},"properties":{"s":70.4,"pub":false}},{"type":"Feature","geometry":{"type":"Point","coordinates":[-104.4318,39.1924]},"properties":{"s":70.4,"pub":false}},{"type":"Feature","geometry":{"type":"Point","coordinates":[-104.4318,39.1982]},"properties":{"s":70.4,"pub":false}},{"type":"Feature","geometry":{"type":"Point","coordinates":[-104.4318,39.204]},"properties":{"s":70.4,"pub":false}},{"type":"Feature","geometry":{"type":"Point","coordinates":[-104.4318,39.2098]},"properties":{"s":70.4,"pub":false}},{"type":"Feature","geometry":{"type":"Point","coordinates":[-104.4318,39.2156]},"properties":{"s":70.4,"pub":false}},{"type":"Feature","geometry":{"type":"Point","coordinates":[-104.4318,39.2214]},"properties":{"s":70.4,"pub":false}},{"type":"Feature","geometry":{"type":"Point","coordinates":[-104.4318,39.2272]},"properties":{"s":70.4,"pub":false}},{"type":"Feature","geometry":{"type":"Point","coordinates":[-104.4243,39.1344]},"properties":{"s":48.1,"pub":false}},{"type":"Feature","geometry":{"type":"Point","coordinates":[-104.4243,39.1402]},"properties":{"s":48.1,"pub":false}},{"type":"Feature","geometry":{"type":"Point","coordinates":[-104.4243,39.146]},"properties":{"s":70.4,"pub":false}},{"type":"Feature","geometry":{"type":"Point","coordinates":[-104.4243,39.1518]},"properties":{"s":70.4,"pub":false}},{"type":"Feature","geometry":{"type":"Point","coordinates":[-104.4243,39.1576]},"properties":{"s":70.4,"pub":false}},{"type":"Feature","geometry":{"type":"Point","coordinates":[-104.4243,39.1634]},"properties":{"s":70.4,"pub":false}},{"type":"Feature","geometry":{"type":"Point","coordinates":[-104.4243,39.1692]},"properties":{"s":70.4,"pub":false}},{"type":"Feature","geometry":{"type":"Point","coordinates":[-104.4243,39.175]},"properties":{"s":70.4,"pub":false}},{"type":"Feature","geometry":{"type":"Point","coordinates":[-104.4243,39.1808]},"properties":{"s":70.4,"pub":false}},{"type":"Feature","geometry":{"type":"Point","coordinates":[-104.4243,39.1866]},"properties":{"s":70.4,"pub":false}},{"type":"Feature","geometry":{"type":"Point","coordinates":[-104.4243,39.1924]},"properties":{"s":70.4,"pub":false}},{"type":"Feature","geometry":{"type":"Point","coordinates":[-104.4243,39.1982]},"properties":{"s":70.4,"pub":false}},{"type":"Feature","geometry":{"type":"Point","coordinates":[-104.4243,39.204]},"properties":{"s":70.4,"pub":false}},{"type":"Feature","geometry":{"type":"Point","coordinates":[-104.4243,39.2098]},"properties":{"s":70.4,"pub":false}},{"type":"Feature","geometry":{"type":"Point","coordinates":[-104.4243,39.2156]},"properties":{"s":70.4,"pub":false}},{"type":"Feature","geometry":{"type":"Point","coordinates":[-104.4243,39.2214]},"properties":{"s":70.4,"pub":false}},{"type":"Feature","geometry":{"type":"Point","coordinates":[-104.4243,39.2272]},"properties":{"s":70.4,"pub":false}},{"type":"Feature","geometry":{"type":"Point","coordinates":[-104.4243,39.233]},"properties":{"s":70.4,"pub":false}},{"type":"Feature","geometry":{"type":"Point","coordinates":[-104.4243,39.2388]},"properties":{"s":70.4,"pub":false}},{"type":"Feature","geometry":{"type":"Point","coordinates":[-104.4168,39.1344]},"properties":{"s":48.1,"pub":false}},{"type":"Feature","geometry":{"type":"Point","coordinates":[-104.4168,39.1402]},"properties":{"s":48.1,"pub":false}},{"type":"Feature","geometry":{"type":"Point","coordinates":[-104.4168,39.146]},"properties":{"s":48.1,"pub":false}},{"type":"Feature","geometry":{"type":"Point","coordinates":[-104.4168,39.1518]},"properties":{"s":77.8,"pub":false}},{"type":"Feature","geometry":{"type":"Point","coordinates":[-104.4168,39.1576]},"properties":{"s":100.0,"pub":false}},{"type":"Feature","geometry":{"type":"Point","coordinates":[-104.4168,39.1634]},"properties":{"s":100.0,"pub":false}},{"type":"Feature","geometry":{"type":"Point","coordinates":[-104.4168,39.1692]},"properties":{"s":70.4,"pub":false}},{"type":"Feature","geometry":{"type":"Point","coordinates":[-104.4168,39.175]},"properties":{"s":70.4,"pub":false}},{"type":"Feature","geometry":{"type":"Point","coordinates":[-104.4168,39.1808]},"properties":{"s":70.4,"pub":false}},{"type":"Feature","geometry":{"type":"Point","coordinates":[-104.4168,39.1866]},"properties":{"s":70.4,"pub":false}},{"type":"Feature","geometry":{"type":"Point","coordinates":[-104.4168,39.1924]},"properties":{"s":70.4,"pub":false}},{"type":"Feature","geometry":{"type":"Point","coordinates":[-104.4168,39.1982]},"properties":{"s":70.4,"pub":false}},{"type":"Feature","geometry":{"type":"Point","coordinates":[-104.4168,39.204]},"properties":{"s":70.4,"pub":false}},{"type":"Feature","geometry":{"type":"Point","coordinates":[-104.4168,39.2098]},"properties":{"s":70.4,"pub":false}},{"type":"Feature","geometry":{"type":"Point","coordinates":[-104.4168,39.2156]},"properties":{"s":70.4,"pub":false}},{"type":"Feature","geometry":{"type":"Point","coordinates":[-104.4168,39.2214]},"properties":{"s":70.4,"pub":false}},{"type":"Feature","geometry":{"type":"Point","coordinates":[-104.4168,39.2272]},"properties":{"s":70.4,"pub":false}},{"type":"Feature","geometry":{"type":"Point","coordinates":[-104.4168,39.233]},"properties":{"s":70.4,"pub":false}},{"type":"Feature","geometry":{"type":"Point","coordinates":[-104.4168,39.2388]},"properties":{"s":70.4,"pub":false}},{"type":"Feature","geometry":{"type":"Point","coordinates":[-104.4168,39.2446]},"properties":{"s":70.4,"pub":false}},{"type":"Feature","geometry":{"type":"Point","coordinates":[-104.4168,39.2504]},"properties":{"s":70.4,"pub":false}},{"type":"Feature","geometry":{"type":"Point","coordinates":[-104.4093,39.1344]},"properties":{"s":48.1,"pub":false}},{"type":"Feature","geometry":{"type":"Point","coordinates":[-104.4093,39.1402]},"properties":{"s":48.1,"pub":false}},{"type":"Feature","geometry":{"type":"Point","coordinates":[-104.4093,39.146]},"properties":{"s":48.1,"pub":false}},{"type":"Feature","geometry":{"type":"Point","coordinates":[-104.4093,39.1518]},"properties":{"s":48.1,"pub":false}},{"type":"Feature","geometry":{"type":"Point","coordinates":[-104.4093,39.1576]},"properties":{"s":77.8,"pub":false}},{"type":"Feature","geometry":{"type":"Point","coordinates":[-104.4093,39.1634]},"properties":{"s":100.0,"pub":false}},{"type":"Feature","geometry":{"type":"Point","coordinates":[-104.4093,39.1692]},"properties":{"s":100.0,"pub":false}},{"type":"Feature","geometry":{"type":"Point","coordinates":[-104.4093,39.175]},"properties":{"s":70.4,"pub":false}},{"type":"Feature","geometry":{"type":"Point","coordinates":[-104.4093,39.1808]},"properties":{"s":70.4,"pub":false}},{"type":"Feature","geometry":{"type":"Point","coordinates":[-104.4093,39.1866]},"properties":{"s":70.4,"pub":false}},{"type":"Feature","geometry":{"type":"Point","coordinates":[-104.4093,39.1924]},"properties":{"s":70.4,"pub":false}},{"type":"Feature","geometry":{"type":"Point","coordinates":[-104.4093,39.1982]},"properties":{"s":70.4,"pub":false}},{"type":"Feature","geometry":{"type":"Point","coordinates":[-104.4093,39.204]},"properties":{"s":70.4,"pub":false}},{"type":"Feature","geometry":{"type":"Point","coordinates":[-104.4093,39.2098]},"properties":{"s":70.4,"pub":false}},{"type":"Feature","geometry":{"type":"Point","coordinates":[-104.4093,39.2156]},"properties":{"s":70.4,"pub":false}},{"type":"Feature","geometry":{"type":"Point","coordinates":[-104.4093,39.2214]},"properties":{"s":70.4,"pub":false}},{"type":"Feature","geometry":{"type":"Point","coordinates":[-104.4093,39.2272]},"properties":{"s":70.4,"pub":false}},{"type":"Feature","geometry":{"type":"Point","coordinates":[-104.4093,39.233]},"properties":{"s":70.4,"pub":false}},{"type":"Feature","geometry":{"type":"Point","coordinates":[-104.4093,39.2388]},"properties":{"s":70.4,"pub":false}},{"type":"Feature","geometry":{"type":"Point","coordinates":[-104.4093,39.2446]},"properties":{"s":70.4,"pub":false}},{"type":"Feature","geometry":{"type":"Point","coordinates":[-104.4093,39.2504]},"properties":{"s":70.4,"pub":false}},{"type":"Feature","geometry":{"type":"Point","coordinates":[-104.4093,39.2562]},"properties":{"s":70.4,"pub":false}},{"type":"Feature","geometry":{"type":"Point","coordinates":[-104.4018,39.146]},"properties":{"s":48.1,"pub":true}},{"type":"Feature","geometry":{"type":"Point","coordinates":[-104.4018,39.1518]},"properties":{"s":48.1,"pub":false}},{"type":"Feature","geometry":{"type":"Point","coordinates":[-104.4018,39.1576]},"properties":{"s":48.1,"pub":false}},{"type":"Feature","geometry":{"type":"Point","coordinates":[-104.4018,39.1634]},"properties":{"s":77.8,"pub":false}},{"type":"Feature","geometry":{"type":"Point","coordinates":[-104.4018,39.1692]},"properties":{"s":100.0,"pub":false}},{"type":"Feature","geometry":{"type":"Point","coordinates":[-104.4018,39.175]},"properties":{"s":100.0,"pub":false}},{"type":"Feature","geometry":{"type":"Point","coordinates":[-104.4018,39.1808]},"properties":{"s":100.0,"pub":false}},{"type":"Feature","geometry":{"type":"Point","coordinates":[-104.4018,39.1866]},"properties":{"s":70.4,"pub":false}},{"type":"Feature","geometry":{"type":"Point","coordinates":[-104.4018,39.1924]},"properties":{"s":70.4,"pub":false}},{"type":"Feature","geometry":{"type":"Point","coordinates":[-104.4018,39.1982]},"properties":{"s":70.4,"pub":false}},{"type":"Feature","geometry":{"type":"Point","coordinates":[-104.4018,39.204]},"properties":{"s":70.4,"pub":false}},{"type":"Feature","geometry":{"type":"Point","coordinates":[-104.4018,39.2098]},"properties":{"s":70.4,"pub":false}},{"type":"Feature","geometry":{"type":"Point","coordinates":[-104.4018,39.2156]},"properties":{"s":70.4,"pub":false}},{"type":"Feature","geometry":{"type":"Point","coordinates":[-104.4018,39.2214]},"properties":{"s":70.4,"pub":false}},{"type":"Feature","geometry":{"type":"Point","coordinates":[-104.4018,39.2272]},"properties":{"s":70.4,"pub":false}},{"type":"Feature","geometry":{"type":"Point","coordinates":[-104.4018,39.233]},"properties":{"s":70.4,"pub":false}},{"type":"Feature","geometry":{"type":"Point","coordinates":[-104.4018,39.2388]},"properties":{"s":70.4,"pub":false}},{"type":"Feature","geometry":{"type":"Point","coordinates":[-104.4018,39.2446]},"properties":{"s":70.4,"pub":false}},{"type":"Feature","geometry":{"type":"Point","coordinates":[-104.4018,39.2504]},"properties":{"s":70.4,"pub":false}},{"type":"Feature","geometry":{"type":"Point","coordinates":[-104.4018,39.2562]},"properties":{"s":70.4,"pub":false}},{"type":"Feature","geometry":{"type":"Point","coordinates":[-104.4018,39.262]},"properties":{"s":48.1,"pub":false}},{"type":"Feature","geometry":{"type":"Point","coordinates":[-104.4018,39.2678]},"properties":{"s":48.1,"pub":false}},{"type":"Feature","geometry":{"type":"Point","coordinates":[-104.3943,39.1634]},"properties":{"s":48.1,"pub":false}},{"type":"Feature","geometry":{"type":"Point","coordinates":[-104.3943,39.1692]},"properties":{"s":77.8,"pub":false}},{"type":"Feature","geometry":{"type":"Point","coordinates":[-104.3943,39.175]},"properties":{"s":77.8,"pub":false}},{"type":"Feature","geometry":{"type":"Point","coordinates":[-104.3943,39.1808]},"properties":{"s":100.0,"pub":false}},{"type":"Feature","geometry":{"type":"Point","coordinates":[-104.3943,39.1866]},"properties":{"s":100.0,"pub":false}},{"type":"Feature","geometry":{"type":"Point","coordinates":[-104.3943,39.1924]},"properties":{"s":100.0,"pub":false}},{"type":"Feature","geometry":{"type":"Point","coordinates":[-104.3943,39.1982]},"properties":{"s":100.0,"pub":false}},{"type":"Feature","geometry":{"type":"Point","coordinates":[-104.3943,39.204]},"properties":{"s":100.0,"pub":false}},{"type":"Feature","geometry":{"type":"Point","coordinates":[-104.3943,39.2098]},"properties":{"s":100.0,"pub":false}},{"type":"Feature","geometry":{"type":"Point","coordinates":[-104.3943,39.2156]},"properties":{"s":70.4,"pub":false}},{"type":"Feature","geometry":{"type":"Point","coordinates":[-104.3943,39.2214]},"properties":{"s":70.4,"pub":false}},{"type":"Feature","geometry":{"type":"Point","coordinates":[-104.3943,39.2272]},"properties":{"s":70.4,"pub":false}},{"type":"Feature","geometry":{"type":"Point","coordinates":[-104.3943,39.233]},"properties":{"s":70.4,"pub":false}},{"type":"Feature","geometry":{"type":"Point","coordinates":[-104.3943,39.2388]},"properties":{"s":70.4,"pub":false}},{"type":"Feature","geometry":{"type":"Point","coordinates":[-104.3943,39.2446]},"properties":{"s":70.4,"pub":false}},{"type":"Feature","geometry":{"type":"Point","coordinates":[-104.3943,39.2504]},"properties":{"s":70.4,"pub":false}},{"type":"Feature","geometry":{"type":"Point","coordinates":[-104.3943,39.2562]},"properties":{"s":70.4,"pub":false}},{"type":"Feature","geometry":{"type":"Point","coordinates":[-104.3943,39.262]},"properties":{"s":48.1,"pub":false}},{"type":"Feature","geometry":{"type":"Point","coordinates":[-104.3943,39.2678]},"properties":{"s":48.1,"pub":false}},{"type":"Feature","geometry":{"type":"Point","coordinates":[-104.3868,39.175]},"properties":{"s":74.1,"pub":false}},{"type":"Feature","geometry":{"type":"Point","coordinates":[-104.3868,39.1808]},"properties":{"s":77.8,"pub":false}},{"type":"Feature","geometry":{"type":"Point","coordinates":[-104.3868,39.1866]},"properties":{"s":100.0,"pub":false}},{"type":"Feature","geometry":{"type":"Point","coordinates":[-104.3868,39.1924]},"properties":{"s":100.0,"pub":false}},{"type":"Feature","geometry":{"type":"Point","coordinates":[-104.3868,39.1982]},"properties":{"s":100.0,"pub":false}},{"type":"Feature","geometry":{"type":"Point","coordinates":[-104.3868,39.204]},"properties":{"s":100.0,"pub":false}},{"type":"Feature","geometry":{"type":"Point","coordinates":[-104.3868,39.2098]},"properties":{"s":100.0,"pub":false}},{"type":"Feature","geometry":{"type":"Point","coordinates":[-104.3868,39.2156]},"properties":{"s":100.0,"pub":false}},{"type":"Feature","geometry":{"type":"Point","coordinates":[-104.3868,39.2214]},"properties":{"s":70.4,"pub":false}},{"type":"Feature","geometry":{"type":"Point","coordinates":[-104.3868,39.2272]},"properties":{"s":70.4,"pub":false}},{"type":"Feature","geometry":{"type":"Point","coordinates":[-104.3868,39.233]},"properties":{"s":70.4,"pub":false}},{"type":"Feature","geometry":{"type":"Point","coordinates":[-104.3868,39.2388]},"properties":{"s":70.4,"pub":false}},{"type":"Feature","geometry":{"type":"Point","coordinates":[-104.3868,39.2446]},"properties":{"s":70.4,"pub":false}},{"type":"Feature","geometry":{"type":"Point","coordinates":[-104.3868,39.2504]},"properties":{"s":70.4,"pub":false}},{"type":"Feature","geometry":{"type":"Point","coordinates":[-104.3868,39.2562]},"properties":{"s":70.4,"pub":false}},{"type":"Feature","geometry":{"type":"Point","coordinates":[-104.3868,39.262]},"properties":{"s":48.1,"pub":false}},{"type":"Feature","geometry":{"type":"Point","coordinates":[-104.3868,39.2678]},"properties":{"s":48.1,"pub":false}},{"type":"Feature","geometry":{"type":"Point","coordinates":[-104.3868,39.2736]},"properties":{"s":48.1,"pub":false}},{"type":"Feature","geometry":{"type":"Point","coordinates":[-104.3793,39.1808]},"properties":{"s":74.1,"pub":false}},{"type":"Feature","geometry":{"type":"Point","coordinates":[-104.3793,39.1866]},"properties":{"s":74.1,"pub":false}},{"type":"Feature","geometry":{"type":"Point","coordinates":[-104.3793,39.1924]},"properties":{"s":74.1,"pub":false}},{"type":"Feature","geometry":{"type":"Point","coordinates":[-104.3793,39.1982]},"properties":{"s":77.8,"pub":false}},{"type":"Feature","geometry":{"type":"Point","coordinates":[-104.3793,39.204]},"properties":{"s":100.0,"pub":false}},{"type":"Feature","geometry":{"type":"Point","coordinates":[-104.3793,39.2098]},"properties":{"s":100.0,"pub":false}},{"type":"Feature","geometry":{"type":"Point","coordinates":[-104.3793,39.2156]},"properties":{"s":100.0,"pub":false}},{"type":"Feature","geometry":{"type":"Point","coordinates":[-104.3793,39.2214]},"properties":{"s":70.4,"pub":false}},{"type":"Feature","geometry":{"type":"Point","coordinates":[-104.3793,39.2272]},"properties":{"s":70.4,"pub":false}},{"type":"Feature","geometry":{"type":"Point","coordinates":[-104.3793,39.233]},"properties":{"s":70.4,"pub":false}},{"type":"Feature","geometry":{"type":"Point","coordinates":[-104.3793,39.2388]},"properties":{"s":70.4,"pub":false}},{"type":"Feature","geometry":{"type":"Point","coordinates":[-104.3793,39.2446]},"properties":{"s":70.4,"pub":false}},{"type":"Feature","geometry":{"type":"Point","coordinates":[-104.3793,39.2504]},"properties":{"s":70.4,"pub":false}},{"type":"Feature","geometry":{"type":"Point","coordinates":[-104.3793,39.2562]},"properties":{"s":70.4,"pub":false}},{"type":"Feature","geometry":{"type":"Point","coordinates":[-104.3793,39.262]},"properties":{"s":48.1,"pub":false}},{"type":"Feature","geometry":{"type":"Point","coordinates":[-104.3793,39.2678]},"properties":{"s":48.1,"pub":false}},{"type":"Feature","geometry":{"type":"Point","coordinates":[-104.3793,39.2736]},"properties":{"s":48.1,"pub":false}},{"type":"Feature","geometry":{"type":"Point","coordinates":[-104.3718,39.1982]},"properties":{"s":48.1,"pub":false}},{"type":"Feature","geometry":{"type":"Point","coordinates":[-104.3718,39.204]},"properties":{"s":77.8,"pub":false}},{"type":"Feature","geometry":{"type":"Point","coordinates":[-104.3718,39.2098]},"properties":{"s":77.8,"pub":false}},{"type":"Feature","geometry":{"type":"Point","coordinates":[-104.3718,39.2156]},"properties":{"s":70.4,"pub":false}},{"type":"Feature","geometry":{"type":"Point","coordinates":[-104.3718,39.2214]},"properties":{"s":70.4,"pub":false}},{"type":"Feature","geometry":{"type":"Point","coordinates":[-104.3718,39.2272]},"properties":{"s":70.4,"pub":false}},{"type":"Feature","geometry":{"type":"Point","coordinates":[-104.3718,39.233]},"properties":{"s":70.4,"pub":false}},{"type":"Feature","geometry":{"type":"Point","coordinates":[-104.3718,39.2388]},"properties":{"s":70.4,"pub":false}},{"type":"Feature","geometry":{"type":"Point","coordinates":[-104.3718,39.2446]},"properties":{"s":70.4,"pub":false}},{"type":"Feature","geometry":{"type":"Point","coordinates":[-104.3718,39.2504]},"properties":{"s":70.4,"pub":false}},{"type":"Feature","geometry":{"type":"Point","coordinates":[-104.3718,39.2562]},"properties":{"s":70.4,"pub":false}},{"type":"Feature","geometry":{"type":"Point","coordinates":[-104.3718,39.262]},"properties":{"s":48.1,"pub":false}},{"type":"Feature","geometry":{"type":"Point","coordinates":[-104.3718,39.2678]},"properties":{"s":48.1,"pub":false}},{"type":"Feature","geometry":{"type":"Point","coordinates":[-104.3718,39.2736]},"properties":{"s":48.1,"pub":false}},{"type":"Feature","geometry":{"type":"Point","coordinates":[-104.3718,39.2794]},"properties":{"s":48.1,"pub":false}},{"type":"Feature","geometry":{"type":"Point","coordinates":[-104.3643,39.204]},"properties":{"s":48.1,"pub":false}},{"type":"Feature","geometry":{"type":"Point","coordinates":[-104.3643,39.2098]},"properties":{"s":48.1,"pub":false}},{"type":"Feature","geometry":{"type":"Point","coordinates":[-104.3643,39.2156]},"properties":{"s":48.1,"pub":false}},{"type":"Feature","geometry":{"type":"Point","coordinates":[-104.3643,39.2214]},"properties":{"s":48.1,"pub":false}},{"type":"Feature","geometry":{"type":"Point","coordinates":[-104.3643,39.2272]},"properties":{"s":48.1,"pub":false}},{"type":"Feature","geometry":{"type":"Point","coordinates":[-104.3643,39.233]},"properties":{"s":48.1,"pub":false}},{"type":"Feature","geometry":{"type":"Point","coordinates":[-104.3643,39.2388]},"properties":{"s":48.1,"pub":false}},{"type":"Feature","geometry":{"type":"Point","coordinates":[-104.3643,39.2446]},"properties":{"s":70.4,"pub":false}},{"type":"Feature","geometry":{"type":"Point","coordinates":[-104.3643,39.2504]},"properties":{"s":48.1,"pub":false}},{"type":"Feature","geometry":{"type":"Point","coordinates":[-104.3643,39.2562]},"properties":{"s":48.1,"pub":false}},{"type":"Feature","geometry":{"type":"Point","coordinates":[-104.3643,39.262]},"properties":{"s":48.1,"pub":false}},{"type":"Feature","geometry":{"type":"Point","coordinates":[-104.3643,39.2678]},"properties":{"s":48.1,"pub":false}},{"type":"Feature","geometry":{"type":"Point","coordinates":[-104.3643,39.2736]},"properties":{"s":48.1,"pub":false}},{"type":"Feature","geometry":{"type":"Point","coordinates":[-104.3643,39.2794]},"properties":{"s":48.1,"pub":false}},{"type":"Feature","geometry":{"type":"Point","coordinates":[-104.3568,39.204]},"properties":{"s":48.1,"pub":false}},{"type":"Feature","geometry":{"type":"Point","coordinates":[-104.3568,39.2098]},"properties":{"s":48.1,"pub":false}},{"type":"Feature","geometry":{"type":"Point","coordinates":[-104.3568,39.2156]},"properties":{"s":48.1,"pub":false}},{"type":"Feature","geometry":{"type":"Point","coordinates":[-104.3568,39.2214]},"properties":{"s":48.1,"pub":false}},{"type":"Feature","geometry":{"type":"Point","coordinates":[-104.3568,39.2272]},"properties":{"s":48.1,"pub":false}},{"type":"Feature","geometry":{"type":"Point","coordinates":[-104.3568,39.233]},"properties":{"s":48.1,"pub":false}},{"type":"Feature","geometry":{"type":"Point","coordinates":[-104.3568,39.2388]},"properties":{"s":48.1,"pub":false}},{"type":"Feature","geometry":{"type":"Point","coordinates":[-104.3568,39.2446]},"properties":{"s":48.1,"pub":false}},{"type":"Feature","geometry":{"type":"Point","coordinates":[-104.3568,39.2504]},"properties":{"s":48.1,"pub":false}},{"type":"Feature","geometry":{"type":"Point","coordinates":[-104.3568,39.2562]},"properties":{"s":48.1,"pub":false}},{"type":"Feature","geometry":{"type":"Point","coordinates":[-104.3568,39.262]},"properties":{"s":48.1,"pub":false}},{"type":"Feature","geometry":{"type":"Point","coordinates":[-104.3568,39.2678]},"properties":{"s":48.1,"pub":false}},{"type":"Feature","geometry":{"type":"Point","coordinates":[-104.3568,39.2736]},"properties":{"s":48.1,"pub":false}},{"type":"Feature","geometry":{"type":"Point","coordinates":[-104.3568,39.2794]},"properties":{"s":48.1,"pub":false}},{"type":"Feature","geometry":{"type":"Point","coordinates":[-104.3493,39.2156]},"properties":{"s":48.1,"pub":false}},{"type":"Feature","geometry":{"type":"Point","coordinates":[-104.3493,39.2214]},"properties":{"s":48.1,"pub":false}},{"type":"Feature","geometry":{"type":"Point","coordinates":[-104.3493,39.2272]},"properties":{"s":48.1,"pub":false}},{"type":"Feature","geometry":{"type":"Point","coordinates":[-104.3493,39.233]},"properties":{"s":48.1,"pub":false}},{"type":"Feature","geometry":{"type":"Point","coordinates":[-104.3493,39.2388]},"properties":{"s":48.1,"pub":false}},{"type":"Feature","geometry":{"type":"Point","coordinates":[-104.3493,39.2446]},"properties":{"s":48.1,"pub":false}},{"type":"Feature","geometry":{"type":"Point","coordinates":[-104.3493,39.2504]},"properties":{"s":48.1,"pub":false}},{"type":"Feature","geometry":{"type":"Point","coordinates":[-104.3493,39.2562]},"properties":{"s":48.1,"pub":false}},{"type":"Feature","geometry":{"type":"Point","coordinates":[-104.3493,39.262]},"properties":{"s":48.1,"pub":false}},{"type":"Feature","geometry":{"type":"Point","coordinates":[-104.3493,39.2678]},"properties":{"s":48.1,"pub":false}},{"type":"Feature","geometry":{"type":"Point","coordinates":[-104.3493,39.2736]},"properties":{"s":48.1,"pub":false}},{"type":"Feature","geometry":{"type":"Point","coordinates":[-104.3493,39.2794]},"properties":{"s":48.1,"pub":false}},{"type":"Feature","geometry":{"type":"Point","coordinates":[-104.3493,39.2852]},"properties":{"s":48.1,"pub":false}},{"type":"Feature","geometry":{"type":"Point","coordinates":[-104.3418,39.2214]},"properties":{"s":48.1,"pub":false}},{"type":"Feature","geometry":{"type":"Point","coordinates":[-104.3418,39.2272]},"properties":{"s":48.1,"pub":false}},{"type":"Feature","geometry":{"type":"Point","coordinates":[-104.3418,39.233]},"properties":{"s":48.1,"pub":false}},{"type":"Feature","geometry":{"type":"Point","coordinates":[-104.3418,39.2388]},"properties":{"s":48.1,"pub":false}},{"type":"Feature","geometry":{"type":"Point","coordinates":[-104.3418,39.2446]},"properties":{"s":48.1,"pub":false}},{"type":"Feature","geometry":{"type":"Point","coordinates":[-104.3418,39.2504]},"properties":{"s":48.1,"pub":false}},{"type":"Feature","geometry":{"type":"Point","coordinates":[-104.3418,39.2562]},"properties":{"s":48.1,"pub":false}},{"type":"Feature","geometry":{"type":"Point","coordinates":[-104.3418,39.262]},"properties":{"s":48.1,"pub":false}},{"type":"Feature","geometry":{"type":"Point","coordinates":[-104.3418,39.2678]},"properties":{"s":48.1,"pub":true}},{"type":"Feature","geometry":{"type":"Point","coordinates":[-104.3418,39.2736]},"properties":{"s":48.1,"pub":true}},{"type":"Feature","geometry":{"type":"Point","coordinates":[-104.3418,39.2794]},"properties":{"s":48.1,"pub":false}},{"type":"Feature","geometry":{"type":"Point","coordinates":[-104.3418,39.2852]},"properties":{"s":48.1,"pub":false}},{"type":"Feature","geometry":{"type":"Point","coordinates":[-104.3343,39.2272]},"properties":{"s":48.1,"pub":false}},{"type":"Feature","geometry":{"type":"Point","coordinates":[-104.3343,39.233]},"properties":{"s":48.1,"pub":false}},{"type":"Feature","geometry":{"type":"Point","coordinates":[-104.3343,39.2388]},"properties":{"s":48.1,"pub":false}},{"type":"Feature","geometry":{"type":"Point","coordinates":[-104.3343,39.2446]},"properties":{"s":48.1,"pub":false}},{"type":"Feature","geometry":{"type":"Point","coordinates":[-104.3343,39.2504]},"properties":{"s":48.1,"pub":false}},{"type":"Feature","geometry":{"type":"Point","coordinates":[-104.3343,39.2562]},"properties":{"s":48.1,"pub":false}},{"type":"Feature","geometry":{"type":"Point","coordinates":[-104.3343,39.262]},"properties":{"s":48.1,"pub":false}},{"type":"Feature","geometry":{"type":"Point","coordinates":[-104.3343,39.2678]},"properties":{"s":48.1,"pub":true}},{"type":"Feature","geometry":{"type":"Point","coordinates":[-104.3343,39.2736]},"properties":{"s":48.1,"pub":true}},{"type":"Feature","geometry":{"type":"Point","coordinates":[-104.3343,39.2794]},"properties":{"s":48.1,"pub":false}},{"type":"Feature","geometry":{"type":"Point","coordinates":[-104.3343,39.2852]},"properties":{"s":48.1,"pub":false}},{"type":"Feature","geometry":{"type":"Point","coordinates":[-104.3268,39.2388]},"properties":{"s":48.1,"pub":false}},{"type":"Feature","geometry":{"type":"Point","coordinates":[-104.3268,39.2446]},"properties":{"s":48.1,"pub":false}},{"type":"Feature","geometry":{"type":"Point","coordinates":[-104.3268,39.2504]},"properties":{"s":48.1,"pub":false}},{"type":"Feature","geometry":{"type":"Point","coordinates":[-104.3268,39.2562]},"properties":{"s":48.1,"pub":false}},{"type":"Feature","geometry":{"type":"Point","coordinates":[-104.3268,39.262]},"properties":{"s":48.1,"pub":false}},{"type":"Feature","geometry":{"type":"Point","coordinates":[-104.3268,39.2678]},"properties":{"s":48.1,"pub":false}},{"type":"Feature","geometry":{"type":"Point","coordinates":[-104.3268,39.2736]},"properties":{"s":48.1,"pub":false}},{"type":"Feature","geometry":{"type":"Point","coordinates":[-104.3268,39.2794]},"properties":{"s":48.1,"pub":false}},{"type":"Feature","geometry":{"type":"Point","coordinates":[-104.3268,39.2852]},"properties":{"s":48.1,"pub":false}},{"type":"Feature","geometry":{"type":"Point","coordinates":[-104.3193,39.2446]},"properties":{"s":48.1,"pub":false}},{"type":"Feature","geometry":{"type":"Point","coordinates":[-104.3193,39.2504]},"properties":{"s":48.1,"pub":false}},{"type":"Feature","geometry":{"type":"Point","coordinates":[-104.3193,39.2562]},"properties":{"s":48.1,"pub":false}},{"type":"Feature","geometry":{"type":"Point","coordinates":[-104.3193,39.262]},"properties":{"s":48.1,"pub":false}},{"type":"Feature","geometry":{"type":"Point","coordinates":[-104.3193,39.2678]},"properties":{"s":48.1,"pub":false}},{"type":"Feature","geometry":{"type":"Point","coordinates":[-104.3193,39.2736]},"properties":{"s":48.1,"pub":false}},{"type":"Feature","geometry":{"type":"Point","coordinates":[-104.3193,39.2794]},"properties":{"s":48.1,"pub":false}},{"type":"Feature","geometry":{"type":"Point","coordinates":[-104.3193,39.2852]},"properties":{"s":48.1,"pub":false}},{"type":"Feature","geometry":{"type":"Point","coordinates":[-104.3118,39.262]},"properties":{"s":48.1,"pub":false}},{"type":"Feature","geometry":{"type":"Point","coordinates":[-104.3118,39.2678]},"properties":{"s":48.1,"pub":false}},{"type":"Feature","geometry":{"type":"Point","coordinates":[-104.3118,39.2736]},"properties":{"s":48.1,"pub":false}},{"type":"Feature","geometry":{"type":"Point","coordinates":[-104.2593,39.407]},"properties":{"s":66.7,"pub":false}},{"type":"Feature","geometry":{"type":"Point","coordinates":[-104.2593,39.4128]},"properties":{"s":66.7,"pub":false}},{"type":"Feature","geometry":{"type":"Point","coordinates":[-104.2593,39.4186]},"properties":{"s":66.7,"pub":false}},{"type":"Feature","geometry":{"type":"Point","coordinates":[-104.2593,39.4244]},"properties":{"s":66.7,"pub":false}},{"type":"Feature","geometry":{"type":"Point","coordinates":[-104.2593,39.4302]},"properties":{"s":66.7,"pub":false}},{"type":"Feature","geometry":{"type":"Point","coordinates":[-104.2593,39.436]},"properties":{"s":66.7,"pub":false}},{"type":"Feature","geometry":{"type":"Point","coordinates":[-104.2593,39.4418]},"properties":{"s":66.7,"pub":false}},{"type":"Feature","geometry":{"type":"Point","coordinates":[-104.2593,39.4476]},"properties":{"s":66.7,"pub":false}},{"type":"Feature","geometry":{"type":"Point","coordinates":[-104.2593,39.4534]},"properties":{"s":66.7,"pub":false}},{"type":"Feature","geometry":{"type":"Point","coordinates":[-104.2593,39.4592]},"properties":{"s":66.7,"pub":false}},{"type":"Feature","geometry":{"type":"Point","coordinates":[-104.2518,39.4012]},"properties":{"s":66.7,"pub":false}},{"type":"Feature","geometry":{"type":"Point","coordinates":[-104.2518,39.407]},"properties":{"s":66.7,"pub":false}},{"type":"Feature","geometry":{"type":"Point","coordinates":[-104.2518,39.4128]},"properties":{"s":66.7,"pub":false}},{"type":"Feature","geometry":{"type":"Point","coordinates":[-104.2518,39.4186]},"properties":{"s":66.7,"pub":false}},{"type":"Feature","geometry":{"type":"Point","coordinates":[-104.2518,39.4244]},"properties":{"s":66.7,"pub":false}},{"type":"Feature","geometry":{"type":"Point","coordinates":[-104.2518,39.4302]},"properties":{"s":66.7,"pub":false}},{"type":"Feature","geometry":{"type":"Point","coordinates":[-104.2518,39.436]},"properties":{"s":66.7,"pub":false}},{"type":"Feature","geometry":{"type":"Point","coordinates":[-104.2518,39.4418]},"properties":{"s":66.7,"pub":false}},{"type":"Feature","geometry":{"type":"Point","coordinates":[-104.2518,39.4476]},"properties":{"s":66.7,"pub":false}},{"type":"Feature","geometry":{"type":"Point","coordinates":[-104.2518,39.4534]},"properties":{"s":66.7,"pub":false}},{"type":"Feature","geometry":{"type":"Point","coordinates":[-104.2518,39.4592]},"properties":{"s":66.7,"pub":false}},{"type":"Feature","geometry":{"type":"Point","coordinates":[-104.2518,39.465]},"properties":{"s":66.7,"pub":false}},{"type":"Feature","geometry":{"type":"Point","coordinates":[-104.2518,39.4708]},"properties":{"s":66.7,"pub":false}},{"type":"Feature","geometry":{"type":"Point","coordinates":[-104.2443,39.3954]},"properties":{"s":66.7,"pub":false}},{"type":"Feature","geometry":{"type":"Point","coordinates":[-104.2443,39.4012]},"properties":{"s":66.7,"pub":false}},{"type":"Feature","geometry":{"type":"Point","coordinates":[-104.2443,39.407]},"properties":{"s":66.7,"pub":false}},{"type":"Feature","geometry":{"type":"Point","coordinates":[-104.2443,39.4128]},"properties":{"s":66.7,"pub":false}},{"type":"Feature","geometry":{"type":"Point","coordinates":[-104.2443,39.4186]},"properties":{"s":66.7,"pub":false}},{"type":"Feature","geometry":{"type":"Point","coordinates":[-104.2443,39.4244]},"properties":{"s":66.7,"pub":false}},{"type":"Feature","geometry":{"type":"Point","coordinates":[-104.2443,39.4302]},"properties":{"s":66.7,"pub":false}},{"type":"Feature","geometry":{"type":"Point","coordinates":[-104.2443,39.436]},"properties":{"s":66.7,"pub":false}},{"type":"Feature","geometry":{"type":"Point","coordinates":[-104.2443,39.4418]},"properties":{"s":66.7,"pub":false}},{"type":"Feature","geometry":{"type":"Point","coordinates":[-104.2443,39.4476]},"properties":{"s":66.7,"pub":false}},{"type":"Feature","geometry":{"type":"Point","coordinates":[-104.2443,39.4534]},"properties":{"s":66.7,"pub":false}},{"type":"Feature","geometry":{"type":"Point","coordinates":[-104.2443,39.4592]},"properties":{"s":66.7,"pub":false}},{"type":"Feature","geometry":{"type":"Point","coordinates":[-104.2443,39.465]},"properties":{"s":66.7,"pub":false}},{"type":"Feature","geometry":{"type":"Point","coordinates":[-104.2443,39.4708]},"properties":{"s":66.7,"pub":false}},{"type":"Feature","geometry":{"type":"Point","coordinates":[-104.2443,39.4766]},"properties":{"s":66.7,"pub":false}},{"type":"Feature","geometry":{"type":"Point","coordinates":[-104.2443,39.4824]},"properties":{"s":66.7,"pub":false}},{"type":"Feature","geometry":{"type":"Point","coordinates":[-104.2368,39.3896]},"properties":{"s":66.7,"pub":false}},{"type":"Feature","geometry":{"type":"Point","coordinates":[-104.2368,39.3954]},"properties":{"s":66.7,"pub":false}},{"type":"Feature","geometry":{"type":"Point","coordinates":[-104.2368,39.4012]},"properties":{"s":66.7,"pub":false}},{"type":"Feature","geometry":{"type":"Point","coordinates":[-104.2368,39.407]},"properties":{"s":66.7,"pub":false}},{"type":"Feature","geometry":{"type":"Point","coordinates":[-104.2368,39.4128]},"properties":{"s":66.7,"pub":false}},{"type":"Feature","geometry":{"type":"Point","coordinates":[-104.2368,39.4186]},"properties":{"s":66.7,"pub":false}},{"type":"Feature","geometry":{"type":"Point","coordinates":[-104.2368,39.4244]},"properties":{"s":66.7,"pub":false}},{"type":"Feature","geometry":{"type":"Point","coordinates":[-104.2368,39.4302]},"properties":{"s":66.7,"pub":false}},{"type":"Feature","geometry":{"type":"Point","coordinates":[-104.2368,39.436]},"properties":{"s":66.7,"pub":false}},{"type":"Feature","geometry":{"type":"Point","coordinates":[-104.2368,39.4418]},"properties":{"s":66.7,"pub":false}},{"type":"Feature","geometry":{"type":"Point","coordinates":[-104.2368,39.4476]},"properties":{"s":66.7,"pub":false}},{"type":"Feature","geometry":{"type":"Point","coordinates":[-104.2368,39.4534]},"properties":{"s":66.7,"pub":false}},{"type":"Feature","geometry":{"type":"Point","coordinates":[-104.2368,39.4592]},"properties":{"s":66.7,"pub":false}},{"type":"Feature","geometry":{"type":"Point","coordinates":[-104.2368,39.465]},"properties":{"s":66.7,"pub":false}},{"type":"Feature","geometry":{"type":"Point","coordinates":[-104.2368,39.4708]},"properties":{"s":66.7,"pub":false}},{"type":"Feature","geometry":{"type":"Point","coordinates":[-104.2368,39.4766]},"properties":{"s":66.7,"pub":false}},{"type":"Feature","geometry":{"type":"Point","coordinates":[-104.2368,39.4824]},"properties":{"s":66.7,"pub":false}},{"type":"Feature","geometry":{"type":"Point","coordinates":[-104.2293,39.3896]},"properties":{"s":66.7,"pub":false}},{"type":"Feature","geometry":{"type":"Point","coordinates":[-104.2293,39.3954]},"properties":{"s":66.7,"pub":false}},{"type":"Feature","geometry":{"type":"Point","coordinates":[-104.2293,39.4012]},"properties":{"s":66.7,"pub":false}},{"type":"Feature","geometry":{"type":"Point","coordinates":[-104.2293,39.407]},"properties":{"s":66.7,"pub":false}},{"type":"Feature","geometry":{"type":"Point","coordinates":[-104.2293,39.4128]},"properties":{"s":66.7,"pub":false}},{"type":"Feature","geometry":{"type":"Point","coordinates":[-104.2293,39.4186]},"properties":{"s":66.7,"pub":false}},{"type":"Feature","geometry":{"type":"Point","coordinates":[-104.2293,39.4244]},"properties":{"s":66.7,"pub":false}},{"type":"Feature","geometry":{"type":"Point","coordinates":[-104.2293,39.4302]},"properties":{"s":66.7,"pub":false}},{"type":"Feature","geometry":{"type":"Point","coordinates":[-104.2293,39.436]},"properties":{"s":66.7,"pub":false}},{"type":"Feature","geometry":{"type":"Point","coordinates":[-104.2293,39.4418]},"properties":{"s":66.7,"pub":false}},{"type":"Feature","geometry":{"type":"Point","coordinates":[-104.2293,39.4476]},"properties":{"s":66.7,"pub":false}},{"type":"Feature","geometry":{"type":"Point","coordinates":[-104.2293,39.4534]},"properties":{"s":66.7,"pub":false}},{"type":"Feature","geometry":{"type":"Point","coordinates":[-104.2293,39.4592]},"properties":{"s":66.7,"pub":false}},{"type":"Feature","geometry":{"type":"Point","coordinates":[-104.2293,39.465]},"properties":{"s":66.7,"pub":false}},{"type":"Feature","geometry":{"type":"Point","coordinates":[-104.2293,39.4708]},"properties":{"s":66.7,"pub":false}},{"type":"Feature","geometry":{"type":"Point","coordinates":[-104.2293,39.4766]},"properties":{"s":66.7,"pub":false}},{"type":"Feature","geometry":{"type":"Point","coordinates":[-104.2293,39.4824]},"properties":{"s":66.7,"pub":false}},{"type":"Feature","geometry":{"type":"Point","coordinates":[-104.2218,39.3838]},"properties":{"s":66.7,"pub":false}},{"type":"Feature","geometry":{"type":"Point","coordinates":[-104.2218,39.3896]},"properties":{"s":66.7,"pub":false}},{"type":"Feature","geometry":{"type":"Point","coordinates":[-104.2218,39.3954]},"properties":{"s":66.7,"pub":false}},{"type":"Feature","geometry":{"type":"Point","coordinates":[-104.2218,39.4012]},"properties":{"s":66.7,"pub":false}},{"type":"Feature","geometry":{"type":"Point","coordinates":[-104.2218,39.407]},"properties":{"s":66.7,"pub":false}},{"type":"Feature","geometry":{"type":"Point","coordinates":[-104.2218,39.4128]},"properties":{"s":66.7,"pub":false}},{"type":"Feature","geometry":{"type":"Point","coordinates":[-104.2218,39.4186]},"properties":{"s":66.7,"pub":false}},{"type":"Feature","geometry":{"type":"Point","coordinates":[-104.2218,39.4244]},"properties":{"s":66.7,"pub":false}},{"type":"Feature","geometry":{"type":"Point","coordinates":[-104.2218,39.4302]},"properties":{"s":66.7,"pub":false}},{"type":"Feature","geometry":{"type":"Point","coordinates":[-104.2218,39.436]},"properties":{"s":66.7,"pub":false}},{"type":"Feature","geometry":{"type":"Point","coordinates":[-104.2218,39.4418]},"properties":{"s":66.7,"pub":false}},{"type":"Feature","geometry":{"type":"Point","coordinates":[-104.2218,39.4476]},"properties":{"s":66.7,"pub":false}},{"type":"Feature","geometry":{"type":"Point","coordinates":[-104.2218,39.4534]},"properties":{"s":66.7,"pub":false}},{"type":"Feature","geometry":{"type":"Point","coordinates":[-104.2218,39.4592]},"properties":{"s":66.7,"pub":false}},{"type":"Feature","geometry":{"type":"Point","coordinates":[-104.2218,39.465]},"properties":{"s":66.7,"pub":false}},{"type":"Feature","geometry":{"type":"Point","coordinates":[-104.2218,39.4708]},"properties":{"s":66.7,"pub":false}},{"type":"Feature","geometry":{"type":"Point","coordinates":[-104.2218,39.4766]},"properties":{"s":66.7,"pub":false}},{"type":"Feature","geometry":{"type":"Point","coordinates":[-104.2218,39.4824]},"properties":{"s":66.7,"pub":false}},{"type":"Feature","geometry":{"type":"Point","coordinates":[-104.2218,39.4882]},"properties":{"s":66.7,"pub":false}},{"type":"Feature","geometry":{"type":"Point","coordinates":[-104.2143,39.3838]},"properties":{"s":66.7,"pub":false}},{"type":"Feature","geometry":{"type":"Point","coordinates":[-104.2143,39.3896]},"properties":{"s":66.7,"pub":false}},{"type":"Feature","geometry":{"type":"Point","coordinates":[-104.2143,39.3954]},"properties":{"s":66.7,"pub":false}},{"type":"Feature","geometry":{"type":"Point","coordinates":[-104.2143,39.4012]},"properties":{"s":66.7,"pub":false}},{"type":"Feature","geometry":{"type":"Point","coordinates":[-104.2143,39.407]},"properties":{"s":66.7,"pub":false}},{"type":"Feature","geometry":{"type":"Point","coordinates":[-104.2143,39.4128]},"properties":{"s":66.7,"pub":false}},{"type":"Feature","geometry":{"type":"Point","coordinates":[-104.2143,39.4186]},"properties":{"s":66.7,"pub":false}},{"type":"Feature","geometry":{"type":"Point","coordinates":[-104.2143,39.4244]},"properties":{"s":66.7,"pub":false}},{"type":"Feature","geometry":{"type":"Point","coordinates":[-104.2143,39.4302]},"properties":{"s":66.7,"pub":false}},{"type":"Feature","geometry":{"type":"Point","coordinates":[-104.2143,39.436]},"properties":{"s":66.7,"pub":false}},{"type":"Feature","geometry":{"type":"Point","coordinates":[-104.2143,39.4418]},"properties":{"s":66.7,"pub":false}},{"type":"Feature","geometry":{"type":"Point","coordinates":[-104.2143,39.4476]},"properties":{"s":66.7,"pub":false}},{"type":"Feature","geometry":{"type":"Point","coordinates":[-104.2143,39.4534]},"properties":{"s":66.7,"pub":false}},{"type":"Feature","geometry":{"type":"Point","coordinates":[-104.2143,39.4592]},"properties":{"s":66.7,"pub":false}},{"type":"Feature","geometry":{"type":"Point","coordinates":[-104.2143,39.465]},"properties":{"s":66.7,"pub":false}},{"type":"Feature","geometry":{"type":"Point","coordinates":[-104.2143,39.4708]},"properties":{"s":66.7,"pub":false}},{"type":"Feature","geometry":{"type":"Point","coordinates":[-104.2143,39.4766]},"properties":{"s":66.7,"pub":false}},{"type":"Feature","geometry":{"type":"Point","coordinates":[-104.2143,39.4824]},"properties":{"s":66.7,"pub":false}},{"type":"Feature","geometry":{"type":"Point","coordinates":[-104.2143,39.4882]},"properties":{"s":66.7,"pub":false}},{"type":"Feature","geometry":{"type":"Point","coordinates":[-104.2143,39.494]},"properties":{"s":66.7,"pub":false}},{"type":"Feature","geometry":{"type":"Point","coordinates":[-104.2143,39.4998]},"properties":{"s":66.7,"pub":false}},{"type":"Feature","geometry":{"type":"Point","coordinates":[-104.2068,39.3838]},"properties":{"s":66.7,"pub":false}},{"type":"Feature","geometry":{"type":"Point","coordinates":[-104.2068,39.3896]},"properties":{"s":66.7,"pub":false}},{"type":"Feature","geometry":{"type":"Point","coordinates":[-104.2068,39.3954]},"properties":{"s":66.7,"pub":false}},{"type":"Feature","geometry":{"type":"Point","coordinates":[-104.2068,39.4012]},"properties":{"s":66.7,"pub":false}},{"type":"Feature","geometry":{"type":"Point","coordinates":[-104.2068,39.407]},"properties":{"s":66.7,"pub":false}},{"type":"Feature","geometry":{"type":"Point","coordinates":[-104.2068,39.4128]},"properties":{"s":66.7,"pub":false}},{"type":"Feature","geometry":{"type":"Point","coordinates":[-104.2068,39.4186]},"properties":{"s":66.7,"pub":false}},{"type":"Feature","geometry":{"type":"Point","coordinates":[-104.2068,39.4244]},"properties":{"s":66.7,"pub":false}},{"type":"Feature","geometry":{"type":"Point","coordinates":[-104.2068,39.4302]},"properties":{"s":66.7,"pub":false}},{"type":"Feature","geometry":{"type":"Point","coordinates":[-104.2068,39.436]},"properties":{"s":66.7,"pub":false}},{"type":"Feature","geometry":{"type":"Point","coordinates":[-104.2068,39.4418]},"properties":{"s":66.7,"pub":false}},{"type":"Feature","geometry":{"type":"Point","coordinates":[-104.2068,39.4476]},"properties":{"s":66.7,"pub":false}},{"type":"Feature","geometry":{"type":"Point","coordinates":[-104.2068,39.4534]},"properties":{"s":66.7,"pub":false}},{"type":"Feature","geometry":{"type":"Point","coordinates":[-104.2068,39.4592]},"properties":{"s":66.7,"pub":false}},{"type":"Feature","geometry":{"type":"Point","coordinates":[-104.2068,39.465]},"properties":{"s":66.7,"pub":false}},{"type":"Feature","geometry":{"type":"Point","coordinates":[-104.2068,39.4708]},"properties":{"s":66.7,"pub":false}},{"type":"Feature","geometry":{"type":"Point","coordinates":[-104.2068,39.4766]},"properties":{"s":66.7,"pub":false}},{"type":"Feature","geometry":{"type":"Point","coordinates":[-104.2068,39.4824]},"properties":{"s":66.7,"pub":false}},{"type":"Feature","geometry":{"type":"Point","coordinates":[-104.2068,39.4882]},"properties":{"s":66.7,"pub":false}},{"type":"Feature","geometry":{"type":"Point","coordinates":[-104.2068,39.494]},"properties":{"s":66.7,"pub":false}},{"type":"Feature","geometry":{"type":"Point","coordinates":[-104.1993,39.3838]},"properties":{"s":66.7,"pub":false}},{"type":"Feature","geometry":{"type":"Point","coordinates":[-104.1993,39.3896]},"properties":{"s":66.7,"pub":false}},{"type":"Feature","geometry":{"type":"Point","coordinates":[-104.1993,39.3954]},"properties":{"s":66.7,"pub":false}},{"type":"Feature","geometry":{"type":"Point","coordinates":[-104.1993,39.4012]},"properties":{"s":66.7,"pub":false}},{"type":"Feature","geometry":{"type":"Point","coordinates":[-104.1993,39.407]},"properties":{"s":66.7,"pub":false}},{"type":"Feature","geometry":{"type":"Point","coordinates":[-104.1993,39.4128]},"properties":{"s":66.7,"pub":false}},{"type":"Feature","geometry":{"type":"Point","coordinates":[-104.1993,39.4186]},"properties":{"s":66.7,"pub":false}},{"type":"Feature","geometry":{"type":"Point","coordinates":[-104.1993,39.4244]},"properties":{"s":66.7,"pub":false}},{"type":"Feature","geometry":{"type":"Point","coordinates":[-104.1993,39.4302]},"properties":{"s":66.7,"pub":false}},{"type":"Feature","geometry":{"type":"Point","coordinates":[-104.1993,39.436]},"properties":{"s":66.7,"pub":false}},{"type":"Feature","geometry":{"type":"Point","coordinates":[-104.1993,39.4418]},"properties":{"s":66.7,"pub":false}},{"type":"Feature","geometry":{"type":"Point","coordinates":[-104.1993,39.4476]},"properties":{"s":66.7,"pub":false}},{"type":"Feature","geometry":{"type":"Point","coordinates":[-104.1993,39.4534]},"properties":{"s":66.7,"pub":false}},{"type":"Feature","geometry":{"type":"Point","coordinates":[-104.1993,39.4592]},"properties":{"s":66.7,"pub":false}},{"type":"Feature","geometry":{"type":"Point","coordinates":[-104.1993,39.465]},"properties":{"s":66.7,"pub":false}},{"type":"Feature","geometry":{"type":"Point","coordinates":[-104.1993,39.4708]},"properties":{"s":66.7,"pub":false}},{"type":"Feature","geometry":{"type":"Point","coordinates":[-104.1993,39.4766]},"properties":{"s":66.7,"pub":false}},{"type":"Feature","geometry":{"type":"Point","coordinates":[-104.1993,39.4824]},"properties":{"s":66.7,"pub":false}},{"type":"Feature","geometry":{"type":"Point","coordinates":[-104.1993,39.4882]},"properties":{"s":66.7,"pub":false}},{"type":"Feature","geometry":{"type":"Point","coordinates":[-104.1993,39.494]},"properties":{"s":66.7,"pub":false}},{"type":"Feature","geometry":{"type":"Point","coordinates":[-104.1918,39.3838]},"properties":{"s":66.7,"pub":false}},{"type":"Feature","geometry":{"type":"Point","coordinates":[-104.1918,39.3896]},"properties":{"s":66.7,"pub":true}},{"type":"Feature","geometry":{"type":"Point","coordinates":[-104.1918,39.3954]},"properties":{"s":66.7,"pub":false}},{"type":"Feature","geometry":{"type":"Point","coordinates":[-104.1918,39.4012]},"properties":{"s":66.7,"pub":false}},{"type":"Feature","geometry":{"type":"Point","coordinates":[-104.1918,39.407]},"properties":{"s":66.7,"pub":false}},{"type":"Feature","geometry":{"type":"Point","coordinates":[-104.1918,39.4128]},"properties":{"s":66.7,"pub":false}},{"type":"Feature","geometry":{"type":"Point","coordinates":[-104.1918,39.4186]},"properties":{"s":66.7,"pub":false}},{"type":"Feature","geometry":{"type":"Point","coordinates":[-104.1918,39.4244]},"properties":{"s":66.7,"pub":false}},{"type":"Feature","geometry":{"type":"Point","coordinates":[-104.1918,39.4302]},"properties":{"s":66.7,"pub":false}},{"type":"Feature","geometry":{"type":"Point","coordinates":[-104.1918,39.436]},"properties":{"s":66.7,"pub":false}},{"type":"Feature","geometry":{"type":"Point","coordinates":[-104.1918,39.4418]},"properties":{"s":66.7,"pub":false}},{"type":"Feature","geometry":{"type":"Point","coordinates":[-104.1918,39.4476]},"properties":{"s":66.7,"pub":false}},{"type":"Feature","geometry":{"type":"Point","coordinates":[-104.1918,39.4534]},"properties":{"s":66.7,"pub":false}},{"type":"Feature","geometry":{"type":"Point","coordinates":[-104.1918,39.4592]},"properties":{"s":66.7,"pub":false}},{"type":"Feature","geometry":{"type":"Point","coordinates":[-104.1918,39.465]},"properties":{"s":66.7,"pub":false}},{"type":"Feature","geometry":{"type":"Point","coordinates":[-104.1918,39.4766]},"properties":{"s":66.7,"pub":false}},{"type":"Feature","geometry":{"type":"Point","coordinates":[-104.1918,39.4824]},"properties":{"s":66.7,"pub":false}},{"type":"Feature","geometry":{"type":"Point","coordinates":[-104.1918,39.4882]},"properties":{"s":66.7,"pub":false}},{"type":"Feature","geometry":{"type":"Point","coordinates":[-104.1843,39.3838]},"properties":{"s":66.7,"pub":false}},{"type":"Feature","geometry":{"type":"Point","coordinates":[-104.1843,39.3896]},"properties":{"s":66.7,"pub":true}},{"type":"Feature","geometry":{"type":"Point","coordinates":[-104.1843,39.3954]},"properties":{"s":66.7,"pub":false}},{"type":"Feature","geometry":{"type":"Point","coordinates":[-104.1843,39.4012]},"properties":{"s":66.7,"pub":false}},{"type":"Feature","geometry":{"type":"Point","coordinates":[-104.1843,39.407]},"properties":{"s":66.7,"pub":true}},{"type":"Feature","geometry":{"type":"Point","coordinates":[-104.1843,39.4128]},"properties":{"s":66.7,"pub":true}},{"type":"Feature","geometry":{"type":"Point","coordinates":[-104.1843,39.4186]},"properties":{"s":66.7,"pub":true}},{"type":"Feature","geometry":{"type":"Point","coordinates":[-104.1843,39.4244]},"properties":{"s":66.7,"pub":false}},{"type":"Feature","geometry":{"type":"Point","coordinates":[-104.1843,39.4302]},"properties":{"s":66.7,"pub":false}},{"type":"Feature","geometry":{"type":"Point","coordinates":[-104.1843,39.436]},"properties":{"s":66.7,"pub":false}},{"type":"Feature","geometry":{"type":"Point","coordinates":[-104.1843,39.4418]},"properties":{"s":66.7,"pub":false}},{"type":"Feature","geometry":{"type":"Point","coordinates":[-104.1843,39.4476]},"properties":{"s":66.7,"pub":false}},{"type":"Feature","geometry":{"type":"Point","coordinates":[-104.1843,39.4534]},"properties":{"s":66.7,"pub":false}},{"type":"Feature","geometry":{"type":"Point","coordinates":[-104.1843,39.4592]},"properties":{"s":66.7,"pub":false}},{"type":"Feature","geometry":{"type":"Point","coordinates":[-104.1768,39.3896]},"properties":{"s":66.7,"pub":false}},{"type":"Feature","geometry":{"type":"Point","coordinates":[-104.1768,39.3954]},"properties":{"s":66.7,"pub":true}},{"type":"Feature","geometry":{"type":"Point","coordinates":[-104.1768,39.4012]},"properties":{"s":66.7,"pub":true}},{"type":"Feature","geometry":{"type":"Point","coordinates":[-104.1768,39.407]},"properties":{"s":66.7,"pub":false}},{"type":"Feature","geometry":{"type":"Point","coordinates":[-104.1768,39.4128]},"properties":{"s":66.7,"pub":false}},{"type":"Feature","geometry":{"type":"Point","coordinates":[-104.1768,39.4186]},"properties":{"s":66.7,"pub":false}},{"type":"Feature","geometry":{"type":"Point","coordinates":[-104.1768,39.4244]},"properties":{"s":66.7,"pub":false}},{"type":"Feature","geometry":{"type":"Point","coordinates":[-104.1768,39.4302]},"properties":{"s":66.7,"pub":false}},{"type":"Feature","geometry":{"type":"Point","coordinates":[-104.1768,39.436]},"properties":{"s":66.7,"pub":false}},{"type":"Feature","geometry":{"type":"Point","coordinates":[-104.1768,39.4418]},"properties":{"s":66.7,"pub":false}},{"type":"Feature","geometry":{"type":"Point","coordinates":[-104.1768,39.4476]},"properties":{"s":66.7,"pub":false}},{"type":"Feature","geometry":{"type":"Point","coordinates":[-104.1768,39.4534]},"properties":{"s":66.7,"pub":false}},{"type":"Feature","geometry":{"type":"Point","coordinates":[-104.1693,39.3896]},"properties":{"s":66.7,"pub":false}},{"type":"Feature","geometry":{"type":"Point","coordinates":[-104.1693,39.3954]},"properties":{"s":66.7,"pub":false}},{"type":"Feature","geometry":{"type":"Point","coordinates":[-104.1693,39.4012]},"properties":{"s":66.7,"pub":true}},{"type":"Feature","geometry":{"type":"Point","coordinates":[-104.1693,39.407]},"properties":{"s":66.7,"pub":false}},{"type":"Feature","geometry":{"type":"Point","coordinates":[-104.1693,39.4128]},"properties":{"s":66.7,"pub":false}},{"type":"Feature","geometry":{"type":"Point","coordinates":[-104.1693,39.4186]},"properties":{"s":66.7,"pub":false}},{"type":"Feature","geometry":{"type":"Point","coordinates":[-104.1693,39.4244]},"properties":{"s":66.7,"pub":false}},{"type":"Feature","geometry":{"type":"Point","coordinates":[-104.1693,39.4302]},"properties":{"s":66.7,"pub":false}},{"type":"Feature","geometry":{"type":"Point","coordinates":[-104.1693,39.436]},"properties":{"s":66.7,"pub":false}},{"type":"Feature","geometry":{"type":"Point","coordinates":[-104.1618,39.4244]},"properties":{"s":66.7,"pub":false}},{"type":"Feature","geometry":{"type":"Point","coordinates":[-104.1618,39.4302]},"properties":{"s":66.7,"pub":false}}]}