{"type":"FeatureCollection","features":[{"type":"Feature","geometry":{"type":"Point","coordinates":[-103.8245,39.4079]},"properties":{"s":94.7,"pub":true}},{"type":"Feature","geometry":{"type":"Point","coordinates":[-103.8245,39.4137]},"properties":{"s":94.7,"pub":true}},{"type":"Feature","geometry":{"type":"Point","coordinates":[-103.8245,39.4195]},"properties":{"s":94.7,"pub":true}},{"type":"Feature","geometry":{"type":"Point","coordinates":[-103.8245,39.4253]},"properties":{"s":94.7,"pub":true}},{"type":"Feature","geometry":{"type":"Point","coordinates":[-103.8245,39.4311]},"properties":{"s":94.7,"pub":true}},{"type":"Feature","geometry":{"type":"Point","coordinates":[-103.8245,39.4369]},"properties":{"s":94.7,"pub":true}},{"type":"Feature","geometry":{"type":"Point","coordinates":[-103.8245,39.4427]},"properties":{"s":94.7,"pub":true}},{"type":"Feature","geometry":{"type":"Point","coordinates":[-103.817,39.4021]},"properties":{"s":94.7,"pub":false}},{"type":"Feature","geometry":{"type":"Point","coordinates":[-103.817,39.4079]},"properties":{"s":94.7,"pub":true}},{"type":"Feature","geometry":{"type":"Point","coordinates":[-103.817,39.4137]},"properties":{"s":94.7,"pub":true}},{"type":"Feature","geometry":{"type":"Point","coordinates":[-103.817,39.4195]},"properties":{"s":94.7,"pub":true}},{"type":"Feature","geometry":{"type":"Point","coordinates":[-103.817,39.4253]},"properties":{"s":94.7,"pub":true}},{"type":"Feature","geometry":{"type":"Point","coordinates":[-103.817,39.4311]},"properties":{"s":94.7,"pub":true}},{"type":"Feature","geometry":{"type":"Point","coordinates":[-103.817,39.4369]},"properties":{"s":94.7,"pub":true}},{"type":"Feature","geometry":{"type":"Point","coordinates":[-103.817,39.4427]},"properties":{"s":94.7,"pub":true}},{"type":"Feature","geometry":{"type":"Point","coordinates":[-103.817,39.4485]},"properties":{"s":94.7,"pub":false}},{"type":"Feature","geometry":{"type":"Point","coordinates":[-103.817,39.4543]},"properties":{"s":94.7,"pub":false}},{"type":"Feature","geometry":{"type":"Point","coordinates":[-103.8095,39.3963]},"properties":{"s":94.7,"pub":false}},{"type":"Feature","geometry":{"type":"Point","coordinates":[-103.8095,39.4021]},"properties":{"s":94.7,"pub":false}},{"type":"Feature","geometry":{"type":"Point","coordinates":[-103.8095,39.4079]},"properties":{"s":94.7,"pub":true}},{"type":"Feature","geometry":{"type":"Point","coordinates":[-103.8095,39.4137]},"properties":{"s":94.7,"pub":true}},{"type":"Feature","geometry":{"type":"Point","coordinates":[-103.8095,39.4195]},"properties":{"s":94.7,"pub":true}},{"type":"Feature","geometry":{"type":"Point","coordinates":[-103.8095,39.4253]},"properties":{"s":94.7,"pub":true}},{"type":"Feature","geometry":{"type":"Point","coordinates":[-103.8095,39.4311]},"properties":{"s":94.7,"pub":true}},{"type":"Feature","geometry":{"type":"Point","coordinates":[-103.8095,39.4369]},"properties":{"s":94.7,"pub":true}},{"type":"Feature","geometry":{"type":"Point","coordinates":[-103.8095,39.4427]},"properties":{"s":94.7,"pub":true}},{"type":"Feature","geometry":{"type":"Point","coordinates":[-103.8095,39.4485]},"properties":{"s":94.7,"pub":false}},{"type":"Feature","geometry":{"type":"Point","coordinates":[-103.8095,39.4543]},"properties":{"s":94.7,"pub":false}},{"type":"Feature","geometry":{"type":"Point","coordinates":[-103.8095,39.4601]},"properties":{"s":94.7,"pub":false}},{"type":"Feature","geometry":{"type":"Point","coordinates":[-103.8095,39.4659]},"properties":{"s":94.7,"pub":false}},{"type":"Feature","geometry":{"type":"Point","coordinates":[-103.8095,39.4717]},"properties":{"s":94.7,"pub":false}},{"type":"Feature","geometry":{"type":"Point","coordinates":[-103.8095,39.4775]},"properties":{"s":94.7,"pub":false}},{"type":"Feature","geometry":{"type":"Point","coordinates":[-103.802,39.3905]},"properties":{"s":94.7,"pub":false}},{"type":"Feature","geometry":{"type":"Point","coordinates":[-103.802,39.3963]},"properties":{"s":94.7,"pub":false}},{"type":"Feature","geometry":{"type":"Point","coordinates":[-103.802,39.4021]},"properties":{"s":94.7,"pub":false}},{"type":"Feature","geometry":{"type":"Point","coordinates":[-103.802,39.4079]},"properties":{"s":94.7,"pub":false}},{"type":"Feature","geometry":{"type":"Point","coordinates":[-103.802,39.4137]},"properties":{"s":94.7,"pub":false}},{"type":"Feature","geometry":{"type":"Point","coordinates":[-103.802,39.4195]},"properties":{"s":94.7,"pub":false}},{"type":"Feature","geometry":{"type":"Point","coordinates":[-103.802,39.4253]},"properties":{"s":94.7,"pub":false}},{"type":"Feature","geometry":{"type":"Point","coordinates":[-103.802,39.4311]},"properties":{"s":94.7,"pub":false}},{"type":"Feature","geometry":{"type":"Point","coordinates":[-103.802,39.4369]},"properties":{"s":94.7,"pub":false}},{"type":"Feature","geometry":{"type":"Point","coordinates":[-103.802,39.4427]},"properties":{"s":94.7,"pub":false}},{"type":"Feature","geometry":{"type":"Point","coordinates":[-103.802,39.4485]},"properties":{"s":94.7,"pub":false}},{"type":"Feature","geometry":{"type":"Point","coordinates":[-103.802,39.4543]},"properties":{"s":94.7,"pub":false}},{"type":"Feature","geometry":{"type":"Point","coordinates":[-103.802,39.4601]},"properties":{"s":94.7,"pub":false}},{"type":"Feature","geometry":{"type":"Point","coordinates":[-103.802,39.4659]},"properties":{"s":94.7,"pub":false}},{"type":"Feature","geometry":{"type":"Point","coordinates":[-103.802,39.4717]},"properties":{"s":94.7,"pub":false}},{"type":"Feature","geometry":{"type":"Point","coordinates":[-103.802,39.4775]},"properties":{"s":94.7,"pub":false}},{"type":"Feature","geometry":{"type":"Point","coordinates":[-103.802,39.4833]},"properties":{"s":94.7,"pub":false}},{"type":"Feature","geometry":{"type":"Point","coordinates":[-103.7945,39.3905]},"properties":{"s":94.7,"pub":false}},{"type":"Feature","geometry":{"type":"Point","coordinates":[-103.7945,39.3963]},"properties":{"s":94.7,"pub":false}},{"type":"Feature","geometry":{"type":"Point","coordinates":[-103.7945,39.4021]},"properties":{"s":94.7,"pub":false}},{"type":"Feature","geometry":{"type":"Point","coordinates":[-103.7945,39.4079]},"properties":{"s":94.7,"pub":false}},{"type":"Feature","geometry":{"type":"Point","coordinates":[-103.7945,39.4137]},"properties":{"s":94.7,"pub":false}},{"type":"Feature","geometry":{"type":"Point","coordinates":[-103.7945,39.4195]},"properties":{"s":94.7,"pub":false}},{"type":"Feature","geometry":{"type":"Point","coordinates":[-103.7945,39.4253]},"properties":{"s":94.7,"pub":false}},{"type":"Feature","geometry":{"type":"Point","coordinates":[-103.7945,39.4311]},"properties":{"s":94.7,"pub":false}},{"type":"Feature","geometry":{"type":"Point","coordinates":[-103.7945,39.4369]},"properties":{"s":94.7,"pub":false}},{"type":"Feature","geometry":{"type":"Point","coordinates":[-103.7945,39.4427]},"properties":{"s":94.7,"pub":false}},{"type":"Feature","geometry":{"type":"Point","coordinates":[-103.7945,39.4485]},"properties":{"s":94.7,"pub":false}},{"type":"Feature","geometry":{"type":"Point","coordinates":[-103.7945,39.4543]},"properties":{"s":94.7,"pub":false}},{"type":"Feature","geometry":{"type":"Point","coordinates":[-103.7945,39.4601]},"properties":{"s":94.7,"pub":false}},{"type":"Feature","geometry":{"type":"Point","coordinates":[-103.7945,39.4659]},"properties":{"s":94.7,"pub":false}},{"type":"Feature","geometry":{"type":"Point","coordinates":[-103.7945,39.4717]},"properties":{"s":94.7,"pub":false}},{"type":"Feature","geometry":{"type":"Point","coordinates":[-103.7945,39.4775]},"properties":{"s":94.7,"pub":false}},{"type":"Feature","geometry":{"type":"Point","coordinates":[-103.7945,39.4833]},"properties":{"s":94.7,"pub":false}},{"type":"Feature","geometry":{"type":"Point","coordinates":[-103.7945,39.4891]},"properties":{"s":94.7,"pub":false}},{"type":"Feature","geometry":{"type":"Point","coordinates":[-103.7945,39.4949]},"properties":{"s":94.7,"pub":false}},{"type":"Feature","geometry":{"type":"Point","coordinates":[-103.787,39.3905]},"properties":{"s":94.7,"pub":false}},{"type":"Feature","geometry":{"type":"Point","coordinates":[-103.787,39.3963]},"properties":{"s":94.7,"pub":false}},{"type":"Feature","geometry":{"type":"Point","coordinates":[-103.787,39.4021]},"properties":{"s":94.7,"pub":false}},{"type":"Feature","geometry":{"type":"Point","coordinates":[-103.787,39.4079]},"properties":{"s":94.7,"pub":true}},{"type":"Feature","geometry":{"type":"Point","coordinates":[-103.787,39.4137]},"properties":{"s":94.7,"pub":true}},{"type":"Feature","geometry":{"type":"Point","coordinates":[-103.787,39.4195]},"properties":{"s":94.7,"pub":false}},{"type":"Feature","geometry":{"type":"Point","coordinates":[-103.787,39.4253]},"properties":{"s":94.7,"pub":false}},{"type":"Feature","geometry":{"type":"Point","coordinates":[-103.787,39.4311]},"properties":{"s":94.7,"pub":false}},{"type":"Feature","geometry":{"type":"Point","coordinates":[-103.787,39.4369]},"properties":{"s":94.7,"pub":true}},{"type":"Feature","geometry":{"type":"Point","coordinates":[-103.787,39.4427]},"properties":{"s":94.7,"pub":true}},{"type":"Feature","geometry":{"type":"Point","coordinates":[-103.787,39.4485]},"properties":{"s":94.7,"pub":false}},{"type":"Feature","geometry":{"type":"Point","coordinates":[-103.787,39.4543]},"properties":{"s":94.7,"pub":false}},{"type":"Feature","geometry":{"type":"Point","coordinates":[-103.787,39.4601]},"properties":{"s":94.7,"pub":false}},{"type":"Feature","geometry":{"type":"Point","coordinates":[-103.787,39.4659]},"properties":{"s":94.7,"pub":false}},{"type":"Feature","geometry":{"type":"Point","coordinates":[-103.787,39.4717]},"properties":{"s":94.7,"pub":false}},{"type":"Feature","geometry":{"type":"Point","coordinates":[-103.787,39.4775]},"properties":{"s":94.7,"pub":false}},{"type":"Feature","geometry":{"type":"Point","coordinates":[-103.787,39.4833]},"properties":{"s":94.7,"pub":false}},{"type":"Feature","geometry":{"type":"Point","coordinates":[-103.787,39.4891]},"properties":{"s":94.7,"pub":false}},{"type":"Feature","geometry":{"type":"Point","coordinates":[-103.787,39.4949]},"properties":{"s":94.7,"pub":false}},{"type":"Feature","geometry":{"type":"Point","coordinates":[-103.787,39.5007]},"properties":{"s":94.7,"pub":false}},{"type":"Feature","geometry":{"type":"Point","coordinates":[-103.787,39.5065]},"properties":{"s":94.7,"pub":false}},{"type":"Feature","geometry":{"type":"Point","coordinates":[-103.7795,39.3847]},"properties":{"s":94.7,"pub":false}},{"type":"Feature","geometry":{"type":"Point","coordinates":[-103.7795,39.3905]},"properties":{"s":94.7,"pub":false}},{"type":"Feature","geometry":{"type":"Point","coordinates":[-103.7795,39.3963]},"properties":{"s":94.7,"pub":false}},{"type":"Feature","geometry":{"type":"Point","coordinates":[-103.7795,39.4021]},"properties":{"s":94.7,"pub":false}},{"type":"Feature","geometry":{"type":"Point","coordinates":[-103.7795,39.4079]},"properties":{"s":94.7,"pub":true}},{"type":"Feature","geometry":{"type":"Point","coordinates":[-103.7795,39.4137]},"properties":{"s":94.7,"pub":true}},{"type":"Feature","geometry":{"type":"Point","coordinates":[-103.7795,39.4195]},"properties":{"s":94.7,"pub":false}},{"type":"Feature","geometry":{"type":"Point","coordinates":[-103.7795,39.4253]},"properties":{"s":94.7,"pub":false}},{"type":"Feature","geometry":{"type":"Point","coordinates":[-103.7795,39.4311]},"properties":{"s":94.7,"pub":false}},{"type":"Feature","geometry":{"type":"Point","coordinates":[-103.7795,39.4369]},"properties":{"s":94.7,"pub":true}},{"type":"Feature","geometry":{"type":"Point","coordinates":[-103.7795,39.4427]},"properties":{"s":94.7,"pub":true}},{"type":"Feature","geometry":{"type":"Point","coordinates":[-103.7795,39.4485]},"properties":{"s":94.7,"pub":false}},{"type":"Feature","geometry":{"type":"Point","coordinates":[-103.7795,39.4543]},"properties":{"s":94.7,"pub":false}},{"type":"Feature","geometry":{"type":"Point","coordinates":[-103.7795,39.4601]},"properties":{"s":94.7,"pub":false}},{"type":"Feature","geometry":{"type":"Point","coordinates":[-103.7795,39.4659]},"properties":{"s":94.7,"pub":false}},{"type":"Feature","geometry":{"type":"Point","coordinates":[-103.7795,39.4717]},"properties":{"s":94.7,"pub":false}},{"type":"Feature","geometry":{"type":"Point","coordinates":[-103.7795,39.4775]},"properties":{"s":94.7,"pub":false}},{"type":"Feature","geometry":{"type":"Point","coordinates":[-103.7795,39.4833]},"properties":{"s":94.7,"pub":false}},{"type":"Feature","geometry":{"type":"Point","coordinates":[-103.7795,39.4891]},"properties":{"s":94.7,"pub":false}},{"type":"Feature","geometry":{"type":"Point","coordinates":[-103.7795,39.4949]},"properties":{"s":94.7,"pub":false}},{"type":"Feature","geometry":{"type":"Point","coordinates":[-103.7795,39.5007]},"properties":{"s":94.7,"pub":false}},{"type":"Feature","geometry":{"type":"Point","coordinates":[-103.7795,39.5065]},"properties":{"s":100.0,"pub":false}},{"type":"Feature","geometry":{"type":"Point","coordinates":[-103.7795,39.5123]},"properties":{"s":100.0,"pub":false}},{"type":"Feature","geometry":{"type":"Point","coordinates":[-103.772,39.3847]},"properties":{"s":94.7,"pub":false}},{"type":"Feature","geometry":{"type":"Point","coordinates":[-103.772,39.3905]},"properties":{"s":94.7,"pub":false}},{"type":"Feature","geometry":{"type":"Point","coordinates":[-103.772,39.3963]},"properties":{"s":94.7,"pub":false}},{"type":"Feature","geometry":{"type":"Point","coordinates":[-103.772,39.4021]},"properties":{"s":94.7,"pub":false}},{"type":"Feature","geometry":{"type":"Point","coordinates":[-103.772,39.4079]},"properties":{"s":94.7,"pub":true}},{"type":"Feature","geometry":{"type":"Point","coordinates":[-103.772,39.4137]},"properties":{"s":94.7,"pub":true}},{"type":"Feature","geometry":{"type":"Point","coordinates":[-103.772,39.4195]},"properties":{"s":94.7,"pub":false}},{"type":"Feature","geometry":{"type":"Point","coordinates":[-103.772,39.4253]},"properties":{"s":94.7,"pub":false}},{"type":"Feature","geometry":{"type":"Point","coordinates":[-103.772,39.4311]},"properties":{"s":94.7,"pub":false}},{"type":"Feature","geometry":{"type":"Point","coordinates":[-103.772,39.4369]},"properties":{"s":94.7,"pub":true}},{"type":"Feature","geometry":{"type":"Point","coordinates":[-103.772,39.4427]},"properties":{"s":94.7,"pub":true}},{"type":"Feature","geometry":{"type":"Point","coordinates":[-103.772,39.4485]},"properties":{"s":94.7,"pub":false}},{"type":"Feature","geometry":{"type":"Point","coordinates":[-103.772,39.4543]},"properties":{"s":94.7,"pub":false}},{"type":"Feature","geometry":{"type":"Point","coordinates":[-103.772,39.4601]},"properties":{"s":94.7,"pub":false}},{"type":"Feature","geometry":{"type":"Point","coordinates":[-103.772,39.4659]},"properties":{"s":94.7,"pub":false}},{"type":"Feature","geometry":{"type":"Point","coordinates":[-103.772,39.4717]},"properties":{"s":94.7,"pub":false}},{"type":"Feature","geometry":{"type":"Point","coordinates":[-103.772,39.4775]},"properties":{"s":94.7,"pub":false}},{"type":"Feature","geometry":{"type":"Point","coordinates":[-103.772,39.4833]},"properties":{"s":94.7,"pub":false}},{"type":"Feature","geometry":{"type":"Point","coordinates":[-103.772,39.4891]},"properties":{"s":94.7,"pub":false}},{"type":"Feature","geometry":{"type":"Point","coordinates":[-103.772,39.4949]},"properties":{"s":100.0,"pub":false}},{"type":"Feature","geometry":{"type":"Point","coordinates":[-103.772,39.5007]},"properties":{"s":100.0,"pub":false}},{"type":"Feature","geometry":{"type":"Point","coordinates":[-103.772,39.5065]},"properties":{"s":100.0,"pub":false}},{"type":"Feature","geometry":{"type":"Point","coordinates":[-103.772,39.5123]},"properties":{"s":100.0,"pub":false}},{"type":"Feature","geometry":{"type":"Point","coordinates":[-103.772,39.5181]},"properties":{"s":94.7,"pub":false}},{"type":"Feature","geometry":{"type":"Point","coordinates":[-103.7645,39.3847]},"properties":{"s":94.7,"pub":false}},{"type":"Feature","geometry":{"type":"Point","coordinates":[-103.7645,39.3905]},"properties":{"s":94.7,"pub":false}},{"type":"Feature","geometry":{"type":"Point","coordinates":[-103.7645,39.3963]},"properties":{"s":94.7,"pub":false}},{"type":"Feature","geometry":{"type":"Point","coordinates":[-103.7645,39.4021]},"properties":{"s":94.7,"pub":false}},{"type":"Feature","geometry":{"type":"Point","coordinates":[-103.7645,39.4079]},"properties":{"s":94.7,"pub":false}},{"type":"Feature","geometry":{"type":"Point","coordinates":[-103.7645,39.4137]},"properties":{"s":94.7,"pub":false}},{"type":"Feature","geometry":{"type":"Point","coordinates":[-103.7645,39.4195]},"properties":{"s":94.7,"pub":false}},{"type":"Feature","geometry":{"type":"Point","coordinates":[-103.7645,39.4253]},"properties":{"s":94.7,"pub":false}},{"type":"Feature","geometry":{"type":"Point","coordinates":[-103.7645,39.4311]},"properties":{"s":94.7,"pub":false}},{"type":"Feature","geometry":{"type":"Point","coordinates":[-103.7645,39.4369]},"properties":{"s":94.7,"pub":false}},{"type":"Feature","geometry":{"type":"Point","coordinates":[-103.7645,39.4427]},"properties":{"s":94.7,"pub":false}},{"type":"Feature","geometry":{"type":"Point","coordinates":[-103.7645,39.4485]},"properties":{"s":94.7,"pub":false}},{"type":"Feature","geometry":{"type":"Point","coordinates":[-103.7645,39.4543]},"properties":{"s":94.7,"pub":false}},{"type":"Feature","geometry":{"type":"Point","coordinates":[-103.7645,39.4601]},"properties":{"s":94.7,"pub":false}},{"type":"Feature","geometry":{"type":"Point","coordinates":[-103.7645,39.4659]},"properties":{"s":94.7,"pub":false}},{"type":"Feature","geometry":{"type":"Point","coordinates":[-103.7645,39.4717]},"properties":{"s":94.7,"pub":false}},{"type":"Feature","geometry":{"type":"Point","coordinates":[-103.7645,39.4775]},"properties":{"s":94.7,"pub":false}},{"type":"Feature","geometry":{"type":"Point","coordinates":[-103.7645,39.4833]},"properties":{"s":94.7,"pub":false}},{"type":"Feature","geometry":{"type":"Point","coordinates":[-103.7645,39.4891]},"properties":{"s":100.0,"pub":false}},{"type":"Feature","geometry":{"type":"Point","coordinates":[-103.7645,39.4949]},"properties":{"s":100.0,"pub":false}},{"type":"Feature","geometry":{"type":"Point","coordinates":[-103.7645,39.5007]},"properties":{"s":100.0,"pub":false}},{"type":"Feature","geometry":{"type":"Point","coordinates":[-103.7645,39.5065]},"properties":{"s":100.0,"pub":false}},{"type":"Feature","geometry":{"type":"Point","coordinates":[-103.7645,39.5123]},"properties":{"s":100.0,"pub":false}},{"type":"Feature","geometry":{"type":"Point","coordinates":[-103.7645,39.5181]},"properties":{"s":94.7,"pub":false}},{"type":"Feature","geometry":{"type":"Point","coordinates":[-103.757,39.3905]},"properties":{"s":94.7,"pub":false}},{"type":"Feature","geometry":{"type":"Point","coordinates":[-103.757,39.3963]},"properties":{"s":94.7,"pub":false}},{"type":"Feature","geometry":{"type":"Point","coordinates":[-103.757,39.4021]},"properties":{"s":94.7,"pub":false}},{"type":"Feature","geometry":{"type":"Point","coordinates":[-103.757,39.4079]},"properties":{"s":94.7,"pub":false}},{"type":"Feature","geometry":{"type":"Point","coordinates":[-103.757,39.4137]},"properties":{"s":94.7,"pub":false}},{"type":"Feature","geometry":{"type":"Point","coordinates":[-103.757,39.4195]},"properties":{"s":94.7,"pub":false}},{"type":"Feature","geometry":{"type":"Point","coordinates":[-103.757,39.4253]},"properties":{"s":94.7,"pub":false}},{"type":"Feature","geometry":{"type":"Point","coordinates":[-103.757,39.4311]},"properties":{"s":94.7,"pub":false}},{"type":"Feature","geometry":{"type":"Point","coordinates":[-103.757,39.4369]},"properties":{"s":94.7,"pub":false}},{"type":"Feature","geometry":{"type":"Point","coordinates":[-103.757,39.4427]},"properties":{"s":94.7,"pub":false}},{"type":"Feature","geometry":{"type":"Point","coordinates":[-103.757,39.4485]},"properties":{"s":94.7,"pub":false}},{"type":"Feature","geometry":{"type":"Point","coordinates":[-103.757,39.4543]},"properties":{"s":94.7,"pub":false}},{"type":"Feature","geometry":{"type":"Point","coordinates":[-103.757,39.4601]},"properties":{"s":94.7,"pub":false}},{"type":"Feature","geometry":{"type":"Point","coordinates":[-103.757,39.4659]},"properties":{"s":94.7,"pub":false}},{"type":"Feature","geometry":{"type":"Point","coordinates":[-103.757,39.4717]},"properties":{"s":94.7,"pub":false}},{"type":"Feature","geometry":{"type":"Point","coordinates":[-103.757,39.4775]},"properties":{"s":94.7,"pub":false}},{"type":"Feature","geometry":{"type":"Point","coordinates":[-103.757,39.4833]},"properties":{"s":100.0,"pub":false}},{"type":"Feature","geometry":{"type":"Point","coordinates":[-103.757,39.4891]},"properties":{"s":100.0,"pub":false}},{"type":"Feature","geometry":{"type":"Point","coordinates":[-103.757,39.4949]},"properties":{"s":100.0,"pub":false}},{"type":"Feature","geometry":{"type":"Point","coordinates":[-103.757,39.5007]},"properties":{"s":100.0,"pub":false}},{"type":"Feature","geometry":{"type":"Point","coordinates":[-103.757,39.5065]},"properties":{"s":100.0,"pub":false}},{"type":"Feature","geometry":{"type":"Point","coordinates":[-103.757,39.5123]},"properties":{"s":100.0,"pub":false}},{"type":"Feature","geometry":{"type":"Point","coordinates":[-103.7495,39.3905]},"properties":{"s":94.7,"pub":false}},{"type":"Feature","geometry":{"type":"Point","coordinates":[-103.7495,39.3963]},"properties":{"s":94.7,"pub":false}},{"type":"Feature","geometry":{"type":"Point","coordinates":[-103.7495,39.4021]},"properties":{"s":94.7,"pub":false}},{"type":"Feature","geometry":{"type":"Point","coordinates":[-103.7495,39.4079]},"properties":{"s":94.7,"pub":true}},{"type":"Feature","geometry":{"type":"Point","coordinates":[-103.7495,39.4137]},"properties":{"s":94.7,"pub":true}},{"type":"Feature","geometry":{"type":"Point","coordinates":[-103.7495,39.4195]},"properties":{"s":94.7,"pub":false}},{"type":"Feature","geometry":{"type":"Point","coordinates":[-103.7495,39.4253]},"properties":{"s":94.7,"pub":false}},{"type":"Feature","geometry":{"type":"Point","coordinates":[-103.7495,39.4311]},"properties":{"s":94.7,"pub":false}},{"type":"Feature","geometry":{"type":"Point","coordinates":[-103.7495,39.4369]},"properties":{"s":94.7,"pub":true}},{"type":"Feature","geometry":{"type":"Point","coordinates":[-103.7495,39.4427]},"properties":{"s":94.7,"pub":true}},{"type":"Feature","geometry":{"type":"Point","coordinates":[-103.7495,39.4485]},"properties":{"s":94.7,"pub":false}},{"type":"Feature","geometry":{"type":"Point","coordinates":[-103.7495,39.4543]},"properties":{"s":94.7,"pub":false}},{"type":"Feature","geometry":{"type":"Point","coordinates":[-103.7495,39.4601]},"properties":{"s":94.7,"pub":false}},{"type":"Feature","geometry":{"type":"Point","coordinates":[-103.7495,39.4659]},"properties":{"s":94.7,"pub":false}},{"type":"Feature","geometry":{"type":"Point","coordinates":[-103.7495,39.4717]},"properties":{"s":94.7,"pub":false}},{"type":"Feature","geometry":{"type":"Point","coordinates":[-103.7495,39.4775]},"properties":{"s":94.7,"pub":false}},{"type":"Feature","geometry":{"type":"Point","coordinates":[-103.7495,39.4833]},"properties":{"s":94.7,"pub":false}},{"type":"Feature","geometry":{"type":"Point","coordinates":[-103.7495,39.4891]},"properties":{"s":100.0,"pub":false}},{"type":"Feature","geometry":{"type":"Point","coordinates":[-103.7495,39.4949]},"properties":{"s":100.0,"pub":false}},{"type":"Feature","geometry":{"type":"Point","coordinates":[-103.7495,39.5007]},"properties":{"s":100.0,"pub":false}},{"type":"Feature","geometry":{"type":"Point","coordinates":[-103.7495,39.5065]},"properties":{"s":100.0,"pub":false}},{"type":"Feature","geometry":{"type":"Point","coordinates":[-103.7495,39.5123]},"properties":{"s":94.7,"pub":false}},{"type":"Feature","geometry":{"type":"Point","coordinates":[-103.742,39.3905]},"properties":{"s":94.7,"pub":false}},{"type":"Feature","geometry":{"type":"Point","coordinates":[-103.742,39.3963]},"properties":{"s":94.7,"pub":false}},{"type":"Feature","geometry":{"type":"Point","coordinates":[-103.742,39.4021]},"properties":{"s":94.7,"pub":false}},{"type":"Feature","geometry":{"type":"Point","coordinates":[-103.742,39.4079]},"properties":{"s":94.7,"pub":true}},{"type":"Feature","geometry":{"type":"Point","coordinates":[-103.742,39.4137]},"properties":{"s":94.7,"pub":true}},{"type":"Feature","geometry":{"type":"Point","coordinates":[-103.742,39.4195]},"properties":{"s":94.7,"pub":false}},{"type":"Feature","geometry":{"type":"Point","coordinates":[-103.742,39.4253]},"properties":{"s":94.7,"pub":false}},{"type":"Feature","geometry":{"type":"Point","coordinates":[-103.742,39.4311]},"properties":{"s":94.7,"pub":false}},{"type":"Feature","geometry":{"type":"Point","coordinates":[-103.742,39.4369]},"properties":{"s":94.7,"pub":true}},{"type":"Feature","geometry":{"type":"Point","coordinates":[-103.742,39.4427]},"properties":{"s":94.7,"pub":true}},{"type":"Feature","geometry":{"type":"Point","coordinates":[-103.742,39.4485]},"properties":{"s":94.7,"pub":false}},{"type":"Feature","geometry":{"type":"Point","coordinates":[-103.742,39.4543]},"properties":{"s":94.7,"pub":false}},{"type":"Feature","geometry":{"type":"Point","coordinates":[-103.742,39.4601]},"properties":{"s":94.7,"pub":false}},{"type":"Feature","geometry":{"type":"Point","coordinates":[-103.742,39.4659]},"properties":{"s":94.7,"pub":true}},{"type":"Feature","geometry":{"type":"Point","coordinates":[-103.742,39.4717]},"properties":{"s":94.7,"pub":true}},{"type":"Feature","geometry":{"type":"Point","coordinates":[-103.742,39.4775]},"properties":{"s":94.7,"pub":false}},{"type":"Feature","geometry":{"type":"Point","coordinates":[-103.742,39.4833]},"properties":{"s":94.7,"pub":false}},{"type":"Feature","geometry":{"type":"Point","coordinates":[-103.742,39.4891]},"properties":{"s":100.0,"pub":false}},{"type":"Feature","geometry":{"type":"Point","coordinates":[-103.742,39.4949]},"properties":{"s":100.0,"pub":false}},{"type":"Feature","geometry":{"type":"Point","coordinates":[-103.742,39.5007]},"properties":{"s":100.0,"pub":false}},{"type":"Feature","geometry":{"type":"Point","coordinates":[-103.742,39.5065]},"properties":{"s":100.0,"pub":false}},{"type":"Feature","geometry":{"type":"Point","coordinates":[-103.7345,39.3905]},"properties":{"s":94.7,"pub":false}},{"type":"Feature","geometry":{"type":"Point","coordinates":[-103.7345,39.3963]},"properties":{"s":94.7,"pub":false}},{"type":"Feature","geometry":{"type":"Point","coordinates":[-103.7345,39.4021]},"properties":{"s":94.7,"pub":false}},{"type":"Feature","geometry":{"type":"Point","coordinates":[-103.7345,39.4079]},"properties":{"s":94.7,"pub":true}},{"type":"Feature","geometry":{"type":"Point","coordinates":[-103.7345,39.4137]},"properties":{"s":94.7,"pub":true}},{"type":"Feature","geometry":{"type":"Point","coordinates":[-103.7345,39.4195]},"properties":{"s":94.7,"pub":false}},{"type":"Feature","geometry":{"type":"Point","coordinates":[-103.7345,39.4253]},"properties":{"s":94.7,"pub":false}},{"type":"Feature","geometry":{"type":"Point","coordinates":[-103.7345,39.4311]},"properties":{"s":94.7,"pub":false}},{"type":"Feature","geometry":{"type":"Point","coordinates":[-103.7345,39.4369]},"properties":{"s":94.7,"pub":true}},{"type":"Feature","geometry":{"type":"Point","coordinates":[-103.7345,39.4427]},"properties":{"s":94.7,"pub":true}},{"type":"Feature","geometry":{"type":"Point","coordinates":[-103.7345,39.4485]},"properties":{"s":94.7,"pub":false}},{"type":"Feature","geometry":{"type":"Point","coordinates":[-103.7345,39.4543]},"properties":{"s":94.7,"pub":false}},{"type":"Feature","geometry":{"type":"Point","coordinates":[-103.7345,39.4601]},"properties":{"s":94.7,"pub":false}},{"type":"Feature","geometry":{"type":"Point","coordinates":[-103.7345,39.4659]},"properties":{"s":94.7,"pub":true}},{"type":"Feature","geometry":{"type":"Point","coordinates":[-103.7345,39.4717]},"properties":{"s":94.7,"pub":true}},{"type":"Feature","geometry":{"type":"Point","coordinates":[-103.7345,39.4775]},"properties":{"s":94.7,"pub":false}},{"type":"Feature","geometry":{"type":"Point","coordinates":[-103.7345,39.4833]},"properties":{"s":94.7,"pub":false}},{"type":"Feature","geometry":{"type":"Point","coordinates":[-103.7345,39.4891]},"properties":{"s":100.0,"pub":false}},{"type":"Feature","geometry":{"type":"Point","coordinates":[-103.7345,39.4949]},"properties":{"s":100.0,"pub":false}},{"type":"Feature","geometry":{"type":"Point","coordinates":[-103.7345,39.5007]},"properties":{"s":100.0,"pub":false}},{"type":"Feature","geometry":{"type":"Point","coordinates":[-103.727,39.3963]},"properties":{"s":94.7,"pub":false}},{"type":"Feature","geometry":{"type":"Point","coordinates":[-103.727,39.4021]},"properties":{"s":94.7,"pub":true}},{"type":"Feature","geometry":{"type":"Point","coordinates":[-103.727,39.4079]},"properties":{"s":94.7,"pub":false}},{"type":"Feature","geometry":{"type":"Point","coordinates":[-103.727,39.4137]},"properties":{"s":94.7,"pub":false}},{"type":"Feature","geometry":{"type":"Point","coordinates":[-103.727,39.4195]},"properties":{"s":94.7,"pub":false}},{"type":"Feature","geometry":{"type":"Point","coordinates":[-103.727,39.4253]},"properties":{"s":94.7,"pub":true}},{"type":"Feature","geometry":{"type":"Point","coordinates":[-103.727,39.4311]},"properties":{"s":94.7,"pub":true}},{"type":"Feature","geometry":{"type":"Point","coordinates":[-103.727,39.4369]},"properties":{"s":94.7,"pub":false}},{"type":"Feature","geometry":{"type":"Point","coordinates":[-103.727,39.4427]},"properties":{"s":94.7,"pub":false}},{"type":"Feature","geometry":{"type":"Point","coordinates":[-103.727,39.4485]},"properties":{"s":94.7,"pub":true}},{"type":"Feature","geometry":{"type":"Point","coordinates":[-103.727,39.4543]},"properties":{"s":94.7,"pub":true}},{"type":"Feature","geometry":{"type":"Point","coordinates":[-103.727,39.4601]},"properties":{"s":94.7,"pub":true}},{"type":"Feature","geometry":{"type":"Point","coordinates":[-103.727,39.4659]},"properties":{"s":94.7,"pub":false}},{"type":"Feature","geometry":{"type":"Point","coordinates":[-103.727,39.4717]},"properties":{"s":94.7,"pub":false}},{"type":"Feature","geometry":{"type":"Point","coordinates":[-103.727,39.4775]},"properties":{"s":94.7,"pub":false}},{"type":"Feature","geometry":{"type":"Point","coordinates":[-103.727,39.4833]},"properties":{"s":94.7,"pub":false}},{"type":"Feature","geometry":{"type":"Point","coordinates":[-103.727,39.4891]},"properties":{"s":100.0,"pub":false}},{"type":"Feature","geometry":{"type":"Point","coordinates":[-103.727,39.4949]},"properties":{"s":100.0,"pub":false}},{"type":"Feature","geometry":{"type":"Point","coordinates":[-103.7195,39.4021]},"properties":{"s":94.7,"pub":true}},{"type":"Feature","geometry":{"type":"Point","coordinates":[-103.7195,39.4079]},"properties":{"s":94.7,"pub":false}},{"type":"Feature","geometry":{"type":"Point","coordinates":[-103.7195,39.4137]},"properties":{"s":94.7,"pub":false}},{"type":"Feature","geometry":{"type":"Point","coordinates":[-103.7195,39.4195]},"properties":{"s":94.7,"pub":false}},{"type":"Feature","geometry":{"type":"Point","coordinates":[-103.7195,39.4253]},"properties":{"s":94.7,"pub":true}},{"type":"Feature","geometry":{"type":"Point","coordinates":[-103.7195,39.4311]},"properties":{"s":94.7,"pub":false}},{"type":"Feature","geometry":{"type":"Point","coordinates":[-103.7195,39.4369]},"properties":{"s":94.7,"pub":false}},{"type":"Feature","geometry":{"type":"Point","coordinates":[-103.7195,39.4427]},"properties":{"s":94.7,"pub":false}},{"type":"Feature","geometry":{"type":"Point","coordinates":[-103.7195,39.4485]},"properties":{"s":94.7,"pub":false}},{"type":"Feature","geometry":{"type":"Point","coordinates":[-103.7195,39.4543]},"properties":{"s":94.7,"pub":false}},{"type":"Feature","geometry":{"type":"Point","coordinates":[-103.7195,39.4601]},"properties":{"s":94.7,"pub":false}},{"type":"Feature","geometry":{"type":"Point","coordinates":[-103.7195,39.4659]},"properties":{"s":94.7,"pub":false}},{"type":"Feature","geometry":{"type":"Point","coordinates":[-103.7195,39.4717]},"properties":{"s":94.7,"pub":false}},{"type":"Feature","geometry":{"type":"Point","coordinates":[-103.7195,39.4775]},"properties":{"s":94.7,"pub":false}},{"type":"Feature","geometry":{"type":"Point","coordinates":[-103.7195,39.4833]},"properties":{"s":94.7,"pub":false}},{"type":"Feature","geometry":{"type":"Point","coordinates":[-103.7195,39.4891]},"properties":{"s":94.7,"pub":false}}]}