{"type":"FeatureCollection","features":[{"type":"Feature","geometry":{"type":"Point","coordinates":[-104.8583,39.0958]},"properties":{"s":44.4,"pub":false}},{"type":"Feature","geometry":{"type":"Point","coordinates":[-104.8583,39.1016]},"properties":{"s":44.4,"pub":false}},{"type":"Feature","geometry":{"type":"Point","coordinates":[-104.8583,39.1074]},"properties":{"s":44.4,"pub":false}},{"type":"Feature","geometry":{"type":"Point","coordinates":[-104.8583,39.1132]},"properties":{"s":44.4,"pub":false}},{"type":"Feature","geometry":{"type":"Point","coordinates":[-104.8583,39.119]},"properties":{"s":44.4,"pub":false}},{"type":"Feature","geometry":{"type":"Point","coordinates":[-104.8583,39.1248]},"properties":{"s":44.4,"pub":false}},{"type":"Feature","geometry":{"type":"Point","coordinates":[-104.8508,39.0958]},"properties":{"s":44.4,"pub":false}},{"type":"Feature","geometry":{"type":"Point","coordinates":[-104.8508,39.1016]},"properties":{"s":44.4,"pub":false}},{"type":"Feature","geometry":{"type":"Point","coordinates":[-104.8508,39.1074]},"properties":{"s":44.4,"pub":false}},{"type":"Feature","geometry":{"type":"Point","coordinates":[-104.8508,39.1132]},"properties":{"s":44.4,"pub":false}},{"type":"Feature","geometry":{"type":"Point","coordinates":[-104.8508,39.119]},"properties":{"s":44.4,"pub":false}},{"type":"Feature","geometry":{"type":"Point","coordinates":[-104.8508,39.1248]},"properties":{"s":44.4,"pub":false}},{"type":"Feature","geometry":{"type":"Point","coordinates":[-104.8433,39.0958]},"properties":{"s":44.4,"pub":false}},{"type":"Feature","geometry":{"type":"Point","coordinates":[-104.8433,39.1016]},"properties":{"s":44.4,"pub":false}},{"type":"Feature","geometry":{"type":"Point","coordinates":[-104.8433,39.1074]},"properties":{"s":44.4,"pub":false}},{"type":"Feature","geometry":{"type":"Point","coordinates":[-104.8433,39.1132]},"properties":{"s":44.4,"pub":false}},{"type":"Feature","geometry":{"type":"Point","coordinates":[-104.8433,39.119]},"properties":{"s":44.4,"pub":false}},{"type":"Feature","geometry":{"type":"Point","coordinates":[-104.8433,39.1248]},"properties":{"s":44.4,"pub":false}},{"type":"Feature","geometry":{"type":"Point","coordinates":[-104.8358,39.0842]},"properties":{"s":44.4,"pub":false}},{"type":"Feature","geometry":{"type":"Point","coordinates":[-104.8358,39.09]},"properties":{"s":44.4,"pub":false}},{"type":"Feature","geometry":{"type":"Point","coordinates":[-104.8358,39.0958]},"properties":{"s":44.4,"pub":false}},{"type":"Feature","geometry":{"type":"Point","coordinates":[-104.8358,39.1016]},"properties":{"s":44.4,"pub":false}},{"type":"Feature","geometry":{"type":"Point","coordinates":[-104.8358,39.1074]},"properties":{"s":44.4,"pub":false}},{"type":"Feature","geometry":{"type":"Point","coordinates":[-104.8358,39.1132]},"properties":{"s":44.4,"pub":false}},{"type":"Feature","geometry":{"type":"Point","coordinates":[-104.8358,39.119]},"properties":{"s":44.4,"pub":false}},{"type":"Feature","geometry":{"type":"Point","coordinates":[-104.8358,39.1248]},"properties":{"s":44.4,"pub":false}},{"type":"Feature","geometry":{"type":"Point","coordinates":[-104.8283,39.0842]},"properties":{"s":44.4,"pub":false}},{"type":"Feature","geometry":{"type":"Point","coordinates":[-104.8283,39.09]},"properties":{"s":44.4,"pub":false}},{"type":"Feature","geometry":{"type":"Point","coordinates":[-104.8283,39.0958]},"properties":{"s":44.4,"pub":false}},{"type":"Feature","geometry":{"type":"Point","coordinates":[-104.8283,39.1016]},"properties":{"s":44.4,"pub":false}},{"type":"Feature","geometry":{"type":"Point","coordinates":[-104.8283,39.1074]},"properties":{"s":44.4,"pub":false}},{"type":"Feature","geometry":{"type":"Point","coordinates":[-104.8283,39.1132]},"properties":{"s":44.4,"pub":false}},{"type":"Feature","geometry":{"type":"Point","coordinates":[-104.8283,39.119]},"properties":{"s":44.4,"pub":false}},{"type":"Feature","geometry":{"type":"Point","coordinates":[-104.8283,39.1248]},"properties":{"s":44.4,"pub":false}},{"type":"Feature","geometry":{"type":"Point","coordinates":[-104.8208,39.0842]},"properties":{"s":44.4,"pub":false}},{"type":"Feature","geometry":{"type":"Point","coordinates":[-104.8208,39.09]},"properties":{"s":44.4,"pub":false}},{"type":"Feature","geometry":{"type":"Point","coordinates":[-104.8208,39.0958]},"properties":{"s":44.4,"pub":false}},{"type":"Feature","geometry":{"type":"Point","coordinates":[-104.8208,39.1016]},"properties":{"s":44.4,"pub":false}},{"type":"Feature","geometry":{"type":"Point","coordinates":[-104.8208,39.1074]},"properties":{"s":44.4,"pub":false}},{"type":"Feature","geometry":{"type":"Point","coordinates":[-104.8208,39.1132]},"properties":{"s":44.4,"pub":false}},{"type":"Feature","geometry":{"type":"Point","coordinates":[-104.8208,39.119]},"properties":{"s":44.4,"pub":false}},{"type":"Feature","geometry":{"type":"Point","coordinates":[-104.8208,39.1248]},"properties":{"s":44.4,"pub":false}},{"type":"Feature","geometry":{"type":"Point","coordinates":[-104.8133,39.0842]},"properties":{"s":44.4,"pub":false}},{"type":"Feature","geometry":{"type":"Point","coordinates":[-104.8133,39.09]},"properties":{"s":44.4,"pub":false}},{"type":"Feature","geometry":{"type":"Point","coordinates":[-104.8133,39.0958]},"properties":{"s":44.4,"pub":false}},{"type":"Feature","geometry":{"type":"Point","coordinates":[-104.8133,39.1016]},"properties":{"s":44.4,"pub":false}},{"type":"Feature","geometry":{"type":"Point","coordinates":[-104.8133,39.1074]},"properties":{"s":44.4,"pub":false}},{"type":"Feature","geometry":{"type":"Point","coordinates":[-104.8133,39.1132]},"properties":{"s":44.4,"pub":false}},{"type":"Feature","geometry":{"type":"Point","coordinates":[-104.8133,39.119]},"properties":{"s":44.4,"pub":false}},{"type":"Feature","geometry":{"type":"Point","coordinates":[-104.8133,39.1248]},"properties":{"s":44.4,"pub":false}},{"type":"Feature","geometry":{"type":"Point","coordinates":[-104.8058,39.0842]},"properties":{"s":44.4,"pub":false}},{"type":"Feature","geometry":{"type":"Point","coordinates":[-104.8058,39.09]},"properties":{"s":44.4,"pub":false}},{"type":"Feature","geometry":{"type":"Point","coordinates":[-104.8058,39.0958]},"properties":{"s":44.4,"pub":false}},{"type":"Feature","geometry":{"type":"Point","coordinates":[-104.8058,39.1016]},"properties":{"s":44.4,"pub":false}},{"type":"Feature","geometry":{"type":"Point","coordinates":[-104.8058,39.1074]},"properties":{"s":44.4,"pub":false}},{"type":"Feature","geometry":{"type":"Point","coordinates":[-104.8058,39.1132]},"properties":{"s":44.4,"pub":false}},{"type":"Feature","geometry":{"type":"Point","coordinates":[-104.8058,39.119]},"properties":{"s":44.4,"pub":false}},{"type":"Feature","geometry":{"type":"Point","coordinates":[-104.8058,39.1248]},"properties":{"s":44.4,"pub":false}},{"type":"Feature","geometry":{"type":"Point","coordinates":[-104.7983,39.0784]},"properties":{"s":44.4,"pub":false}},{"type":"Feature","geometry":{"type":"Point","coordinates":[-104.7983,39.0842]},"properties":{"s":44.4,"pub":false}},{"type":"Feature","geometry":{"type":"Point","coordinates":[-104.7983,39.09]},"properties":{"s":44.4,"pub":false}},{"type":"Feature","geometry":{"type":"Point","coordinates":[-104.7983,39.0958]},"properties":{"s":44.4,"pub":false}},{"type":"Feature","geometry":{"type":"Point","coordinates":[-104.7983,39.1016]},"properties":{"s":44.4,"pub":false}},{"type":"Feature","geometry":{"type":"Point","coordinates":[-104.7983,39.1074]},"properties":{"s":44.4,"pub":false}},{"type":"Feature","geometry":{"type":"Point","coordinates":[-104.7983,39.1132]},"properties":{"s":44.4,"pub":false}},{"type":"Feature","geometry":{"type":"Point","coordinates":[-104.7983,39.119]},"properties":{"s":44.4,"pub":false}},{"type":"Feature","geometry":{"type":"Point","coordinates":[-104.7983,39.1248]},"properties":{"s":44.4,"pub":false}},{"type":"Feature","geometry":{"type":"Point","coordinates":[-104.7908,39.0784]},"properties":{"s":44.4,"pub":false}},{"type":"Feature","geometry":{"type":"Point","coordinates":[-104.7908,39.0842]},"properties":{"s":44.4,"pub":false}},{"type":"Feature","geometry":{"type":"Point","coordinates":[-104.7908,39.09]},"properties":{"s":44.4,"pub":false}},{"type":"Feature","geometry":{"type":"Point","coordinates":[-104.7908,39.0958]},"properties":{"s":44.4,"pub":false}},{"type":"Feature","geometry":{"type":"Point","coordinates":[-104.7908,39.1016]},"properties":{"s":44.4,"pub":false}},{"type":"Feature","geometry":{"type":"Point","coordinates":[-104.7908,39.1074]},"properties":{"s":44.4,"pub":false}},{"type":"Feature","geometry":{"type":"Point","coordinates":[-104.7908,39.1132]},"properties":{"s":44.4,"pub":false}},{"type":"Feature","geometry":{"type":"Point","coordinates":[-104.7908,39.119]},"properties":{"s":44.4,"pub":false}},{"type":"Feature","geometry":{"type":"Point","coordinates":[-104.7908,39.1248]},"properties":{"s":44.4,"pub":false}},{"type":"Feature","geometry":{"type":"Point","coordinates":[-104.7833,39.0784]},"properties":{"s":44.4,"pub":false}},{"type":"Feature","geometry":{"type":"Point","coordinates":[-104.7833,39.0842]},"properties":{"s":44.4,"pub":false}},{"type":"Feature","geometry":{"type":"Point","coordinates":[-104.7833,39.09]},"properties":{"s":44.4,"pub":false}},{"type":"Feature","geometry":{"type":"Point","coordinates":[-104.7833,39.0958]},"properties":{"s":44.4,"pub":false}},{"type":"Feature","geometry":{"type":"Point","coordinates":[-104.7833,39.1016]},"properties":{"s":44.4,"pub":false}},{"type":"Feature","geometry":{"type":"Point","coordinates":[-104.7833,39.1074]},"properties":{"s":44.4,"pub":false}},{"type":"Feature","geometry":{"type":"Point","coordinates":[-104.7833,39.1132]},"properties":{"s":44.4,"pub":false}},{"type":"Feature","geometry":{"type":"Point","coordinates":[-104.7833,39.119]},"properties":{"s":44.4,"pub":false}},{"type":"Feature","geometry":{"type":"Point","coordinates":[-104.7833,39.1248]},"properties":{"s":44.4,"pub":false}},{"type":"Feature","geometry":{"type":"Point","coordinates":[-104.7758,39.0784]},"properties":{"s":44.4,"pub":false}},{"type":"Feature","geometry":{"type":"Point","coordinates":[-104.7758,39.0842]},"properties":{"s":44.4,"pub":false}},{"type":"Feature","geometry":{"type":"Point","coordinates":[-104.7758,39.09]},"properties":{"s":44.4,"pub":false}},{"type":"Feature","geometry":{"type":"Point","coordinates":[-104.7758,39.0958]},"properties":{"s":44.4,"pub":false}},{"type":"Feature","geometry":{"type":"Point","coordinates":[-104.7758,39.1016]},"properties":{"s":44.4,"pub":false}},{"type":"Feature","geometry":{"type":"Point","coordinates":[-104.7758,39.1074]},"properties":{"s":44.4,"pub":false}},{"type":"Feature","geometry":{"type":"Point","coordinates":[-104.7758,39.1132]},"properties":{"s":44.4,"pub":false}},{"type":"Feature","geometry":{"type":"Point","coordinates":[-104.7758,39.119]},"properties":{"s":44.4,"pub":false}},{"type":"Feature","geometry":{"type":"Point","coordinates":[-104.7758,39.1248]},"properties":{"s":44.4,"pub":false}},{"type":"Feature","geometry":{"type":"Point","coordinates":[-104.7683,39.0784]},"properties":{"s":44.4,"pub":false}},{"type":"Feature","geometry":{"type":"Point","coordinates":[-104.7683,39.0842]},"properties":{"s":44.4,"pub":false}},{"type":"Feature","geometry":{"type":"Point","coordinates":[-104.7683,39.09]},"properties":{"s":44.4,"pub":false}},{"type":"Feature","geometry":{"type":"Point","coordinates":[-104.7683,39.0958]},"properties":{"s":44.4,"pub":false}},{"type":"Feature","geometry":{"type":"Point","coordinates":[-104.7683,39.1016]},"properties":{"s":44.4,"pub":false}},{"type":"Feature","geometry":{"type":"Point","coordinates":[-104.7683,39.1074]},"properties":{"s":44.4,"pub":false}},{"type":"Feature","geometry":{"type":"Point","coordinates":[-104.7683,39.1132]},"properties":{"s":44.4,"pub":false}},{"type":"Feature","geometry":{"type":"Point","coordinates":[-104.7683,39.119]},"properties":{"s":44.4,"pub":false}},{"type":"Feature","geometry":{"type":"Point","coordinates":[-104.7683,39.1248]},"properties":{"s":44.4,"pub":false}},{"type":"Feature","geometry":{"type":"Point","coordinates":[-104.7608,39.0726]},"properties":{"s":44.4,"pub":false}},{"type":"Feature","geometry":{"type":"Point","coordinates":[-104.7608,39.0784]},"properties":{"s":44.4,"pub":false}},{"type":"Feature","geometry":{"type":"Point","coordinates":[-104.7608,39.0842]},"properties":{"s":44.4,"pub":false}},{"type":"Feature","geometry":{"type":"Point","coordinates":[-104.7608,39.09]},"properties":{"s":44.4,"pub":false}},{"type":"Feature","geometry":{"type":"Point","coordinates":[-104.7608,39.0958]},"properties":{"s":44.4,"pub":false}},{"type":"Feature","geometry":{"type":"Point","coordinates":[-104.7608,39.1016]},"properties":{"s":44.4,"pub":false}},{"type":"Feature","geometry":{"type":"Point","coordinates":[-104.7608,39.1074]},"properties":{"s":44.4,"pub":false}},{"type":"Feature","geometry":{"type":"Point","coordinates":[-104.7608,39.1132]},"properties":{"s":44.4,"pub":false}},{"type":"Feature","geometry":{"type":"Point","coordinates":[-104.7608,39.119]},"properties":{"s":44.4,"pub":false}},{"type":"Feature","geometry":{"type":"Point","coordinates":[-104.7608,39.1248]},"properties":{"s":44.4,"pub":false}},{"type":"Feature","geometry":{"type":"Point","coordinates":[-104.7533,39.0726]},"properties":{"s":44.4,"pub":false}},{"type":"Feature","geometry":{"type":"Point","coordinates":[-104.7533,39.0784]},"properties":{"s":44.4,"pub":false}},{"type":"Feature","geometry":{"type":"Point","coordinates":[-104.7533,39.0842]},"properties":{"s":44.4,"pub":false}},{"type":"Feature","geometry":{"type":"Point","coordinates":[-104.7533,39.09]},"properties":{"s":44.4,"pub":false}},{"type":"Feature","geometry":{"type":"Point","coordinates":[-104.7533,39.0958]},"properties":{"s":44.4,"pub":false}},{"type":"Feature","geometry":{"type":"Point","coordinates":[-104.7533,39.1016]},"properties":{"s":44.4,"pub":false}},{"type":"Feature","geometry":{"type":"Point","coordinates":[-104.7533,39.1074]},"properties":{"s":44.4,"pub":false}},{"type":"Feature","geometry":{"type":"Point","coordinates":[-104.7533,39.1132]},"properties":{"s":44.4,"pub":false}},{"type":"Feature","geometry":{"type":"Point","coordinates":[-104.7533,39.119]},"properties":{"s":44.4,"pub":false}},{"type":"Feature","geometry":{"type":"Point","coordinates":[-104.7533,39.1248]},"properties":{"s":44.4,"pub":false}},{"type":"Feature","geometry":{"type":"Point","coordinates":[-104.7458,39.0726]},"properties":{"s":44.4,"pub":false}},{"type":"Feature","geometry":{"type":"Point","coordinates":[-104.7458,39.0784]},"properties":{"s":44.4,"pub":false}},{"type":"Feature","geometry":{"type":"Point","coordinates":[-104.7458,39.0842]},"properties":{"s":44.4,"pub":false}},{"type":"Feature","geometry":{"type":"Point","coordinates":[-104.7458,39.09]},"properties":{"s":44.4,"pub":false}},{"type":"Feature","geometry":{"type":"Point","coordinates":[-104.7458,39.0958]},"properties":{"s":44.4,"pub":false}},{"type":"Feature","geometry":{"type":"Point","coordinates":[-104.7458,39.1016]},"properties":{"s":44.4,"pub":false}},{"type":"Feature","geometry":{"type":"Point","coordinates":[-104.7458,39.1074]},"properties":{"s":44.4,"pub":false}},{"type":"Feature","geometry":{"type":"Point","coordinates":[-104.7458,39.1132]},"properties":{"s":44.4,"pub":false}},{"type":"Feature","geometry":{"type":"Point","coordinates":[-104.7458,39.119]},"properties":{"s":44.4,"pub":false}},{"type":"Feature","geometry":{"type":"Point","coordinates":[-104.7458,39.1248]},"properties":{"s":44.4,"pub":false}},{"type":"Feature","geometry":{"type":"Point","coordinates":[-104.7383,39.0726]},"properties":{"s":44.4,"pub":false}},{"type":"Feature","geometry":{"type":"Point","coordinates":[-104.7383,39.0784]},"properties":{"s":44.4,"pub":false}},{"type":"Feature","geometry":{"type":"Point","coordinates":[-104.7383,39.0842]},"properties":{"s":44.4,"pub":false}},{"type":"Feature","geometry":{"type":"Point","coordinates":[-104.7383,39.09]},"properties":{"s":44.4,"pub":false}},{"type":"Feature","geometry":{"type":"Point","coordinates":[-104.7383,39.0958]},"properties":{"s":44.4,"pub":false}},{"type":"Feature","geometry":{"type":"Point","coordinates":[-104.7383,39.1016]},"properties":{"s":44.4,"pub":false}},{"type":"Feature","geometry":{"type":"Point","coordinates":[-104.7383,39.1074]},"properties":{"s":44.4,"pub":false}},{"type":"Feature","geometry":{"type":"Point","coordinates":[-104.7383,39.1132]},"properties":{"s":44.4,"pub":false}},{"type":"Feature","geometry":{"type":"Point","coordinates":[-104.7383,39.119]},"properties":{"s":44.4,"pub":false}},{"type":"Feature","geometry":{"type":"Point","coordinates":[-104.7383,39.1248]},"properties":{"s":44.4,"pub":false}},{"type":"Feature","geometry":{"type":"Point","coordinates":[-104.7308,39.0726]},"properties":{"s":44.4,"pub":false}},{"type":"Feature","geometry":{"type":"Point","coordinates":[-104.7308,39.0784]},"properties":{"s":44.4,"pub":false}},{"type":"Feature","geometry":{"type":"Point","coordinates":[-104.7308,39.0842]},"properties":{"s":44.4,"pub":false}},{"type":"Feature","geometry":{"type":"Point","coordinates":[-104.7308,39.09]},"properties":{"s":44.4,"pub":false}},{"type":"Feature","geometry":{"type":"Point","coordinates":[-104.7308,39.0958]},"properties":{"s":44.4,"pub":false}},{"type":"Feature","geometry":{"type":"Point","coordinates":[-104.7308,39.1016]},"properties":{"s":44.4,"pub":false}},{"type":"Feature","geometry":{"type":"Point","coordinates":[-104.7308,39.1074]},"properties":{"s":44.4,"pub":false}},{"type":"Feature","geometry":{"type":"Point","coordinates":[-104.7308,39.1132]},"properties":{"s":44.4,"pub":false}},{"type":"Feature","geometry":{"type":"Point","coordinates":[-104.7308,39.119]},"properties":{"s":44.4,"pub":false}},{"type":"Feature","geometry":{"type":"Point","coordinates":[-104.7308,39.1248]},"properties":{"s":44.4,"pub":false}},{"type":"Feature","geometry":{"type":"Point","coordinates":[-104.7233,39.0726]},"properties":{"s":44.4,"pub":false}},{"type":"Feature","geometry":{"type":"Point","coordinates":[-104.7233,39.0784]},"properties":{"s":44.4,"pub":false}},{"type":"Feature","geometry":{"type":"Point","coordinates":[-104.7233,39.0842]},"properties":{"s":44.4,"pub":false}},{"type":"Feature","geometry":{"type":"Point","coordinates":[-104.7233,39.09]},"properties":{"s":44.4,"pub":false}},{"type":"Feature","geometry":{"type":"Point","coordinates":[-104.7233,39.0958]},"properties":{"s":44.4,"pub":false}},{"type":"Feature","geometry":{"type":"Point","coordinates":[-104.7233,39.1016]},"properties":{"s":44.4,"pub":false}},{"type":"Feature","geometry":{"type":"Point","coordinates":[-104.7233,39.1074]},"properties":{"s":44.4,"pub":false}},{"type":"Feature","geometry":{"type":"Point","coordinates":[-104.7233,39.1132]},"properties":{"s":44.4,"pub":false}},{"type":"Feature","geometry":{"type":"Point","coordinates":[-104.7233,39.119]},"properties":{"s":44.4,"pub":false}},{"type":"Feature","geometry":{"type":"Point","coordinates":[-104.7233,39.1248]},"properties":{"s":44.4,"pub":false}},{"type":"Feature","geometry":{"type":"Point","coordinates":[-104.7158,39.0726]},"properties":{"s":44.4,"pub":false}},{"type":"Feature","geometry":{"type":"Point","coordinates":[-104.7158,39.0784]},"properties":{"s":44.4,"pub":false}},{"type":"Feature","geometry":{"type":"Point","coordinates":[-104.7158,39.0842]},"properties":{"s":44.4,"pub":false}},{"type":"Feature","geometry":{"type":"Point","coordinates":[-104.7158,39.09]},"properties":{"s":44.4,"pub":false}},{"type":"Feature","geometry":{"type":"Point","coordinates":[-104.7158,39.0958]},"properties":{"s":44.4,"pub":false}},{"type":"Feature","geometry":{"type":"Point","coordinates":[-104.7158,39.1016]},"properties":{"s":44.4,"pub":false}},{"type":"Feature","geometry":{"type":"Point","coordinates":[-104.7158,39.1074]},"properties":{"s":44.4,"pub":false}},{"type":"Feature","geometry":{"type":"Point","coordinates":[-104.7158,39.1132]},"properties":{"s":44.4,"pub":false}},{"type":"Feature","geometry":{"type":"Point","coordinates":[-104.7158,39.119]},"properties":{"s":44.4,"pub":false}},{"type":"Feature","geometry":{"type":"Point","coordinates":[-104.7158,39.1248]},"properties":{"s":44.4,"pub":false}},{"type":"Feature","geometry":{"type":"Point","coordinates":[-104.7083,39.0726]},"properties":{"s":44.4,"pub":false}},{"type":"Feature","geometry":{"type":"Point","coordinates":[-104.7083,39.0784]},"properties":{"s":44.4,"pub":false}},{"type":"Feature","geometry":{"type":"Point","coordinates":[-104.7083,39.0842]},"properties":{"s":44.4,"pub":false}},{"type":"Feature","geometry":{"type":"Point","coordinates":[-104.7083,39.09]},"properties":{"s":44.4,"pub":false}},{"type":"Feature","geometry":{"type":"Point","coordinates":[-104.7083,39.0958]},"properties":{"s":44.4,"pub":false}},{"type":"Feature","geometry":{"type":"Point","coordinates":[-104.7083,39.1016]},"properties":{"s":44.4,"pub":false}},{"type":"Feature","geometry":{"type":"Point","coordinates":[-104.7083,39.1074]},"properties":{"s":44.4,"pub":false}},{"type":"Feature","geometry":{"type":"Point","coordinates":[-104.7083,39.1132]},"properties":{"s":44.4,"pub":false}},{"type":"Feature","geometry":{"type":"Point","coordinates":[-104.7083,39.119]},"properties":{"s":44.4,"pub":false}},{"type":"Feature","geometry":{"type":"Point","coordinates":[-104.7083,39.1248]},"properties":{"s":44.4,"pub":false}},{"type":"Feature","geometry":{"type":"Point","coordinates":[-104.7008,39.0726]},"properties":{"s":44.4,"pub":false}},{"type":"Feature","geometry":{"type":"Point","coordinates":[-104.7008,39.0784]},"properties":{"s":44.4,"pub":false}},{"type":"Feature","geometry":{"type":"Point","coordinates":[-104.7008,39.0842]},"properties":{"s":44.4,"pub":false}},{"type":"Feature","geometry":{"type":"Point","coordinates":[-104.7008,39.09]},"properties":{"s":44.4,"pub":false}},{"type":"Feature","geometry":{"type":"Point","coordinates":[-104.7008,39.0958]},"properties":{"s":44.4,"pub":false}},{"type":"Feature","geometry":{"type":"Point","coordinates":[-104.7008,39.1016]},"properties":{"s":44.4,"pub":false}},{"type":"Feature","geometry":{"type":"Point","coordinates":[-104.7008,39.1074]},"properties":{"s":44.4,"pub":false}},{"type":"Feature","geometry":{"type":"Point","coordinates":[-104.7008,39.1132]},"properties":{"s":44.4,"pub":false}},{"type":"Feature","geometry":{"type":"Point","coordinates":[-104.7008,39.119]},"properties":{"s":44.4,"pub":false}},{"type":"Feature","geometry":{"type":"Point","coordinates":[-104.7008,39.1248]},"properties":{"s":44.4,"pub":false}},{"type":"Feature","geometry":{"type":"Point","coordinates":[-104.6933,39.0726]},"properties":{"s":44.4,"pub":false}},{"type":"Feature","geometry":{"type":"Point","coordinates":[-104.6933,39.0784]},"properties":{"s":44.4,"pub":false}},{"type":"Feature","geometry":{"type":"Point","coordinates":[-104.6933,39.0842]},"properties":{"s":44.4,"pub":false}},{"type":"Feature","geometry":{"type":"Point","coordinates":[-104.6933,39.09]},"properties":{"s":44.4,"pub":false}},{"type":"Feature","geometry":{"type":"Point","coordinates":[-104.6933,39.0958]},"properties":{"s":44.4,"pub":false}},{"type":"Feature","geometry":{"type":"Point","coordinates":[-104.6933,39.1016]},"properties":{"s":44.4,"pub":false}},{"type":"Feature","geometry":{"type":"Point","coordinates":[-104.6933,39.1074]},"properties":{"s":44.4,"pub":false}},{"type":"Feature","geometry":{"type":"Point","coordinates":[-104.6933,39.1132]},"properties":{"s":44.4,"pub":false}},{"type":"Feature","geometry":{"type":"Point","coordinates":[-104.6933,39.119]},"properties":{"s":44.4,"pub":false}},{"type":"Feature","geometry":{"type":"Point","coordinates":[-104.6933,39.1248]},"properties":{"s":44.4,"pub":false}},{"type":"Feature","geometry":{"type":"Point","coordinates":[-104.6858,39.0726]},"properties":{"s":44.4,"pub":false}},{"type":"Feature","geometry":{"type":"Point","coordinates":[-104.6858,39.0784]},"properties":{"s":44.4,"pub":false}},{"type":"Feature","geometry":{"type":"Point","coordinates":[-104.6858,39.0842]},"properties":{"s":44.4,"pub":false}},{"type":"Feature","geometry":{"type":"Point","coordinates":[-104.6858,39.09]},"properties":{"s":44.4,"pub":false}},{"type":"Feature","geometry":{"type":"Point","coordinates":[-104.6858,39.0958]},"properties":{"s":44.4,"pub":false}},{"type":"Feature","geometry":{"type":"Point","coordinates":[-104.6858,39.1016]},"properties":{"s":44.4,"pub":false}},{"type":"Feature","geometry":{"type":"Point","coordinates":[-104.6858,39.1074]},"properties":{"s":44.4,"pub":false}},{"type":"Feature","geometry":{"type":"Point","coordinates":[-104.6858,39.1132]},"properties":{"s":44.4,"pub":false}},{"type":"Feature","geometry":{"type":"Point","coordinates":[-104.6858,39.119]},"properties":{"s":44.4,"pub":false}},{"type":"Feature","geometry":{"type":"Point","coordinates":[-104.6858,39.1248]},"properties":{"s":44.4,"pub":false}},{"type":"Feature","geometry":{"type":"Point","coordinates":[-104.6783,39.0726]},"properties":{"s":44.4,"pub":false}},{"type":"Feature","geometry":{"type":"Point","coordinates":[-104.6783,39.0784]},"properties":{"s":44.4,"pub":false}},{"type":"Feature","geometry":{"type":"Point","coordinates":[-104.6783,39.0842]},"properties":{"s":44.4,"pub":false}},{"type":"Feature","geometry":{"type":"Point","coordinates":[-104.6783,39.09]},"properties":{"s":44.4,"pub":false}},{"type":"Feature","geometry":{"type":"Point","coordinates":[-104.6783,39.0958]},"properties":{"s":44.4,"pub":false}},{"type":"Feature","geometry":{"type":"Point","coordinates":[-104.6783,39.1016]},"properties":{"s":44.4,"pub":false}},{"type":"Feature","geometry":{"type":"Point","coordinates":[-104.6783,39.1074]},"properties":{"s":44.4,"pub":false}},{"type":"Feature","geometry":{"type":"Point","coordinates":[-104.6783,39.1132]},"properties":{"s":44.4,"pub":false}},{"type":"Feature","geometry":{"type":"Point","coordinates":[-104.6783,39.119]},"properties":{"s":44.4,"pub":false}},{"type":"Feature","geometry":{"type":"Point","coordinates":[-104.6783,39.1248]},"properties":{"s":44.4,"pub":false}},{"type":"Feature","geometry":{"type":"Point","coordinates":[-104.6708,39.0726]},"properties":{"s":44.4,"pub":false}},{"type":"Feature","geometry":{"type":"Point","coordinates":[-104.6708,39.0784]},"properties":{"s":44.4,"pub":false}},{"type":"Feature","geometry":{"type":"Point","coordinates":[-104.6708,39.0842]},"properties":{"s":44.4,"pub":false}},{"type":"Feature","geometry":{"type":"Point","coordinates":[-104.6708,39.09]},"properties":{"s":44.4,"pub":false}},{"type":"Feature","geometry":{"type":"Point","coordinates":[-104.6708,39.0958]},"properties":{"s":44.4,"pub":false}},{"type":"Feature","geometry":{"type":"Point","coordinates":[-104.6708,39.1016]},"properties":{"s":44.4,"pub":false}},{"type":"Feature","geometry":{"type":"Point","coordinates":[-104.6708,39.1074]},"properties":{"s":44.4,"pub":false}},{"type":"Feature","geometry":{"type":"Point","coordinates":[-104.6708,39.1132]},"properties":{"s":44.4,"pub":false}},{"type":"Feature","geometry":{"type":"Point","coordinates":[-104.6708,39.119]},"properties":{"s":44.4,"pub":false}},{"type":"Feature","geometry":{"type":"Point","coordinates":[-104.6708,39.1248]},"properties":{"s":48.1,"pub":false}},{"type":"Feature","geometry":{"type":"Point","coordinates":[-104.6633,39.0726]},"properties":{"s":44.4,"pub":false}},{"type":"Feature","geometry":{"type":"Point","coordinates":[-104.6633,39.0784]},"properties":{"s":44.4,"pub":false}},{"type":"Feature","geometry":{"type":"Point","coordinates":[-104.6633,39.0842]},"properties":{"s":44.4,"pub":false}},{"type":"Feature","geometry":{"type":"Point","coordinates":[-104.6633,39.09]},"properties":{"s":44.4,"pub":false}},{"type":"Feature","geometry":{"type":"Point","coordinates":[-104.6633,39.0958]},"properties":{"s":44.4,"pub":false}},{"type":"Feature","geometry":{"type":"Point","coordinates":[-104.6633,39.1016]},"properties":{"s":44.4,"pub":false}},{"type":"Feature","geometry":{"type":"Point","coordinates":[-104.6633,39.1074]},"properties":{"s":44.4,"pub":false}},{"type":"Feature","geometry":{"type":"Point","coordinates":[-104.6633,39.1132]},"properties":{"s":44.4,"pub":false}},{"type":"Feature","geometry":{"type":"Point","coordinates":[-104.6633,39.119]},"properties":{"s":44.4,"pub":false}},{"type":"Feature","geometry":{"type":"Point","coordinates":[-104.6633,39.1248]},"properties":{"s":48.1,"pub":false}},{"type":"Feature","geometry":{"type":"Point","coordinates":[-104.6558,39.0726]},"properties":{"s":44.4,"pub":false}},{"type":"Feature","geometry":{"type":"Point","coordinates":[-104.6558,39.0784]},"properties":{"s":44.4,"pub":false}},{"type":"Feature","geometry":{"type":"Point","coordinates":[-104.6558,39.0842]},"properties":{"s":44.4,"pub":false}},{"type":"Feature","geometry":{"type":"Point","coordinates":[-104.6558,39.09]},"properties":{"s":44.4,"pub":false}},{"type":"Feature","geometry":{"type":"Point","coordinates":[-104.6558,39.0958]},"properties":{"s":44.4,"pub":false}},{"type":"Feature","geometry":{"type":"Point","coordinates":[-104.6558,39.1016]},"properties":{"s":44.4,"pub":false}},{"type":"Feature","geometry":{"type":"Point","coordinates":[-104.6558,39.1074]},"properties":{"s":44.4,"pub":false}},{"type":"Feature","geometry":{"type":"Point","coordinates":[-104.6558,39.1132]},"properties":{"s":44.4,"pub":false}},{"type":"Feature","geometry":{"type":"Point","coordinates":[-104.6558,39.119]},"properties":{"s":48.1,"pub":false}},{"type":"Feature","geometry":{"type":"Point","coordinates":[-104.6558,39.1248]},"properties":{"s":48.1,"pub":false}},{"type":"Feature","geometry":{"type":"Point","coordinates":[-104.6483,39.0726]},"properties":{"s":44.4,"pub":false}},{"type":"Feature","geometry":{"type":"Point","coordinates":[-104.6483,39.0784]},"properties":{"s":44.4,"pub":false}},{"type":"Feature","geometry":{"type":"Point","coordinates":[-104.6483,39.0842]},"properties":{"s":44.4,"pub":false}},{"type":"Feature","geometry":{"type":"Point","coordinates":[-104.6483,39.09]},"properties":{"s":44.4,"pub":false}},{"type":"Feature","geometry":{"type":"Point","coordinates":[-104.6483,39.0958]},"properties":{"s":44.4,"pub":false}},{"type":"Feature","geometry":{"type":"Point","coordinates":[-104.6483,39.1016]},"properties":{"s":44.4,"pub":false}},{"type":"Feature","geometry":{"type":"Point","coordinates":[-104.6483,39.1074]},"properties":{"s":44.4,"pub":false}},{"type":"Feature","geometry":{"type":"Point","coordinates":[-104.6483,39.1132]},"properties":{"s":44.4,"pub":false}},{"type":"Feature","geometry":{"type":"Point","coordinates":[-104.6483,39.119]},"properties":{"s":48.1,"pub":false}},{"type":"Feature","geometry":{"type":"Point","coordinates":[-104.6483,39.1248]},"properties":{"s":48.1,"pub":false}},{"type":"Feature","geometry":{"type":"Point","coordinates":[-104.6408,39.0726]},"properties":{"s":44.4,"pub":false}},{"type":"Feature","geometry":{"type":"Point","coordinates":[-104.6408,39.0784]},"properties":{"s":44.4,"pub":false}},{"type":"Feature","geometry":{"type":"Point","coordinates":[-104.6408,39.0842]},"properties":{"s":44.4,"pub":false}},{"type":"Feature","geometry":{"type":"Point","coordinates":[-104.6408,39.09]},"properties":{"s":44.4,"pub":false}},{"type":"Feature","geometry":{"type":"Point","coordinates":[-104.6408,39.0958]},"properties":{"s":44.4,"pub":false}},{"type":"Feature","geometry":{"type":"Point","coordinates":[-104.6408,39.1016]},"properties":{"s":44.4,"pub":false}},{"type":"Feature","geometry":{"type":"Point","coordinates":[-104.6408,39.1074]},"properties":{"s":44.4,"pub":false}},{"type":"Feature","geometry":{"type":"Point","coordinates":[-104.6408,39.1132]},"properties":{"s":48.1,"pub":false}},{"type":"Feature","geometry":{"type":"Point","coordinates":[-104.6408,39.119]},"properties":{"s":48.1,"pub":false}},{"type":"Feature","geometry":{"type":"Point","coordinates":[-104.6408,39.1248]},"properties":{"s":77.8,"pub":false}},{"type":"Feature","geometry":{"type":"Point","coordinates":[-104.6333,39.0726]},"properties":{"s":44.4,"pub":false}},{"type":"Feature","geometry":{"type":"Point","coordinates":[-104.6333,39.0784]},"properties":{"s":44.4,"pub":false}},{"type":"Feature","geometry":{"type":"Point","coordinates":[-104.6333,39.0842]},"properties":{"s":44.4,"pub":false}},{"type":"Feature","geometry":{"type":"Point","coordinates":[-104.6333,39.09]},"properties":{"s":44.4,"pub":false}},{"type":"Feature","geometry":{"type":"Point","coordinates":[-104.6333,39.0958]},"properties":{"s":44.4,"pub":false}},{"type":"Feature","geometry":{"type":"Point","coordinates":[-104.6333,39.1016]},"properties":{"s":44.4,"pub":false}},{"type":"Feature","geometry":{"type":"Point","coordinates":[-104.6333,39.1074]},"properties":{"s":44.4,"pub":false}},{"type":"Feature","geometry":{"type":"Point","coordinates":[-104.6333,39.1132]},"properties":{"s":48.1,"pub":false}},{"type":"Feature","geometry":{"type":"Point","coordinates":[-104.6333,39.119]},"properties":{"s":77.8,"pub":false}},{"type":"Feature","geometry":{"type":"Point","coordinates":[-104.6333,39.1248]},"properties":{"s":77.8,"pub":false}},{"type":"Feature","geometry":{"type":"Point","coordinates":[-104.6258,39.0726]},"properties":{"s":44.4,"pub":false}},{"type":"Feature","geometry":{"type":"Point","coordinates":[-104.6258,39.0784]},"properties":{"s":44.4,"pub":false}},{"type":"Feature","geometry":{"type":"Point","coordinates":[-104.6258,39.0842]},"properties":{"s":44.4,"pub":false}},{"type":"Feature","geometry":{"type":"Point","coordinates":[-104.6258,39.09]},"properties":{"s":44.4,"pub":false}},{"type":"Feature","geometry":{"type":"Point","coordinates":[-104.6258,39.0958]},"properties":{"s":44.4,"pub":false}},{"type":"Feature","geometry":{"type":"Point","coordinates":[-104.6258,39.1016]},"properties":{"s":44.4,"pub":false}},{"type":"Feature","geometry":{"type":"Point","coordinates":[-104.6258,39.1074]},"properties":{"s":77.8,"pub":false}},{"type":"Feature","geometry":{"type":"Point","coordinates":[-104.6258,39.1132]},"properties":{"s":77.8,"pub":false}},{"type":"Feature","geometry":{"type":"Point","coordinates":[-104.6258,39.119]},"properties":{"s":77.8,"pub":false}},{"type":"Feature","geometry":{"type":"Point","coordinates":[-104.6258,39.1248]},"properties":{"s":77.8,"pub":false}},{"type":"Feature","geometry":{"type":"Point","coordinates":[-104.6183,39.0726]},"properties":{"s":44.4,"pub":false}},{"type":"Feature","geometry":{"type":"Point","coordinates":[-104.6183,39.0784]},"properties":{"s":44.4,"pub":false}},{"type":"Feature","geometry":{"type":"Point","coordinates":[-104.6183,39.0842]},"properties":{"s":44.4,"pub":false}},{"type":"Feature","geometry":{"type":"Point","coordinates":[-104.6183,39.09]},"properties":{"s":44.4,"pub":false}},{"type":"Feature","geometry":{"type":"Point","coordinates":[-104.6183,39.0958]},"properties":{"s":44.4,"pub":false}},{"type":"Feature","geometry":{"type":"Point","coordinates":[-104.6183,39.1016]},"properties":{"s":44.4,"pub":false}},{"type":"Feature","geometry":{"type":"Point","coordinates":[-104.6183,39.1074]},"properties":{"s":77.8,"pub":false}},{"type":"Feature","geometry":{"type":"Point","coordinates":[-104.6183,39.1132]},"properties":{"s":77.8,"pub":false}},{"type":"Feature","geometry":{"type":"Point","coordinates":[-104.6183,39.119]},"properties":{"s":77.8,"pub":false}},{"type":"Feature","geometry":{"type":"Point","coordinates":[-104.6183,39.1248]},"properties":{"s":77.8,"pub":false}},{"type":"Feature","geometry":{"type":"Point","coordinates":[-104.6108,39.0726]},"properties":{"s":44.4,"pub":false}},{"type":"Feature","geometry":{"type":"Point","coordinates":[-104.6108,39.0784]},"properties":{"s":44.4,"pub":false}},{"type":"Feature","geometry":{"type":"Point","coordinates":[-104.6108,39.0842]},"properties":{"s":44.4,"pub":false}},{"type":"Feature","geometry":{"type":"Point","coordinates":[-104.6108,39.09]},"properties":{"s":44.4,"pub":false}},{"type":"Feature","geometry":{"type":"Point","coordinates":[-104.6108,39.0958]},"properties":{"s":44.4,"pub":false}},{"type":"Feature","geometry":{"type":"Point","coordinates":[-104.6108,39.1016]},"properties":{"s":77.8,"pub":false}},{"type":"Feature","geometry":{"type":"Point","coordinates":[-104.6108,39.1074]},"properties":{"s":77.8,"pub":false}},{"type":"Feature","geometry":{"type":"Point","coordinates":[-104.6108,39.1132]},"properties":{"s":77.8,"pub":false}},{"type":"Feature","geometry":{"type":"Point","coordinates":[-104.6108,39.119]},"properties":{"s":100.0,"pub":false}},{"type":"Feature","geometry":{"type":"Point","coordinates":[-104.6108,39.1248]},"properties":{"s":100.0,"pub":false}},{"type":"Feature","geometry":{"type":"Point","coordinates":[-104.6033,39.0726]},"properties":{"s":44.4,"pub":false}},{"type":"Feature","geometry":{"type":"Point","coordinates":[-104.6033,39.0784]},"properties":{"s":44.4,"pub":false}},{"type":"Feature","geometry":{"type":"Point","coordinates":[-104.6033,39.0842]},"properties":{"s":44.4,"pub":false}},{"type":"Feature","geometry":{"type":"Point","coordinates":[-104.6033,39.09]},"properties":{"s":44.4,"pub":false}},{"type":"Feature","geometry":{"type":"Point","coordinates":[-104.6033,39.0958]},"properties":{"s":44.4,"pub":false}},{"type":"Feature","geometry":{"type":"Point","coordinates":[-104.6033,39.1016]},"properties":{"s":77.8,"pub":false}},{"type":"Feature","geometry":{"type":"Point","coordinates":[-104.6033,39.1074]},"properties":{"s":77.8,"pub":false}},{"type":"Feature","geometry":{"type":"Point","coordinates":[-104.6033,39.1132]},"properties":{"s":100.0,"pub":false}},{"type":"Feature","geometry":{"type":"Point","coordinates":[-104.6033,39.119]},"properties":{"s":100.0,"pub":false}},{"type":"Feature","geometry":{"type":"Point","coordinates":[-104.6033,39.1248]},"properties":{"s":100.0,"pub":false}},{"type":"Feature","geometry":{"type":"Point","coordinates":[-104.5958,39.0784]},"properties":{"s":44.4,"pub":false}},{"type":"Feature","geometry":{"type":"Point","coordinates":[-104.5958,39.0842]},"properties":{"s":44.4,"pub":false}},{"type":"Feature","geometry":{"type":"Point","coordinates":[-104.5958,39.09]},"properties":{"s":44.4,"pub":false}},{"type":"Feature","geometry":{"type":"Point","coordinates":[-104.5958,39.0958]},"properties":{"s":44.4,"pub":false}},{"type":"Feature","geometry":{"type":"Point","coordinates":[-104.5958,39.1016]},"properties":{"s":100.0,"pub":false}},{"type":"Feature","geometry":{"type":"Point","coordinates":[-104.5958,39.1074]},"properties":{"s":100.0,"pub":false}},{"type":"Feature","geometry":{"type":"Point","coordinates":[-104.5958,39.1132]},"properties":{"s":100.0,"pub":false}},{"type":"Feature","geometry":{"type":"Point","coordinates":[-104.5958,39.119]},"properties":{"s":100.0,"pub":false}},{"type":"Feature","geometry":{"type":"Point","coordinates":[-104.5958,39.1248]},"properties":{"s":100.0,"pub":false}},{"type":"Feature","geometry":{"type":"Point","coordinates":[-104.5883,39.0784]},"properties":{"s":44.4,"pub":false}},{"type":"Feature","geometry":{"type":"Point","coordinates":[-104.5883,39.0842]},"properties":{"s":44.4,"pub":false}},{"type":"Feature","geometry":{"type":"Point","coordinates":[-104.5883,39.09]},"properties":{"s":44.4,"pub":false}},{"type":"Feature","geometry":{"type":"Point","coordinates":[-104.5883,39.0958]},"properties":{"s":44.4,"pub":false}},{"type":"Feature","geometry":{"type":"Point","coordinates":[-104.5883,39.1016]},"properties":{"s":100.0,"pub":false}},{"type":"Feature","geometry":{"type":"Point","coordinates":[-104.5883,39.1074]},"properties":{"s":100.0,"pub":false}},{"type":"Feature","geometry":{"type":"Point","coordinates":[-104.5883,39.1132]},"properties":{"s":100.0,"pub":false}},{"type":"Feature","geometry":{"type":"Point","coordinates":[-104.5883,39.119]},"properties":{"s":100.0,"pub":false}},{"type":"Feature","geometry":{"type":"Point","coordinates":[-104.5883,39.1248]},"properties":{"s":100.0,"pub":false}},{"type":"Feature","geometry":{"type":"Point","coordinates":[-104.5808,39.0842]},"properties":{"s":44.4,"pub":false}},{"type":"Feature","geometry":{"type":"Point","coordinates":[-104.5808,39.09]},"properties":{"s":44.4,"pub":false}},{"type":"Feature","geometry":{"type":"Point","coordinates":[-104.5808,39.0958]},"properties":{"s":66.7,"pub":false}},{"type":"Feature","geometry":{"type":"Point","coordinates":[-104.5808,39.1016]},"properties":{"s":100.0,"pub":false}},{"type":"Feature","geometry":{"type":"Point","coordinates":[-104.5808,39.1074]},"properties":{"s":100.0,"pub":false}},{"type":"Feature","geometry":{"type":"Point","coordinates":[-104.5808,39.1132]},"properties":{"s":100.0,"pub":false}},{"type":"Feature","geometry":{"type":"Point","coordinates":[-104.5808,39.119]},"properties":{"s":100.0,"pub":false}},{"type":"Feature","geometry":{"type":"Point","coordinates":[-104.5808,39.1248]},"properties":{"s":100.0,"pub":false}},{"type":"Feature","geometry":{"type":"Point","coordinates":[-104.5733,39.09]},"properties":{"s":44.4,"pub":false}},{"type":"Feature","geometry":{"type":"Point","coordinates":[-104.5733,39.0958]},"properties":{"s":66.7,"pub":false}},{"type":"Feature","geometry":{"type":"Point","coordinates":[-104.5733,39.1016]},"properties":{"s":100.0,"pub":false}},{"type":"Feature","geometry":{"type":"Point","coordinates":[-104.5733,39.1074]},"properties":{"s":100.0,"pub":false}},{"type":"Feature","geometry":{"type":"Point","coordinates":[-104.5733,39.1132]},"properties":{"s":100.0,"pub":false}},{"type":"Feature","geometry":{"type":"Point","coordinates":[-104.5733,39.119]},"properties":{"s":100.0,"pub":false}},{"type":"Feature","geometry":{"type":"Point","coordinates":[-104.5733,39.1248]},"properties":{"s":100.0,"pub":false}},{"type":"Feature","geometry":{"type":"Point","coordinates":[-104.5658,39.0958]},"properties":{"s":66.7,"pub":false}},{"type":"Feature","geometry":{"type":"Point","coordinates":[-104.5658,39.1016]},"properties":{"s":100.0,"pub":false}},{"type":"Feature","geometry":{"type":"Point","coordinates":[-104.5658,39.1074]},"properties":{"s":100.0,"pub":false}},{"type":"Feature","geometry":{"type":"Point","coordinates":[-104.5658,39.1132]},"properties":{"s":100.0,"pub":false}},{"type":"Feature","geometry":{"type":"Point","coordinates":[-104.5658,39.119]},"properties":{"s":100.0,"pub":false}},{"type":"Feature","geometry":{"type":"Point","coordinates":[-104.5658,39.1248]},"properties":{"s":100.0,"pub":false}},{"type":"Feature","geometry":{"type":"Point","coordinates":[-104.5583,39.0958]},"properties":{"s":66.7,"pub":false}},{"type":"Feature","geometry":{"type":"Point","coordinates":[-104.5583,39.1016]},"properties":{"s":66.7,"pub":false}},{"type":"Feature","geometry":{"type":"Point","coordinates":[-104.5583,39.1074]},"properties":{"s":100.0,"pub":false}},{"type":"Feature","geometry":{"type":"Point","coordinates":[-104.5583,39.1132]},"properties":{"s":100.0,"pub":false}},{"type":"Feature","geometry":{"type":"Point","coordinates":[-104.5583,39.119]},"properties":{"s":100.0,"pub":false}},{"type":"Feature","geometry":{"type":"Point","coordinates":[-104.5583,39.1248]},"properties":{"s":70.4,"pub":false}},{"type":"Feature","geometry":{"type":"Point","coordinates":[-104.5508,39.0958]},"properties":{"s":66.7,"pub":false}},{"type":"Feature","geometry":{"type":"Point","coordinates":[-104.5508,39.1016]},"properties":{"s":66.7,"pub":false}},{"type":"Feature","geometry":{"type":"Point","coordinates":[-104.5508,39.1074]},"properties":{"s":70.4,"pub":false}},{"type":"Feature","geometry":{"type":"Point","coordinates":[-104.5508,39.1132]},"properties":{"s":70.4,"pub":false}},{"type":"Feature","geometry":{"type":"Point","coordinates":[-104.5508,39.119]},"properties":{"s":70.4,"pub":false}},{"type":"Feature","geometry":{"type":"Point","coordinates":[-104.5508,39.1248]},"properties":{"s":70.4,"pub":false}},{"type":"Feature","geometry":{"type":"Point","coordinates":[-104.5433,39.09]},"properties":{"s":44.4,"pub":false}},{"type":"Feature","geometry":{"type":"Point","coordinates":[-104.5433,39.0958]},"properties":{"s":44.4,"pub":false}},{"type":"Feature","geometry":{"type":"Point","coordinates":[-104.5433,39.1016]},"properties":{"s":70.4,"pub":false}},{"type":"Feature","geometry":{"type":"Point","coordinates":[-104.5433,39.1074]},"properties":{"s":70.4,"pub":false}},{"type":"Feature","geometry":{"type":"Point","coordinates":[-104.5433,39.1132]},"properties":{"s":70.4,"pub":false}},{"type":"Feature","geometry":{"type":"Point","coordinates":[-104.5433,39.119]},"properties":{"s":70.4,"pub":false}},{"type":"Feature","geometry":{"type":"Point","coordinates":[-104.5433,39.1248]},"properties":{"s":70.4,"pub":false}},{"type":"Feature","geometry":{"type":"Point","coordinates":[-104.5358,39.0842]},"properties":{"s":44.4,"pub":false}},{"type":"Feature","geometry":{"type":"Point","coordinates":[-104.5358,39.09]},"properties":{"s":44.4,"pub":false}},{"type":"Feature","geometry":{"type":"Point","coordinates":[-104.5358,39.0958]},"properties":{"s":44.4,"pub":false}},{"type":"Feature","geometry":{"type":"Point","coordinates":[-104.5358,39.1016]},"properties":{"s":48.1,"pub":false}},{"type":"Feature","geometry":{"type":"Point","coordinates":[-104.5358,39.1074]},"properties":{"s":70.4,"pub":false}},{"type":"Feature","geometry":{"type":"Point","coordinates":[-104.5358,39.1132]},"properties":{"s":70.4,"pub":false}},{"type":"Feature","geometry":{"type":"Point","coordinates":[-104.5358,39.119]},"properties":{"s":70.4,"pub":false}},{"type":"Feature","geometry":{"type":"Point","coordinates":[-104.5358,39.1248]},"properties":{"s":70.4,"pub":false}},{"type":"Feature","geometry":{"type":"Point","coordinates":[-104.5283,39.0784]},"properties":{"s":44.4,"pub":false}},{"type":"Feature","geometry":{"type":"Point","coordinates":[-104.5283,39.0842]},"properties":{"s":44.4,"pub":false}},{"type":"Feature","geometry":{"type":"Point","coordinates":[-104.5283,39.09]},"properties":{"s":44.4,"pub":false}},{"type":"Feature","geometry":{"type":"Point","coordinates":[-104.5283,39.0958]},"properties":{"s":44.4,"pub":false}},{"type":"Feature","geometry":{"type":"Point","coordinates":[-104.5283,39.1016]},"properties":{"s":48.1,"pub":false}},{"type":"Feature","geometry":{"type":"Point","coordinates":[-104.5283,39.1074]},"properties":{"s":48.1,"pub":false}},{"type":"Feature","geometry":{"type":"Point","coordinates":[-104.5283,39.1132]},"properties":{"s":70.4,"pub":false}},{"type":"Feature","geometry":{"type":"Point","coordinates":[-104.5283,39.119]},"properties":{"s":70.4,"pub":false}},{"type":"Feature","geometry":{"type":"Point","coordinates":[-104.5283,39.1248]},"properties":{"s":70.4,"pub":false}},{"type":"Feature","geometry":{"type":"Point","coordinates":[-104.5208,39.0726]},"properties":{"s":44.4,"pub":false}},{"type":"Feature","geometry":{"type":"Point","coordinates":[-104.5208,39.0784]},"properties":{"s":44.4,"pub":false}},{"type":"Feature","geometry":{"type":"Point","coordinates":[-104.5208,39.0842]},"properties":{"s":44.4,"pub":false}},{"type":"Feature","geometry":{"type":"Point","coordinates":[-104.5208,39.09]},"properties":{"s":44.4,"pub":false}},{"type":"Feature","geometry":{"type":"Point","coordinates":[-104.5208,39.0958]},"properties":{"s":48.1,"pub":false}},{"type":"Feature","geometry":{"type":"Point","coordinates":[-104.5208,39.1016]},"properties":{"s":48.1,"pub":false}},{"type":"Feature","geometry":{"type":"Point","coordinates":[-104.5208,39.1074]},"properties":{"s":48.1,"pub":false}},{"type":"Feature","geometry":{"type":"Point","coordinates":[-104.5208,39.1132]},"properties":{"s":48.1,"pub":false}},{"type":"Feature","geometry":{"type":"Point","coordinates":[-104.5208,39.119]},"properties":{"s":48.1,"pub":false}},{"type":"Feature","geometry":{"type":"Point","coordinates":[-104.5208,39.1248]},"properties":{"s":70.4,"pub":false}},{"type":"Feature","geometry":{"type":"Point","coordinates":[-104.5133,39.0668]},"properties":{"s":44.4,"pub":false}},{"type":"Feature","geometry":{"type":"Point","coordinates":[-104.5133,39.0726]},"properties":{"s":44.4,"pub":false}},{"type":"Feature","geometry":{"type":"Point","coordinates":[-104.5133,39.0784]},"properties":{"s":44.4,"pub":false}},{"type":"Feature","geometry":{"type":"Point","coordinates":[-104.5133,39.0842]},"properties":{"s":44.4,"pub":false}},{"type":"Feature","geometry":{"type":"Point","coordinates":[-104.5133,39.09]},"properties":{"s":44.4,"pub":false}},{"type":"Feature","geometry":{"type":"Point","coordinates":[-104.5133,39.0958]},"properties":{"s":48.1,"pub":false}},{"type":"Feature","geometry":{"type":"Point","coordinates":[-104.5133,39.1016]},"properties":{"s":48.1,"pub":false}},{"type":"Feature","geometry":{"type":"Point","coordinates":[-104.5133,39.1074]},"properties":{"s":48.1,"pub":false}},{"type":"Feature","geometry":{"type":"Point","coordinates":[-104.5133,39.1132]},"properties":{"s":48.1,"pub":false}},{"type":"Feature","geometry":{"type":"Point","coordinates":[-104.5133,39.119]},"properties":{"s":48.1,"pub":false}},{"type":"Feature","geometry":{"type":"Point","coordinates":[-104.5133,39.1248]},"properties":{"s":48.1,"pub":false}},{"type":"Feature","geometry":{"type":"Point","coordinates":[-104.5058,39.0668]},"properties":{"s":44.4,"pub":false}},{"type":"Feature","geometry":{"type":"Point","coordinates":[-104.5058,39.0726]},"properties":{"s":44.4,"pub":false}},{"type":"Feature","geometry":{"type":"Point","coordinates":[-104.5058,39.0784]},"properties":{"s":44.4,"pub":false}},{"type":"Feature","geometry":{"type":"Point","coordinates":[-104.5058,39.0842]},"properties":{"s":44.4,"pub":false}},{"type":"Feature","geometry":{"type":"Point","coordinates":[-104.5058,39.09]},"properties":{"s":48.1,"pub":false}},{"type":"Feature","geometry":{"type":"Point","coordinates":[-104.5058,39.0958]},"properties":{"s":48.1,"pub":false}},{"type":"Feature","geometry":{"type":"Point","coordinates":[-104.5058,39.1016]},"properties":{"s":48.1,"pub":false}},{"type":"Feature","geometry":{"type":"Point","coordinates":[-104.5058,39.1074]},"properties":{"s":48.1,"pub":false}},{"type":"Feature","geometry":{"type":"Point","coordinates":[-104.5058,39.1132]},"properties":{"s":48.1,"pub":false}},{"type":"Feature","geometry":{"type":"Point","coordinates":[-104.5058,39.119]},"properties":{"s":48.1,"pub":false}},{"type":"Feature","geometry":{"type":"Point","coordinates":[-104.5058,39.1248]},"properties":{"s":48.1,"pub":false}},{"type":"Feature","geometry":{"type":"Point","coordinates":[-104.4983,39.0668]},"properties":{"s":44.4,"pub":false}},{"type":"Feature","geometry":{"type":"Point","coordinates":[-104.4983,39.0726]},"properties":{"s":44.4,"pub":false}},{"type":"Feature","geometry":{"type":"Point","coordinates":[-104.4983,39.0784]},"properties":{"s":44.4,"pub":false}},{"type":"Feature","geometry":{"type":"Point","coordinates":[-104.4983,39.0842]},"properties":{"s":44.4,"pub":false}},{"type":"Feature","geometry":{"type":"Point","coordinates":[-104.4983,39.09]},"properties":{"s":48.1,"pub":false}},{"type":"Feature","geometry":{"type":"Point","coordinates":[-104.4983,39.0958]},"properties":{"s":48.1,"pub":false}},{"type":"Feature","geometry":{"type":"Point","coordinates":[-104.4983,39.1016]},"properties":{"s":48.1,"pub":false}},{"type":"Feature","geometry":{"type":"Point","coordinates":[-104.4983,39.1074]},"properties":{"s":48.1,"pub":false}},{"type":"Feature","geometry":{"type":"Point","coordinates":[-104.4983,39.1132]},"properties":{"s":48.1,"pub":false}},{"type":"Feature","geometry":{"type":"Point","coordinates":[-104.4983,39.119]},"properties":{"s":48.1,"pub":false}},{"type":"Feature","geometry":{"type":"Point","coordinates":[-104.4983,39.1248]},"properties":{"s":48.1,"pub":false}},{"type":"Feature","geometry":{"type":"Point","coordinates":[-104.4908,39.0668]},"properties":{"s":44.4,"pub":false}},{"type":"Feature","geometry":{"type":"Point","coordinates":[-104.4908,39.0726]},"properties":{"s":44.4,"pub":false}},{"type":"Feature","geometry":{"type":"Point","coordinates":[-104.4908,39.0784]},"properties":{"s":44.4,"pub":false}},{"type":"Feature","geometry":{"type":"Point","coordinates":[-104.4908,39.0842]},"properties":{"s":44.4,"pub":false}},{"type":"Feature","geometry":{"type":"Point","coordinates":[-104.4908,39.09]},"properties":{"s":48.1,"pub":false}},{"type":"Feature","geometry":{"type":"Point","coordinates":[-104.4908,39.0958]},"properties":{"s":48.1,"pub":false}},{"type":"Feature","geometry":{"type":"Point","coordinates":[-104.4908,39.1016]},"properties":{"s":48.1,"pub":false}},{"type":"Feature","geometry":{"type":"Point","coordinates":[-104.4908,39.1074]},"properties":{"s":48.1,"pub":false}},{"type":"Feature","geometry":{"type":"Point","coordinates":[-104.4908,39.1132]},"properties":{"s":48.1,"pub":false}},{"type":"Feature","geometry":{"type":"Point","coordinates":[-104.4908,39.119]},"properties":{"s":48.1,"pub":false}},{"type":"Feature","geometry":{"type":"Point","coordinates":[-104.4908,39.1248]},"properties":{"s":48.1,"pub":false}},{"type":"Feature","geometry":{"type":"Point","coordinates":[-104.4833,39.0668]},"properties":{"s":44.4,"pub":false}},{"type":"Feature","geometry":{"type":"Point","coordinates":[-104.4833,39.0726]},"properties":{"s":44.4,"pub":false}},{"type":"Feature","geometry":{"type":"Point","coordinates":[-104.4833,39.0784]},"properties":{"s":44.4,"pub":false}},{"type":"Feature","geometry":{"type":"Point","coordinates":[-104.4833,39.0842]},"properties":{"s":44.4,"pub":false}},{"type":"Feature","geometry":{"type":"Point","coordinates":[-104.4833,39.09]},"properties":{"s":48.1,"pub":false}},{"type":"Feature","geometry":{"type":"Point","coordinates":[-104.4833,39.0958]},"properties":{"s":48.1,"pub":false}},{"type":"Feature","geometry":{"type":"Point","coordinates":[-104.4833,39.1016]},"properties":{"s":48.1,"pub":false}},{"type":"Feature","geometry":{"type":"Point","coordinates":[-104.4833,39.1074]},"properties":{"s":48.1,"pub":false}},{"type":"Feature","geometry":{"type":"Point","coordinates":[-104.4833,39.1132]},"properties":{"s":48.1,"pub":false}},{"type":"Feature","geometry":{"type":"Point","coordinates":[-104.4833,39.119]},"properties":{"s":48.1,"pub":false}},{"type":"Feature","geometry":{"type":"Point","coordinates":[-104.4833,39.1248]},"properties":{"s":48.1,"pub":false}},{"type":"Feature","geometry":{"type":"Point","coordinates":[-104.4758,39.0668]},"properties":{"s":44.4,"pub":false}},{"type":"Feature","geometry":{"type":"Point","coordinates":[-104.4758,39.0726]},"properties":{"s":44.4,"pub":false}},{"type":"Feature","geometry":{"type":"Point","coordinates":[-104.4758,39.0784]},"properties":{"s":44.4,"pub":false}},{"type":"Feature","geometry":{"type":"Point","coordinates":[-104.4758,39.0842]},"properties":{"s":44.4,"pub":false}},{"type":"Feature","geometry":{"type":"Point","coordinates":[-104.4758,39.09]},"properties":{"s":48.1,"pub":false}},{"type":"Feature","geometry":{"type":"Point","coordinates":[-104.4758,39.0958]},"properties":{"s":48.1,"pub":false}},{"type":"Feature","geometry":{"type":"Point","coordinates":[-104.4758,39.1016]},"properties":{"s":48.1,"pub":false}},{"type":"Feature","geometry":{"type":"Point","coordinates":[-104.4758,39.1074]},"properties":{"s":48.1,"pub":false}},{"type":"Feature","geometry":{"type":"Point","coordinates":[-104.4758,39.1132]},"properties":{"s":48.1,"pub":false}},{"type":"Feature","geometry":{"type":"Point","coordinates":[-104.4758,39.119]},"properties":{"s":48.1,"pub":false}},{"type":"Feature","geometry":{"type":"Point","coordinates":[-104.4758,39.1248]},"properties":{"s":48.1,"pub":false}},{"type":"Feature","geometry":{"type":"Point","coordinates":[-104.4683,39.0668]},"properties":{"s":44.4,"pub":false}},{"type":"Feature","geometry":{"type":"Point","coordinates":[-104.4683,39.0726]},"properties":{"s":44.4,"pub":false}},{"type":"Feature","geometry":{"type":"Point","coordinates":[-104.4683,39.0784]},"properties":{"s":44.4,"pub":false}},{"type":"Feature","geometry":{"type":"Point","coordinates":[-104.4683,39.0842]},"properties":{"s":44.4,"pub":false}},{"type":"Feature","geometry":{"type":"Point","coordinates":[-104.4683,39.09]},"properties":{"s":48.1,"pub":false}},{"type":"Feature","geometry":{"type":"Point","coordinates":[-104.4683,39.0958]},"properties":{"s":48.1,"pub":false}},{"type":"Feature","geometry":{"type":"Point","coordinates":[-104.4683,39.1016]},"properties":{"s":48.1,"pub":false}},{"type":"Feature","geometry":{"type":"Point","coordinates":[-104.4683,39.1074]},"properties":{"s":48.1,"pub":false}},{"type":"Feature","geometry":{"type":"Point","coordinates":[-104.4683,39.1132]},"properties":{"s":48.1,"pub":false}},{"type":"Feature","geometry":{"type":"Point","coordinates":[-104.4683,39.119]},"properties":{"s":48.1,"pub":false}},{"type":"Feature","geometry":{"type":"Point","coordinates":[-104.4683,39.1248]},"properties":{"s":48.1,"pub":false}},{"type":"Feature","geometry":{"type":"Point","coordinates":[-104.4608,39.0726]},"properties":{"s":44.4,"pub":false}},{"type":"Feature","geometry":{"type":"Point","coordinates":[-104.4608,39.0784]},"properties":{"s":44.4,"pub":false}},{"type":"Feature","geometry":{"type":"Point","coordinates":[-104.4608,39.0842]},"properties":{"s":44.4,"pub":false}},{"type":"Feature","geometry":{"type":"Point","coordinates":[-104.4608,39.09]},"properties":{"s":48.1,"pub":false}},{"type":"Feature","geometry":{"type":"Point","coordinates":[-104.4608,39.0958]},"properties":{"s":48.1,"pub":false}},{"type":"Feature","geometry":{"type":"Point","coordinates":[-104.4608,39.1016]},"properties":{"s":48.1,"pub":false}},{"type":"Feature","geometry":{"type":"Point","coordinates":[-104.4608,39.1074]},"properties":{"s":48.1,"pub":false}},{"type":"Feature","geometry":{"type":"Point","coordinates":[-104.4608,39.1132]},"properties":{"s":48.1,"pub":false}},{"type":"Feature","geometry":{"type":"Point","coordinates":[-104.4608,39.119]},"properties":{"s":48.1,"pub":false}},{"type":"Feature","geometry":{"type":"Point","coordinates":[-104.4608,39.1248]},"properties":{"s":48.1,"pub":false}},{"type":"Feature","geometry":{"type":"Point","coordinates":[-104.4533,39.0726]},"properties":{"s":44.4,"pub":false}},{"type":"Feature","geometry":{"type":"Point","coordinates":[-104.4533,39.0784]},"properties":{"s":44.4,"pub":false}},{"type":"Feature","geometry":{"type":"Point","coordinates":[-104.4533,39.0842]},"properties":{"s":44.4,"pub":false}},{"type":"Feature","geometry":{"type":"Point","coordinates":[-104.4533,39.09]},"properties":{"s":44.4,"pub":true}},{"type":"Feature","geometry":{"type":"Point","coordinates":[-104.4533,39.0958]},"properties":{"s":48.1,"pub":true}},{"type":"Feature","geometry":{"type":"Point","coordinates":[-104.4533,39.1016]},"properties":{"s":48.1,"pub":false}},{"type":"Feature","geometry":{"type":"Point","coordinates":[-104.4533,39.1074]},"properties":{"s":48.1,"pub":false}},{"type":"Feature","geometry":{"type":"Point","coordinates":[-104.4533,39.1132]},"properties":{"s":48.1,"pub":false}},{"type":"Feature","geometry":{"type":"Point","coordinates":[-104.4533,39.119]},"properties":{"s":48.1,"pub":false}},{"type":"Feature","geometry":{"type":"Point","coordinates":[-104.4533,39.1248]},"properties":{"s":48.1,"pub":false}},{"type":"Feature","geometry":{"type":"Point","coordinates":[-104.4458,39.0726]},"properties":{"s":44.4,"pub":false}},{"type":"Feature","geometry":{"type":"Point","coordinates":[-104.4458,39.0784]},"properties":{"s":44.4,"pub":false}},{"type":"Feature","geometry":{"type":"Point","coordinates":[-104.4458,39.0842]},"properties":{"s":44.4,"pub":false}},{"type":"Feature","geometry":{"type":"Point","coordinates":[-104.4458,39.09]},"properties":{"s":44.4,"pub":true}},{"type":"Feature","geometry":{"type":"Point","coordinates":[-104.4458,39.0958]},"properties":{"s":48.1,"pub":true}},{"type":"Feature","geometry":{"type":"Point","coordinates":[-104.4458,39.1016]},"properties":{"s":48.1,"pub":false}},{"type":"Feature","geometry":{"type":"Point","coordinates":[-104.4458,39.1074]},"properties":{"s":48.1,"pub":false}},{"type":"Feature","geometry":{"type":"Point","coordinates":[-104.4458,39.1132]},"properties":{"s":48.1,"pub":false}},{"type":"Feature","geometry":{"type":"Point","coordinates":[-104.4458,39.119]},"properties":{"s":48.1,"pub":false}},{"type":"Feature","geometry":{"type":"Point","coordinates":[-104.4458,39.1248]},"properties":{"s":48.1,"pub":false}},{"type":"Feature","geometry":{"type":"Point","coordinates":[-104.4383,39.0784]},"properties":{"s":44.4,"pub":false}},{"type":"Feature","geometry":{"type":"Point","coordinates":[-104.4383,39.0842]},"properties":{"s":44.4,"pub":false}},{"type":"Feature","geometry":{"type":"Point","coordinates":[-104.4383,39.09]},"properties":{"s":44.4,"pub":false}},{"type":"Feature","geometry":{"type":"Point","coordinates":[-104.4383,39.0958]},"properties":{"s":44.4,"pub":false}},{"type":"Feature","geometry":{"type":"Point","coordinates":[-104.4383,39.1016]},"properties":{"s":48.1,"pub":false}},{"type":"Feature","geometry":{"type":"Point","coordinates":[-104.4383,39.1074]},"properties":{"s":48.1,"pub":false}},{"type":"Feature","geometry":{"type":"Point","coordinates":[-104.4383,39.1132]},"properties":{"s":48.1,"pub":false}},{"type":"Feature","geometry":{"type":"Point","coordinates":[-104.4383,39.119]},"properties":{"s":48.1,"pub":false}},{"type":"Feature","geometry":{"type":"Point","coordinates":[-104.4383,39.1248]},"properties":{"s":48.1,"pub":false}},{"type":"Feature","geometry":{"type":"Point","coordinates":[-104.4308,39.0784]},"properties":{"s":44.4,"pub":false}},{"type":"Feature","geometry":{"type":"Point","coordinates":[-104.4308,39.0842]},"properties":{"s":44.4,"pub":false}},{"type":"Feature","geometry":{"type":"Point","coordinates":[-104.4308,39.09]},"properties":{"s":44.4,"pub":false}},{"type":"Feature","geometry":{"type":"Point","coordinates":[-104.4308,39.0958]},"properties":{"s":44.4,"pub":false}},{"type":"Feature","geometry":{"type":"Point","coordinates":[-104.4308,39.1016]},"properties":{"s":48.1,"pub":false}},{"type":"Feature","geometry":{"type":"Point","coordinates":[-104.4308,39.1074]},"properties":{"s":48.1,"pub":false}},{"type":"Feature","geometry":{"type":"Point","coordinates":[-104.4308,39.1132]},"properties":{"s":48.1,"pub":false}},{"type":"Feature","geometry":{"type":"Point","coordinates":[-104.4308,39.119]},"properties":{"s":48.1,"pub":false}},{"type":"Feature","geometry":{"type":"Point","coordinates":[-104.4308,39.1248]},"properties":{"s":48.1,"pub":false}},{"type":"Feature","geometry":{"type":"Point","coordinates":[-104.4233,39.0842]},"properties":{"s":44.4,"pub":false}},{"type":"Feature","geometry":{"type":"Point","coordinates":[-104.4233,39.09]},"properties":{"s":44.4,"pub":false}},{"type":"Feature","geometry":{"type":"Point","coordinates":[-104.4233,39.0958]},"properties":{"s":44.4,"pub":false}},{"type":"Feature","geometry":{"type":"Point","coordinates":[-104.4233,39.1016]},"properties":{"s":44.4,"pub":false}},{"type":"Feature","geometry":{"type":"Point","coordinates":[-104.4233,39.1074]},"properties":{"s":44.4,"pub":false}},{"type":"Feature","geometry":{"type":"Point","coordinates":[-104.4233,39.1132]},"properties":{"s":48.1,"pub":false}},{"type":"Feature","geometry":{"type":"Point","coordinates":[-104.4233,39.119]},"properties":{"s":48.1,"pub":false}},{"type":"Feature","geometry":{"type":"Point","coordinates":[-104.4233,39.1248]},"properties":{"s":48.1,"pub":false}},{"type":"Feature","geometry":{"type":"Point","coordinates":[-104.4158,39.0842]},"properties":{"s":44.4,"pub":false}},{"type":"Feature","geometry":{"type":"Point","coordinates":[-104.4158,39.09]},"properties":{"s":44.4,"pub":false}},{"type":"Feature","geometry":{"type":"Point","coordinates":[-104.4158,39.0958]},"properties":{"s":44.4,"pub":false}},{"type":"Feature","geometry":{"type":"Point","coordinates":[-104.4158,39.1016]},"properties":{"s":44.4,"pub":false}},{"type":"Feature","geometry":{"type":"Point","coordinates":[-104.4158,39.1074]},"properties":{"s":44.4,"pub":false}},{"type":"Feature","geometry":{"type":"Point","coordinates":[-104.4158,39.1132]},"properties":{"s":44.4,"pub":false}},{"type":"Feature","geometry":{"type":"Point","coordinates":[-104.4158,39.119]},"properties":{"s":48.1,"pub":false}},{"type":"Feature","geometry":{"type":"Point","coordinates":[-104.4158,39.1248]},"properties":{"s":48.1,"pub":false}},{"type":"Feature","geometry":{"type":"Point","coordinates":[-104.4083,39.09]},"properties":{"s":44.4,"pub":false}},{"type":"Feature","geometry":{"type":"Point","coordinates":[-104.4083,39.0958]},"properties":{"s":44.4,"pub":false}},{"type":"Feature","geometry":{"type":"Point","coordinates":[-104.4083,39.1016]},"properties":{"s":44.4,"pub":false}},{"type":"Feature","geometry":{"type":"Point","coordinates":[-104.4083,39.1074]},"properties":{"s":44.4,"pub":false}},{"type":"Feature","geometry":{"type":"Point","coordinates":[-104.4083,39.1132]},"properties":{"s":44.4,"pub":false}},{"type":"Feature","geometry":{"type":"Point","coordinates":[-104.4083,39.119]},"properties":{"s":44.4,"pub":false}},{"type":"Feature","geometry":{"type":"Point","coordinates":[-104.4083,39.1248]},"properties":{"s":44.4,"pub":false}},{"type":"Feature","geometry":{"type":"Point","coordinates":[-104.4008,39.0958]},"properties":{"s":44.4,"pub":false}},{"type":"Feature","geometry":{"type":"Point","coordinates":[-104.4008,39.1016]},"properties":{"s":44.4,"pub":false}},{"type":"Feature","geometry":{"type":"Point","coordinates":[-104.4008,39.1074]},"properties":{"s":44.4,"pub":false}},{"type":"Feature","geometry":{"type":"Point","coordinates":[-104.4008,39.1132]},"properties":{"s":44.4,"pub":false}},{"type":"Feature","geometry":{"type":"Point","coordinates":[-104.4008,39.119]},"properties":{"s":44.4,"pub":false}},{"type":"Feature","geometry":{"type":"Point","coordinates":[-104.4008,39.1248]},"properties":{"s":44.4,"pub":false}},{"type":"Feature","geometry":{"type":"Point","coordinates":[-104.3933,39.1132]},"properties":{"s":44.4,"pub":false}},{"type":"Feature","geometry":{"type":"Point","coordinates":[-104.3933,39.119]},"properties":{"s":44.4,"pub":false}},{"type":"Feature","geometry":{"type":"Point","coordinates":[-104.3933,39.1248]},"properties":{"s":44.4,"pub":false}}]}