{"type":"FeatureCollection","features":[{"type":"Feature","geometry":{"type":"Point","coordinates":[-104.6936,38.6464]},"properties":{"s":36.8,"pub":false}},{"type":"Feature","geometry":{"type":"Point","coordinates":[-104.6861,38.6174]},"properties":{"s":100.0,"pub":false}},{"type":"Feature","geometry":{"type":"Point","coordinates":[-104.6861,38.6232]},"properties":{"s":36.8,"pub":false}},{"type":"Feature","geometry":{"type":"Point","coordinates":[-104.6861,38.629]},"properties":{"s":36.8,"pub":false}},{"type":"Feature","geometry":{"type":"Point","coordinates":[-104.6861,38.6348]},"properties":{"s":36.8,"pub":false}},{"type":"Feature","geometry":{"type":"Point","coordinates":[-104.6861,38.6406]},"properties":{"s":36.8,"pub":false}},{"type":"Feature","geometry":{"type":"Point","coordinates":[-104.6861,38.6464]},"properties":{"s":36.8,"pub":false}},{"type":"Feature","geometry":{"type":"Point","coordinates":[-104.6786,38.6058]},"properties":{"s":100.0,"pub":false}},{"type":"Feature","geometry":{"type":"Point","coordinates":[-104.6786,38.6116]},"properties":{"s":100.0,"pub":false}},{"type":"Feature","geometry":{"type":"Point","coordinates":[-104.6786,38.6174]},"properties":{"s":36.8,"pub":false}},{"type":"Feature","geometry":{"type":"Point","coordinates":[-104.6786,38.6232]},"properties":{"s":36.8,"pub":false}},{"type":"Feature","geometry":{"type":"Point","coordinates":[-104.6786,38.629]},"properties":{"s":36.8,"pub":false}},{"type":"Feature","geometry":{"type":"Point","coordinates":[-104.6786,38.6348]},"properties":{"s":36.8,"pub":false}},{"type":"Feature","geometry":{"type":"Point","coordinates":[-104.6711,38.5942]},"properties":{"s":100.0,"pub":false}},{"type":"Feature","geometry":{"type":"Point","coordinates":[-104.6711,38.6]},"properties":{"s":100.0,"pub":false}},{"type":"Feature","geometry":{"type":"Point","coordinates":[-104.6711,38.6058]},"properties":{"s":100.0,"pub":false}},{"type":"Feature","geometry":{"type":"Point","coordinates":[-104.6711,38.6116]},"properties":{"s":36.8,"pub":false}},{"type":"Feature","geometry":{"type":"Point","coordinates":[-104.6711,38.6174]},"properties":{"s":36.8,"pub":false}},{"type":"Feature","geometry":{"type":"Point","coordinates":[-104.6711,38.6232]},"properties":{"s":36.8,"pub":false}},{"type":"Feature","geometry":{"type":"Point","coordinates":[-104.6636,38.6058]},"properties":{"s":36.8,"pub":false}},{"type":"Feature","geometry":{"type":"Point","coordinates":[-104.6636,38.6116]},"properties":{"s":36.8,"pub":false}}]}