{"type":"FeatureCollection","features":[{"type":"Feature","geometry":{"type":"Point","coordinates":[-104.6627,38.5828]},"properties":{"s":70.4,"pub":false}},{"type":"Feature","geometry":{"type":"Point","coordinates":[-104.6627,38.5886]},"properties":{"s":70.4,"pub":false}},{"type":"Feature","geometry":{"type":"Point","coordinates":[-104.6627,38.5944]},"properties":{"s":70.4,"pub":false}},{"type":"Feature","geometry":{"type":"Point","coordinates":[-104.6552,38.5712]},"properties":{"s":100.0,"pub":false}},{"type":"Feature","geometry":{"type":"Point","coordinates":[-104.6552,38.577]},"properties":{"s":100.0,"pub":false}},{"type":"Feature","geometry":{"type":"Point","coordinates":[-104.6552,38.5828]},"properties":{"s":70.4,"pub":false}},{"type":"Feature","geometry":{"type":"Point","coordinates":[-104.6552,38.5886]},"properties":{"s":70.4,"pub":false}},{"type":"Feature","geometry":{"type":"Point","coordinates":[-104.6552,38.5944]},"properties":{"s":66.7,"pub":false}},{"type":"Feature","geometry":{"type":"Point","coordinates":[-104.6477,38.5538]},"properties":{"s":100.0,"pub":false}},{"type":"Feature","geometry":{"type":"Point","coordinates":[-104.6477,38.5596]},"properties":{"s":100.0,"pub":false}},{"type":"Feature","geometry":{"type":"Point","coordinates":[-104.6477,38.5654]},"properties":{"s":100.0,"pub":false}},{"type":"Feature","geometry":{"type":"Point","coordinates":[-104.6477,38.5712]},"properties":{"s":70.4,"pub":false}},{"type":"Feature","geometry":{"type":"Point","coordinates":[-104.6477,38.577]},"properties":{"s":70.4,"pub":false}},{"type":"Feature","geometry":{"type":"Point","coordinates":[-104.6477,38.5828]},"properties":{"s":44.4,"pub":false}},{"type":"Feature","geometry":{"type":"Point","coordinates":[-104.6402,38.5422]},"properties":{"s":100.0,"pub":false}},{"type":"Feature","geometry":{"type":"Point","coordinates":[-104.6402,38.548]},"properties":{"s":100.0,"pub":false}},{"type":"Feature","geometry":{"type":"Point","coordinates":[-104.6402,38.5538]},"properties":{"s":100.0,"pub":false}},{"type":"Feature","geometry":{"type":"Point","coordinates":[-104.6402,38.5596]},"properties":{"s":100.0,"pub":false}},{"type":"Feature","geometry":{"type":"Point","coordinates":[-104.6402,38.5654]},"properties":{"s":70.4,"pub":false}},{"type":"Feature","geometry":{"type":"Point","coordinates":[-104.6402,38.5712]},"properties":{"s":70.4,"pub":false}},{"type":"Feature","geometry":{"type":"Point","coordinates":[-104.6327,38.5248]},"properties":{"s":70.4,"pub":false}},{"type":"Feature","geometry":{"type":"Point","coordinates":[-104.6327,38.5306]},"properties":{"s":100.0,"pub":false}},{"type":"Feature","geometry":{"type":"Point","coordinates":[-104.6327,38.5364]},"properties":{"s":100.0,"pub":false}},{"type":"Feature","geometry":{"type":"Point","coordinates":[-104.6327,38.5422]},"properties":{"s":100.0,"pub":false}},{"type":"Feature","geometry":{"type":"Point","coordinates":[-104.6327,38.548]},"properties":{"s":70.4,"pub":false}},{"type":"Feature","geometry":{"type":"Point","coordinates":[-104.6327,38.5538]},"properties":{"s":70.4,"pub":false}},{"type":"Feature","geometry":{"type":"Point","coordinates":[-104.6327,38.5596]},"properties":{"s":48.1,"pub":false}},{"type":"Feature","geometry":{"type":"Point","coordinates":[-104.6327,38.5654]},"properties":{"s":44.4,"pub":false}},{"type":"Feature","geometry":{"type":"Point","coordinates":[-104.6252,38.5074]},"properties":{"s":44.4,"pub":false}},{"type":"Feature","geometry":{"type":"Point","coordinates":[-104.6252,38.5132]},"properties":{"s":44.4,"pub":false}},{"type":"Feature","geometry":{"type":"Point","coordinates":[-104.6252,38.519]},"properties":{"s":100.0,"pub":false}},{"type":"Feature","geometry":{"type":"Point","coordinates":[-104.6252,38.5248]},"properties":{"s":100.0,"pub":false}},{"type":"Feature","geometry":{"type":"Point","coordinates":[-104.6252,38.5306]},"properties":{"s":100.0,"pub":false}},{"type":"Feature","geometry":{"type":"Point","coordinates":[-104.6252,38.5364]},"properties":{"s":70.4,"pub":false}},{"type":"Feature","geometry":{"type":"Point","coordinates":[-104.6252,38.5422]},"properties":{"s":70.4,"pub":false}},{"type":"Feature","geometry":{"type":"Point","coordinates":[-104.6252,38.548]},"properties":{"s":48.1,"pub":false}},{"type":"Feature","geometry":{"type":"Point","coordinates":[-104.6177,38.49]},"properties":{"s":44.4,"pub":false}},{"type":"Feature","geometry":{"type":"Point","coordinates":[-104.6177,38.4958]},"properties":{"s":74.1,"pub":false}},{"type":"Feature","geometry":{"type":"Point","coordinates":[-104.6177,38.5016]},"properties":{"s":74.1,"pub":false}},{"type":"Feature","geometry":{"type":"Point","coordinates":[-104.6177,38.5074]},"properties":{"s":74.1,"pub":false}},{"type":"Feature","geometry":{"type":"Point","coordinates":[-104.6177,38.5132]},"properties":{"s":74.1,"pub":false}},{"type":"Feature","geometry":{"type":"Point","coordinates":[-104.6177,38.519]},"properties":{"s":100.0,"pub":false}},{"type":"Feature","geometry":{"type":"Point","coordinates":[-104.6177,38.5248]},"properties":{"s":70.4,"pub":false}},{"type":"Feature","geometry":{"type":"Point","coordinates":[-104.6177,38.5306]},"properties":{"s":70.4,"pub":true}},{"type":"Feature","geometry":{"type":"Point","coordinates":[-104.6177,38.5364]},"properties":{"s":48.1,"pub":false}},{"type":"Feature","geometry":{"type":"Point","coordinates":[-104.6102,38.3102]},"properties":{"s":44.4,"pub":false}},{"type":"Feature","geometry":{"type":"Point","coordinates":[-104.6102,38.316]},"properties":{"s":44.4,"pub":false}},{"type":"Feature","geometry":{"type":"Point","coordinates":[-104.6102,38.3218]},"properties":{"s":44.4,"pub":false}},{"type":"Feature","geometry":{"type":"Point","coordinates":[-104.6102,38.3276]},"properties":{"s":44.4,"pub":false}},{"type":"Feature","geometry":{"type":"Point","coordinates":[-104.6102,38.3334]},"properties":{"s":44.4,"pub":false}},{"type":"Feature","geometry":{"type":"Point","coordinates":[-104.6102,38.3392]},"properties":{"s":44.4,"pub":false}},{"type":"Feature","geometry":{"type":"Point","coordinates":[-104.6102,38.345]},"properties":{"s":44.4,"pub":false}},{"type":"Feature","geometry":{"type":"Point","coordinates":[-104.6102,38.3508]},"properties":{"s":44.4,"pub":false}},{"type":"Feature","geometry":{"type":"Point","coordinates":[-104.6102,38.3566]},"properties":{"s":44.4,"pub":false}},{"type":"Feature","geometry":{"type":"Point","coordinates":[-104.6102,38.3624]},"properties":{"s":44.4,"pub":false}},{"type":"Feature","geometry":{"type":"Point","coordinates":[-104.6102,38.3682]},"properties":{"s":44.4,"pub":false}},{"type":"Feature","geometry":{"type":"Point","coordinates":[-104.6102,38.374]},"properties":{"s":44.4,"pub":false}},{"type":"Feature","geometry":{"type":"Point","coordinates":[-104.6102,38.3798]},"properties":{"s":44.4,"pub":false}},{"type":"Feature","geometry":{"type":"Point","coordinates":[-104.6102,38.3856]},"properties":{"s":44.4,"pub":false}},{"type":"Feature","geometry":{"type":"Point","coordinates":[-104.6102,38.3914]},"properties":{"s":44.4,"pub":false}},{"type":"Feature","geometry":{"type":"Point","coordinates":[-104.6102,38.3972]},"properties":{"s":44.4,"pub":false}},{"type":"Feature","geometry":{"type":"Point","coordinates":[-104.6102,38.403]},"properties":{"s":44.4,"pub":false}},{"type":"Feature","geometry":{"type":"Point","coordinates":[-104.6102,38.4088]},"properties":{"s":44.4,"pub":false}},{"type":"Feature","geometry":{"type":"Point","coordinates":[-104.6102,38.4726]},"properties":{"s":74.1,"pub":false}},{"type":"Feature","geometry":{"type":"Point","coordinates":[-104.6102,38.4784]},"properties":{"s":74.1,"pub":false}},{"type":"Feature","geometry":{"type":"Point","coordinates":[-104.6102,38.4842]},"properties":{"s":74.1,"pub":false}},{"type":"Feature","geometry":{"type":"Point","coordinates":[-104.6102,38.49]},"properties":{"s":74.1,"pub":false}},{"type":"Feature","geometry":{"type":"Point","coordinates":[-104.6102,38.4958]},"properties":{"s":74.1,"pub":false}},{"type":"Feature","geometry":{"type":"Point","coordinates":[-104.6102,38.5016]},"properties":{"s":74.1,"pub":false}},{"type":"Feature","geometry":{"type":"Point","coordinates":[-104.6102,38.5074]},"properties":{"s":74.1,"pub":false}},{"type":"Feature","geometry":{"type":"Point","coordinates":[-104.6102,38.5132]},"properties":{"s":74.1,"pub":false}},{"type":"Feature","geometry":{"type":"Point","coordinates":[-104.6102,38.519]},"properties":{"s":77.8,"pub":false}},{"type":"Feature","geometry":{"type":"Point","coordinates":[-104.6102,38.5248]},"properties":{"s":48.1,"pub":false}},{"type":"Feature","geometry":{"type":"Point","coordinates":[-104.6027,38.2928]},"properties":{"s":44.4,"pub":false}},{"type":"Feature","geometry":{"type":"Point","coordinates":[-104.6027,38.2986]},"properties":{"s":44.4,"pub":false}},{"type":"Feature","geometry":{"type":"Point","coordinates":[-104.6027,38.3044]},"properties":{"s":44.4,"pub":false}},{"type":"Feature","geometry":{"type":"Point","coordinates":[-104.6027,38.3102]},"properties":{"s":44.4,"pub":false}},{"type":"Feature","geometry":{"type":"Point","coordinates":[-104.6027,38.316]},"properties":{"s":44.4,"pub":false}},{"type":"Feature","geometry":{"type":"Point","coordinates":[-104.6027,38.3218]},"properties":{"s":44.4,"pub":false}},{"type":"Feature","geometry":{"type":"Point","coordinates":[-104.6027,38.3856]},"properties":{"s":44.4,"pub":false}},{"type":"Feature","geometry":{"type":"Point","coordinates":[-104.6027,38.3914]},"properties":{"s":44.4,"pub":false}},{"type":"Feature","geometry":{"type":"Point","coordinates":[-104.6027,38.3972]},"properties":{"s":44.4,"pub":false}},{"type":"Feature","geometry":{"type":"Point","coordinates":[-104.6027,38.403]},"properties":{"s":44.4,"pub":false}},{"type":"Feature","geometry":{"type":"Point","coordinates":[-104.6027,38.4088]},"properties":{"s":44.4,"pub":false}},{"type":"Feature","geometry":{"type":"Point","coordinates":[-104.6027,38.4146]},"properties":{"s":44.4,"pub":false}},{"type":"Feature","geometry":{"type":"Point","coordinates":[-104.6027,38.4204]},"properties":{"s":44.4,"pub":false}},{"type":"Feature","geometry":{"type":"Point","coordinates":[-104.6027,38.4262]},"properties":{"s":44.4,"pub":false}},{"type":"Feature","geometry":{"type":"Point","coordinates":[-104.6027,38.432]},"properties":{"s":44.4,"pub":false}},{"type":"Feature","geometry":{"type":"Point","coordinates":[-104.6027,38.4378]},"properties":{"s":44.4,"pub":false}},{"type":"Feature","geometry":{"type":"Point","coordinates":[-104.6027,38.4436]},"properties":{"s":44.4,"pub":false}},{"type":"Feature","geometry":{"type":"Point","coordinates":[-104.6027,38.4494]},"properties":{"s":44.4,"pub":false}},{"type":"Feature","geometry":{"type":"Point","coordinates":[-104.6027,38.4552]},"properties":{"s":44.4,"pub":false}},{"type":"Feature","geometry":{"type":"Point","coordinates":[-104.6027,38.461]},"properties":{"s":44.4,"pub":false}},{"type":"Feature","geometry":{"type":"Point","coordinates":[-104.6027,38.4668]},"properties":{"s":44.4,"pub":false}},{"type":"Feature","geometry":{"type":"Point","coordinates":[-104.6027,38.4726]},"properties":{"s":74.1,"pub":false}},{"type":"Feature","geometry":{"type":"Point","coordinates":[-104.6027,38.4784]},"properties":{"s":74.1,"pub":false}},{"type":"Feature","geometry":{"type":"Point","coordinates":[-104.6027,38.4842]},"properties":{"s":74.1,"pub":false}},{"type":"Feature","geometry":{"type":"Point","coordinates":[-104.6027,38.49]},"properties":{"s":74.1,"pub":false}},{"type":"Feature","geometry":{"type":"Point","coordinates":[-104.6027,38.4958]},"properties":{"s":74.1,"pub":false}},{"type":"Feature","geometry":{"type":"Point","coordinates":[-104.6027,38.5016]},"properties":{"s":74.1,"pub":false}},{"type":"Feature","geometry":{"type":"Point","coordinates":[-104.6027,38.5074]},"properties":{"s":74.1,"pub":false}},{"type":"Feature","geometry":{"type":"Point","coordinates":[-104.6027,38.5132]},"properties":{"s":74.1,"pub":false}},{"type":"Feature","geometry":{"type":"Point","coordinates":[-104.5952,38.4146]},"properties":{"s":44.4,"pub":false}},{"type":"Feature","geometry":{"type":"Point","coordinates":[-104.5952,38.4204]},"properties":{"s":44.4,"pub":false}},{"type":"Feature","geometry":{"type":"Point","coordinates":[-104.5952,38.4262]},"properties":{"s":44.4,"pub":false}},{"type":"Feature","geometry":{"type":"Point","coordinates":[-104.5952,38.432]},"properties":{"s":44.4,"pub":false}},{"type":"Feature","geometry":{"type":"Point","coordinates":[-104.5952,38.4378]},"properties":{"s":44.4,"pub":false}},{"type":"Feature","geometry":{"type":"Point","coordinates":[-104.5952,38.4436]},"properties":{"s":44.4,"pub":false}},{"type":"Feature","geometry":{"type":"Point","coordinates":[-104.5952,38.4494]},"properties":{"s":44.4,"pub":false}},{"type":"Feature","geometry":{"type":"Point","coordinates":[-104.5952,38.4552]},"properties":{"s":44.4,"pub":false}},{"type":"Feature","geometry":{"type":"Point","coordinates":[-104.5952,38.461]},"properties":{"s":44.4,"pub":false}},{"type":"Feature","geometry":{"type":"Point","coordinates":[-104.5952,38.4668]},"properties":{"s":44.4,"pub":false}},{"type":"Feature","geometry":{"type":"Point","coordinates":[-104.5952,38.4726]},"properties":{"s":74.1,"pub":false}},{"type":"Feature","geometry":{"type":"Point","coordinates":[-104.5952,38.4784]},"properties":{"s":74.1,"pub":false}},{"type":"Feature","geometry":{"type":"Point","coordinates":[-104.5952,38.4842]},"properties":{"s":74.1,"pub":false}},{"type":"Feature","geometry":{"type":"Point","coordinates":[-104.5952,38.49]},"properties":{"s":74.1,"pub":false}},{"type":"Feature","geometry":{"type":"Point","coordinates":[-104.5952,38.4958]},"properties":{"s":74.1,"pub":false}},{"type":"Feature","geometry":{"type":"Point","coordinates":[-104.5952,38.5016]},"properties":{"s":44.4,"pub":false}},{"type":"Feature","geometry":{"type":"Point","coordinates":[-104.5952,38.5074]},"properties":{"s":44.4,"pub":false}},{"type":"Feature","geometry":{"type":"Point","coordinates":[-104.5877,38.4436]},"properties":{"s":44.4,"pub":false}},{"type":"Feature","geometry":{"type":"Point","coordinates":[-104.5877,38.4494]},"properties":{"s":44.4,"pub":false}},{"type":"Feature","geometry":{"type":"Point","coordinates":[-104.5877,38.4552]},"properties":{"s":44.4,"pub":false}},{"type":"Feature","geometry":{"type":"Point","coordinates":[-104.5877,38.4668]},"properties":{"s":44.4,"pub":false}},{"type":"Feature","geometry":{"type":"Point","coordinates":[-104.5877,38.4726]},"properties":{"s":44.4,"pub":false}},{"type":"Feature","geometry":{"type":"Point","coordinates":[-104.5877,38.4784]},"properties":{"s":44.4,"pub":false}},{"type":"Feature","geometry":{"type":"Point","coordinates":[-104.5877,38.49]},"properties":{"s":44.4,"pub":false}},{"type":"Feature","geometry":{"type":"Point","coordinates":[-104.5877,38.4958]},"properties":{"s":44.4,"pub":false}},{"type":"Feature","geometry":{"type":"Point","coordinates":[-104.4002,38.2928]},"properties":{"s":44.4,"pub":false}},{"type":"Feature","geometry":{"type":"Point","coordinates":[-104.4002,38.2986]},"properties":{"s":44.4,"pub":false}},{"type":"Feature","geometry":{"type":"Point","coordinates":[-104.3927,38.2928]},"properties":{"s":44.4,"pub":false}},{"type":"Feature","geometry":{"type":"Point","coordinates":[-104.3927,38.2986]},"properties":{"s":44.4,"pub":false}},{"type":"Feature","geometry":{"type":"Point","coordinates":[-104.3852,38.2928]},"properties":{"s":44.4,"pub":false}},{"type":"Feature","geometry":{"type":"Point","coordinates":[-104.3777,38.287]},"properties":{"s":44.4,"pub":false}},{"type":"Feature","geometry":{"type":"Point","coordinates":[-104.3777,38.2928]},"properties":{"s":44.4,"pub":false}},{"type":"Feature","geometry":{"type":"Point","coordinates":[-104.3777,38.2986]},"properties":{"s":44.4,"pub":false}},{"type":"Feature","geometry":{"type":"Point","coordinates":[-104.3702,38.2696]},"properties":{"s":44.4,"pub":false}},{"type":"Feature","geometry":{"type":"Point","coordinates":[-104.3252,38.258]},"properties":{"s":44.4,"pub":false}}]}