{"type":"FeatureCollection","features":[{"type":"Feature","geometry":{"type":"Point","coordinates":[-107.1571,40.2792]},"properties":{"s":46.3,"pub":false}},{"type":"Feature","geometry":{"type":"Point","coordinates":[-107.1571,40.285]},"properties":{"s":46.3,"pub":false}},{"type":"Feature","geometry":{"type":"Point","coordinates":[-107.1571,40.2908]},"properties":{"s":46.3,"pub":false}},{"type":"Feature","geometry":{"type":"Point","coordinates":[-107.1571,40.2966]},"properties":{"s":46.3,"pub":false}},{"type":"Feature","geometry":{"type":"Point","coordinates":[-107.1571,40.3024]},"properties":{"s":46.3,"pub":false}},{"type":"Feature","geometry":{"type":"Point","coordinates":[-107.1571,40.3082]},"properties":{"s":46.3,"pub":false}},{"type":"Feature","geometry":{"type":"Point","coordinates":[-107.1571,40.314]},"properties":{"s":46.3,"pub":false}},{"type":"Feature","geometry":{"type":"Point","coordinates":[-107.1496,40.2734]},"properties":{"s":46.3,"pub":false}},{"type":"Feature","geometry":{"type":"Point","coordinates":[-107.1496,40.2792]},"properties":{"s":46.3,"pub":false}},{"type":"Feature","geometry":{"type":"Point","coordinates":[-107.1496,40.285]},"properties":{"s":46.3,"pub":false}},{"type":"Feature","geometry":{"type":"Point","coordinates":[-107.1496,40.2908]},"properties":{"s":46.3,"pub":false}},{"type":"Feature","geometry":{"type":"Point","coordinates":[-107.1496,40.2966]},"properties":{"s":46.3,"pub":false}},{"type":"Feature","geometry":{"type":"Point","coordinates":[-107.1496,40.3024]},"properties":{"s":46.3,"pub":false}},{"type":"Feature","geometry":{"type":"Point","coordinates":[-107.1496,40.3082]},"properties":{"s":46.3,"pub":false}},{"type":"Feature","geometry":{"type":"Point","coordinates":[-107.1496,40.314]},"properties":{"s":46.3,"pub":false}},{"type":"Feature","geometry":{"type":"Point","coordinates":[-107.1496,40.3198]},"properties":{"s":46.3,"pub":false}},{"type":"Feature","geometry":{"type":"Point","coordinates":[-107.1496,40.3256]},"properties":{"s":46.3,"pub":false}},{"type":"Feature","geometry":{"type":"Point","coordinates":[-107.1496,40.3314]},"properties":{"s":65.9,"pub":false}},{"type":"Feature","geometry":{"type":"Point","coordinates":[-107.1421,40.2676]},"properties":{"s":46.3,"pub":true}},{"type":"Feature","geometry":{"type":"Point","coordinates":[-107.1421,40.2734]},"properties":{"s":46.3,"pub":false}},{"type":"Feature","geometry":{"type":"Point","coordinates":[-107.1421,40.2792]},"properties":{"s":46.3,"pub":false}},{"type":"Feature","geometry":{"type":"Point","coordinates":[-107.1421,40.285]},"properties":{"s":46.3,"pub":false}},{"type":"Feature","geometry":{"type":"Point","coordinates":[-107.1421,40.2908]},"properties":{"s":46.3,"pub":false}},{"type":"Feature","geometry":{"type":"Point","coordinates":[-107.1421,40.2966]},"properties":{"s":46.3,"pub":false}},{"type":"Feature","geometry":{"type":"Point","coordinates":[-107.1421,40.3024]},"properties":{"s":46.3,"pub":false}},{"type":"Feature","geometry":{"type":"Point","coordinates":[-107.1421,40.3082]},"properties":{"s":46.3,"pub":false}},{"type":"Feature","geometry":{"type":"Point","coordinates":[-107.1421,40.314]},"properties":{"s":46.3,"pub":false}},{"type":"Feature","geometry":{"type":"Point","coordinates":[-107.1421,40.3198]},"properties":{"s":46.3,"pub":false}},{"type":"Feature","geometry":{"type":"Point","coordinates":[-107.1421,40.3256]},"properties":{"s":46.3,"pub":false}},{"type":"Feature","geometry":{"type":"Point","coordinates":[-107.1421,40.3314]},"properties":{"s":46.3,"pub":false}},{"type":"Feature","geometry":{"type":"Point","coordinates":[-107.1346,40.2676]},"properties":{"s":46.3,"pub":true}},{"type":"Feature","geometry":{"type":"Point","coordinates":[-107.1346,40.2734]},"properties":{"s":46.3,"pub":false}},{"type":"Feature","geometry":{"type":"Point","coordinates":[-107.1346,40.2792]},"properties":{"s":46.3,"pub":false}},{"type":"Feature","geometry":{"type":"Point","coordinates":[-107.1346,40.285]},"properties":{"s":46.3,"pub":false}},{"type":"Feature","geometry":{"type":"Point","coordinates":[-107.1346,40.2908]},"properties":{"s":46.3,"pub":false}},{"type":"Feature","geometry":{"type":"Point","coordinates":[-107.1346,40.2966]},"properties":{"s":46.3,"pub":false}},{"type":"Feature","geometry":{"type":"Point","coordinates":[-107.1346,40.3024]},"properties":{"s":46.3,"pub":false}},{"type":"Feature","geometry":{"type":"Point","coordinates":[-107.1346,40.3082]},"properties":{"s":46.3,"pub":false}},{"type":"Feature","geometry":{"type":"Point","coordinates":[-107.1346,40.314]},"properties":{"s":46.3,"pub":false}},{"type":"Feature","geometry":{"type":"Point","coordinates":[-107.1346,40.3198]},"properties":{"s":46.3,"pub":false}},{"type":"Feature","geometry":{"type":"Point","coordinates":[-107.1346,40.3256]},"properties":{"s":46.3,"pub":false}},{"type":"Feature","geometry":{"type":"Point","coordinates":[-107.1346,40.3314]},"properties":{"s":46.3,"pub":false}},{"type":"Feature","geometry":{"type":"Point","coordinates":[-107.1271,40.2618]},"properties":{"s":46.3,"pub":true}},{"type":"Feature","geometry":{"type":"Point","coordinates":[-107.1271,40.2676]},"properties":{"s":46.3,"pub":true}},{"type":"Feature","geometry":{"type":"Point","coordinates":[-107.1271,40.2734]},"properties":{"s":46.3,"pub":true}},{"type":"Feature","geometry":{"type":"Point","coordinates":[-107.1271,40.2792]},"properties":{"s":46.3,"pub":true}},{"type":"Feature","geometry":{"type":"Point","coordinates":[-107.1271,40.285]},"properties":{"s":46.3,"pub":false}},{"type":"Feature","geometry":{"type":"Point","coordinates":[-107.1271,40.2908]},"properties":{"s":46.3,"pub":false}},{"type":"Feature","geometry":{"type":"Point","coordinates":[-107.1271,40.2966]},"properties":{"s":65.9,"pub":false}},{"type":"Feature","geometry":{"type":"Point","coordinates":[-107.1271,40.3024]},"properties":{"s":65.9,"pub":false}},{"type":"Feature","geometry":{"type":"Point","coordinates":[-107.1271,40.3082]},"properties":{"s":65.9,"pub":false}},{"type":"Feature","geometry":{"type":"Point","coordinates":[-107.1271,40.314]},"properties":{"s":65.9,"pub":false}},{"type":"Feature","geometry":{"type":"Point","coordinates":[-107.1271,40.3198]},"properties":{"s":46.3,"pub":false}},{"type":"Feature","geometry":{"type":"Point","coordinates":[-107.1271,40.3256]},"properties":{"s":46.3,"pub":false}},{"type":"Feature","geometry":{"type":"Point","coordinates":[-107.1271,40.3314]},"properties":{"s":46.3,"pub":false}},{"type":"Feature","geometry":{"type":"Point","coordinates":[-107.1271,40.343]},"properties":{"s":36.6,"pub":false}},{"type":"Feature","geometry":{"type":"Point","coordinates":[-107.1196,40.256]},"properties":{"s":46.3,"pub":false}},{"type":"Feature","geometry":{"type":"Point","coordinates":[-107.1196,40.2618]},"properties":{"s":46.3,"pub":false}},{"type":"Feature","geometry":{"type":"Point","coordinates":[-107.1196,40.2676]},"properties":{"s":46.3,"pub":false}},{"type":"Feature","geometry":{"type":"Point","coordinates":[-107.1196,40.2734]},"properties":{"s":46.3,"pub":true}},{"type":"Feature","geometry":{"type":"Point","coordinates":[-107.1196,40.2792]},"properties":{"s":46.3,"pub":true}},{"type":"Feature","geometry":{"type":"Point","coordinates":[-107.1196,40.285]},"properties":{"s":46.3,"pub":false}},{"type":"Feature","geometry":{"type":"Point","coordinates":[-107.1196,40.2908]},"properties":{"s":46.3,"pub":false}},{"type":"Feature","geometry":{"type":"Point","coordinates":[-107.1196,40.2966]},"properties":{"s":65.9,"pub":false}},{"type":"Feature","geometry":{"type":"Point","coordinates":[-107.1196,40.3024]},"properties":{"s":65.9,"pub":false}},{"type":"Feature","geometry":{"type":"Point","coordinates":[-107.1196,40.3082]},"properties":{"s":65.9,"pub":false}},{"type":"Feature","geometry":{"type":"Point","coordinates":[-107.1196,40.314]},"properties":{"s":46.3,"pub":false}},{"type":"Feature","geometry":{"type":"Point","coordinates":[-107.1121,40.2502]},"properties":{"s":46.3,"pub":false}},{"type":"Feature","geometry":{"type":"Point","coordinates":[-107.1121,40.256]},"properties":{"s":46.3,"pub":false}},{"type":"Feature","geometry":{"type":"Point","coordinates":[-107.1121,40.2618]},"properties":{"s":46.3,"pub":false}},{"type":"Feature","geometry":{"type":"Point","coordinates":[-107.1121,40.2676]},"properties":{"s":46.3,"pub":false}},{"type":"Feature","geometry":{"type":"Point","coordinates":[-107.1121,40.2734]},"properties":{"s":46.3,"pub":true}},{"type":"Feature","geometry":{"type":"Point","coordinates":[-107.1121,40.2792]},"properties":{"s":46.3,"pub":true}},{"type":"Feature","geometry":{"type":"Point","coordinates":[-107.1121,40.285]},"properties":{"s":46.3,"pub":false}},{"type":"Feature","geometry":{"type":"Point","coordinates":[-107.1121,40.2908]},"properties":{"s":46.3,"pub":false}},{"type":"Feature","geometry":{"type":"Point","coordinates":[-107.1121,40.2966]},"properties":{"s":65.9,"pub":false}},{"type":"Feature","geometry":{"type":"Point","coordinates":[-107.1121,40.3024]},"properties":{"s":65.9,"pub":false}},{"type":"Feature","geometry":{"type":"Point","coordinates":[-107.1121,40.3082]},"properties":{"s":65.9,"pub":false}},{"type":"Feature","geometry":{"type":"Point","coordinates":[-107.1121,40.314]},"properties":{"s":36.6,"pub":false}},{"type":"Feature","geometry":{"type":"Point","coordinates":[-107.1046,40.2444]},"properties":{"s":46.3,"pub":true}},{"type":"Feature","geometry":{"type":"Point","coordinates":[-107.1046,40.2502]},"properties":{"s":46.3,"pub":false}},{"type":"Feature","geometry":{"type":"Point","coordinates":[-107.1046,40.256]},"properties":{"s":46.3,"pub":true}},{"type":"Feature","geometry":{"type":"Point","coordinates":[-107.1046,40.2618]},"properties":{"s":46.3,"pub":false}},{"type":"Feature","geometry":{"type":"Point","coordinates":[-107.1046,40.2676]},"properties":{"s":46.3,"pub":false}},{"type":"Feature","geometry":{"type":"Point","coordinates":[-107.1046,40.2734]},"properties":{"s":46.3,"pub":true}},{"type":"Feature","geometry":{"type":"Point","coordinates":[-107.1046,40.2792]},"properties":{"s":46.3,"pub":true}},{"type":"Feature","geometry":{"type":"Point","coordinates":[-107.1046,40.285]},"properties":{"s":46.3,"pub":false}},{"type":"Feature","geometry":{"type":"Point","coordinates":[-107.1046,40.2908]},"properties":{"s":46.3,"pub":false}},{"type":"Feature","geometry":{"type":"Point","coordinates":[-107.1046,40.2966]},"properties":{"s":46.3,"pub":false}},{"type":"Feature","geometry":{"type":"Point","coordinates":[-107.1046,40.3024]},"properties":{"s":65.9,"pub":false}},{"type":"Feature","geometry":{"type":"Point","coordinates":[-107.1046,40.3082]},"properties":{"s":65.9,"pub":false}},{"type":"Feature","geometry":{"type":"Point","coordinates":[-107.1046,40.314]},"properties":{"s":36.6,"pub":false}},{"type":"Feature","geometry":{"type":"Point","coordinates":[-107.0971,40.2444]},"properties":{"s":46.3,"pub":false}},{"type":"Feature","geometry":{"type":"Point","coordinates":[-107.0971,40.2502]},"properties":{"s":46.3,"pub":false}},{"type":"Feature","geometry":{"type":"Point","coordinates":[-107.0971,40.256]},"properties":{"s":46.3,"pub":true}},{"type":"Feature","geometry":{"type":"Point","coordinates":[-107.0971,40.2618]},"properties":{"s":46.3,"pub":true}},{"type":"Feature","geometry":{"type":"Point","coordinates":[-107.0971,40.2676]},"properties":{"s":46.3,"pub":true}},{"type":"Feature","geometry":{"type":"Point","coordinates":[-107.0971,40.2734]},"properties":{"s":46.3,"pub":false}},{"type":"Feature","geometry":{"type":"Point","coordinates":[-107.0971,40.2792]},"properties":{"s":46.3,"pub":false}},{"type":"Feature","geometry":{"type":"Point","coordinates":[-107.0971,40.285]},"properties":{"s":46.3,"pub":false}},{"type":"Feature","geometry":{"type":"Point","coordinates":[-107.0971,40.2908]},"properties":{"s":46.3,"pub":false}},{"type":"Feature","geometry":{"type":"Point","coordinates":[-107.0971,40.2966]},"properties":{"s":46.3,"pub":false}},{"type":"Feature","geometry":{"type":"Point","coordinates":[-107.0971,40.3024]},"properties":{"s":46.3,"pub":false}},{"type":"Feature","geometry":{"type":"Point","coordinates":[-107.0971,40.3082]},"properties":{"s":36.6,"pub":false}},{"type":"Feature","geometry":{"type":"Point","coordinates":[-107.0971,40.314]},"properties":{"s":36.6,"pub":false}},{"type":"Feature","geometry":{"type":"Point","coordinates":[-107.0971,40.3198]},"properties":{"s":36.6,"pub":false}},{"type":"Feature","geometry":{"type":"Point","coordinates":[-107.0971,40.3372]},"properties":{"s":22.0,"pub":false}},{"type":"Feature","geometry":{"type":"Point","coordinates":[-107.0896,40.2386]},"properties":{"s":46.3,"pub":false}},{"type":"Feature","geometry":{"type":"Point","coordinates":[-107.0896,40.2444]},"properties":{"s":46.3,"pub":false}},{"type":"Feature","geometry":{"type":"Point","coordinates":[-107.0896,40.2502]},"properties":{"s":46.3,"pub":false}},{"type":"Feature","geometry":{"type":"Point","coordinates":[-107.0896,40.256]},"properties":{"s":65.9,"pub":false}},{"type":"Feature","geometry":{"type":"Point","coordinates":[-107.0896,40.2618]},"properties":{"s":65.9,"pub":true}},{"type":"Feature","geometry":{"type":"Point","coordinates":[-107.0896,40.2676]},"properties":{"s":65.9,"pub":true}},{"type":"Feature","geometry":{"type":"Point","coordinates":[-107.0896,40.2734]},"properties":{"s":65.9,"pub":false}},{"type":"Feature","geometry":{"type":"Point","coordinates":[-107.0896,40.2792]},"properties":{"s":46.3,"pub":false}},{"type":"Feature","geometry":{"type":"Point","coordinates":[-107.0896,40.285]},"properties":{"s":46.3,"pub":false}},{"type":"Feature","geometry":{"type":"Point","coordinates":[-107.0896,40.2908]},"properties":{"s":46.3,"pub":false}},{"type":"Feature","geometry":{"type":"Point","coordinates":[-107.0896,40.2966]},"properties":{"s":46.3,"pub":false}},{"type":"Feature","geometry":{"type":"Point","coordinates":[-107.0896,40.3082]},"properties":{"s":36.6,"pub":false}},{"type":"Feature","geometry":{"type":"Point","coordinates":[-107.0896,40.314]},"properties":{"s":36.6,"pub":false}},{"type":"Feature","geometry":{"type":"Point","coordinates":[-107.0896,40.3198]},"properties":{"s":36.6,"pub":false}},{"type":"Feature","geometry":{"type":"Point","coordinates":[-107.0896,40.3488]},"properties":{"s":22.0,"pub":false}},{"type":"Feature","geometry":{"type":"Point","coordinates":[-107.0821,40.227]},"properties":{"s":46.3,"pub":false}},{"type":"Feature","geometry":{"type":"Point","coordinates":[-107.0821,40.2328]},"properties":{"s":46.3,"pub":false}},{"type":"Feature","geometry":{"type":"Point","coordinates":[-107.0821,40.2386]},"properties":{"s":46.3,"pub":false}},{"type":"Feature","geometry":{"type":"Point","coordinates":[-107.0821,40.2444]},"properties":{"s":46.3,"pub":false}},{"type":"Feature","geometry":{"type":"Point","coordinates":[-107.0821,40.2502]},"properties":{"s":65.9,"pub":false}},{"type":"Feature","geometry":{"type":"Point","coordinates":[-107.0821,40.256]},"properties":{"s":65.9,"pub":true}},{"type":"Feature","geometry":{"type":"Point","coordinates":[-107.0821,40.2618]},"properties":{"s":65.9,"pub":true}},{"type":"Feature","geometry":{"type":"Point","coordinates":[-107.0821,40.2676]},"properties":{"s":65.9,"pub":true}},{"type":"Feature","geometry":{"type":"Point","coordinates":[-107.0821,40.2734]},"properties":{"s":65.9,"pub":false}},{"type":"Feature","geometry":{"type":"Point","coordinates":[-107.0821,40.2792]},"properties":{"s":65.9,"pub":true}},{"type":"Feature","geometry":{"type":"Point","coordinates":[-107.0821,40.285]},"properties":{"s":46.3,"pub":true}},{"type":"Feature","geometry":{"type":"Point","coordinates":[-107.0821,40.2908]},"properties":{"s":46.3,"pub":false}},{"type":"Feature","geometry":{"type":"Point","coordinates":[-107.0821,40.2966]},"properties":{"s":46.3,"pub":false}},{"type":"Feature","geometry":{"type":"Point","coordinates":[-107.0821,40.3082]},"properties":{"s":22.0,"pub":false}},{"type":"Feature","geometry":{"type":"Point","coordinates":[-107.0821,40.314]},"properties":{"s":36.6,"pub":false}},{"type":"Feature","geometry":{"type":"Point","coordinates":[-107.0821,40.3198]},"properties":{"s":36.6,"pub":false}},{"type":"Feature","geometry":{"type":"Point","coordinates":[-107.0821,40.3488]},"properties":{"s":22.0,"pub":false}},{"type":"Feature","geometry":{"type":"Point","coordinates":[-107.0746,40.227]},"properties":{"s":46.3,"pub":false}},{"type":"Feature","geometry":{"type":"Point","coordinates":[-107.0746,40.2328]},"properties":{"s":46.3,"pub":false}},{"type":"Feature","geometry":{"type":"Point","coordinates":[-107.0746,40.2386]},"properties":{"s":46.3,"pub":false}},{"type":"Feature","geometry":{"type":"Point","coordinates":[-107.0746,40.2444]},"properties":{"s":65.9,"pub":true}},{"type":"Feature","geometry":{"type":"Point","coordinates":[-107.0746,40.2502]},"properties":{"s":65.9,"pub":false}},{"type":"Feature","geometry":{"type":"Point","coordinates":[-107.0746,40.256]},"properties":{"s":65.9,"pub":false}},{"type":"Feature","geometry":{"type":"Point","coordinates":[-107.0746,40.2618]},"properties":{"s":65.9,"pub":true}},{"type":"Feature","geometry":{"type":"Point","coordinates":[-107.0746,40.2676]},"properties":{"s":65.9,"pub":false}},{"type":"Feature","geometry":{"type":"Point","coordinates":[-107.0746,40.2734]},"properties":{"s":65.9,"pub":false}},{"type":"Feature","geometry":{"type":"Point","coordinates":[-107.0746,40.2792]},"properties":{"s":65.9,"pub":false}},{"type":"Feature","geometry":{"type":"Point","coordinates":[-107.0746,40.285]},"properties":{"s":65.9,"pub":false}},{"type":"Feature","geometry":{"type":"Point","coordinates":[-107.0746,40.2908]},"properties":{"s":46.3,"pub":false}},{"type":"Feature","geometry":{"type":"Point","coordinates":[-107.0746,40.314]},"properties":{"s":22.0,"pub":false}},{"type":"Feature","geometry":{"type":"Point","coordinates":[-107.0746,40.3198]},"properties":{"s":36.6,"pub":false}},{"type":"Feature","geometry":{"type":"Point","coordinates":[-107.0671,40.2328]},"properties":{"s":46.3,"pub":false}},{"type":"Feature","geometry":{"type":"Point","coordinates":[-107.0671,40.2386]},"properties":{"s":95.1,"pub":false}},{"type":"Feature","geometry":{"type":"Point","coordinates":[-107.0671,40.2444]},"properties":{"s":95.1,"pub":false}},{"type":"Feature","geometry":{"type":"Point","coordinates":[-107.0671,40.2502]},"properties":{"s":95.1,"pub":false}},{"type":"Feature","geometry":{"type":"Point","coordinates":[-107.0671,40.256]},"properties":{"s":65.9,"pub":false}},{"type":"Feature","geometry":{"type":"Point","coordinates":[-107.0671,40.2618]},"properties":{"s":65.9,"pub":false}},{"type":"Feature","geometry":{"type":"Point","coordinates":[-107.0671,40.2676]},"properties":{"s":65.9,"pub":true}},{"type":"Feature","geometry":{"type":"Point","coordinates":[-107.0671,40.2734]},"properties":{"s":65.9,"pub":false}},{"type":"Feature","geometry":{"type":"Point","coordinates":[-107.0671,40.2792]},"properties":{"s":65.9,"pub":false}},{"type":"Feature","geometry":{"type":"Point","coordinates":[-107.0671,40.285]},"properties":{"s":65.9,"pub":false}},{"type":"Feature","geometry":{"type":"Point","coordinates":[-107.0671,40.2908]},"properties":{"s":65.9,"pub":false}},{"type":"Feature","geometry":{"type":"Point","coordinates":[-107.0671,40.314]},"properties":{"s":22.0,"pub":false}},{"type":"Feature","geometry":{"type":"Point","coordinates":[-107.0671,40.3198]},"properties":{"s":36.6,"pub":false}},{"type":"Feature","geometry":{"type":"Point","coordinates":[-107.0671,40.3256]},"properties":{"s":36.6,"pub":false}},{"type":"Feature","geometry":{"type":"Point","coordinates":[-107.0671,40.3546]},"properties":{"s":22.0,"pub":false}},{"type":"Feature","geometry":{"type":"Point","coordinates":[-107.0596,40.2328]},"properties":{"s":65.9,"pub":false}},{"type":"Feature","geometry":{"type":"Point","coordinates":[-107.0596,40.2386]},"properties":{"s":95.1,"pub":false}},{"type":"Feature","geometry":{"type":"Point","coordinates":[-107.0596,40.2444]},"properties":{"s":95.1,"pub":false}},{"type":"Feature","geometry":{"type":"Point","coordinates":[-107.0596,40.2502]},"properties":{"s":95.1,"pub":false}},{"type":"Feature","geometry":{"type":"Point","coordinates":[-107.0596,40.256]},"properties":{"s":95.1,"pub":false}},{"type":"Feature","geometry":{"type":"Point","coordinates":[-107.0596,40.2618]},"properties":{"s":65.9,"pub":false}},{"type":"Feature","geometry":{"type":"Point","coordinates":[-107.0596,40.2676]},"properties":{"s":65.9,"pub":false}},{"type":"Feature","geometry":{"type":"Point","coordinates":[-107.0596,40.2734]},"properties":{"s":65.9,"pub":false}},{"type":"Feature","geometry":{"type":"Point","coordinates":[-107.0596,40.2792]},"properties":{"s":65.9,"pub":false}},{"type":"Feature","geometry":{"type":"Point","coordinates":[-107.0596,40.285]},"properties":{"s":65.9,"pub":false}},{"type":"Feature","geometry":{"type":"Point","coordinates":[-107.0596,40.2908]},"properties":{"s":36.6,"pub":false}},{"type":"Feature","geometry":{"type":"Point","coordinates":[-107.0596,40.2966]},"properties":{"s":36.6,"pub":false}},{"type":"Feature","geometry":{"type":"Point","coordinates":[-107.0596,40.3198]},"properties":{"s":22.0,"pub":false}},{"type":"Feature","geometry":{"type":"Point","coordinates":[-107.0596,40.3256]},"properties":{"s":36.6,"pub":false}},{"type":"Feature","geometry":{"type":"Point","coordinates":[-107.0596,40.3314]},"properties":{"s":36.6,"pub":false}},{"type":"Feature","geometry":{"type":"Point","coordinates":[-107.0596,40.3604]},"properties":{"s":22.0,"pub":false}},{"type":"Feature","geometry":{"type":"Point","coordinates":[-107.0521,40.2328]},"properties":{"s":65.9,"pub":false}},{"type":"Feature","geometry":{"type":"Point","coordinates":[-107.0521,40.2386]},"properties":{"s":65.9,"pub":false}},{"type":"Feature","geometry":{"type":"Point","coordinates":[-107.0521,40.2444]},"properties":{"s":95.1,"pub":false}},{"type":"Feature","geometry":{"type":"Point","coordinates":[-107.0521,40.2502]},"properties":{"s":95.1,"pub":false}},{"type":"Feature","geometry":{"type":"Point","coordinates":[-107.0521,40.256]},"properties":{"s":95.1,"pub":false}},{"type":"Feature","geometry":{"type":"Point","coordinates":[-107.0521,40.2618]},"properties":{"s":95.1,"pub":true}},{"type":"Feature","geometry":{"type":"Point","coordinates":[-107.0521,40.2676]},"properties":{"s":65.9,"pub":true}},{"type":"Feature","geometry":{"type":"Point","coordinates":[-107.0521,40.2734]},"properties":{"s":65.9,"pub":false}},{"type":"Feature","geometry":{"type":"Point","coordinates":[-107.0521,40.2792]},"properties":{"s":65.9,"pub":false}},{"type":"Feature","geometry":{"type":"Point","coordinates":[-107.0521,40.285]},"properties":{"s":65.9,"pub":false}},{"type":"Feature","geometry":{"type":"Point","coordinates":[-107.0521,40.2908]},"properties":{"s":36.6,"pub":false}},{"type":"Feature","geometry":{"type":"Point","coordinates":[-107.0521,40.2966]},"properties":{"s":36.6,"pub":false}},{"type":"Feature","geometry":{"type":"Point","coordinates":[-107.0521,40.3256]},"properties":{"s":22.0,"pub":false}},{"type":"Feature","geometry":{"type":"Point","coordinates":[-107.0446,40.2386]},"properties":{"s":65.9,"pub":false}},{"type":"Feature","geometry":{"type":"Point","coordinates":[-107.0446,40.2444]},"properties":{"s":95.1,"pub":false}},{"type":"Feature","geometry":{"type":"Point","coordinates":[-107.0446,40.2502]},"properties":{"s":95.1,"pub":false}},{"type":"Feature","geometry":{"type":"Point","coordinates":[-107.0446,40.256]},"properties":{"s":95.1,"pub":false}},{"type":"Feature","geometry":{"type":"Point","coordinates":[-107.0446,40.2618]},"properties":{"s":95.1,"pub":false}},{"type":"Feature","geometry":{"type":"Point","coordinates":[-107.0446,40.2676]},"properties":{"s":95.1,"pub":false}},{"type":"Feature","geometry":{"type":"Point","coordinates":[-107.0446,40.2734]},"properties":{"s":65.9,"pub":true}},{"type":"Feature","geometry":{"type":"Point","coordinates":[-107.0446,40.2792]},"properties":{"s":65.9,"pub":true}},{"type":"Feature","geometry":{"type":"Point","coordinates":[-107.0446,40.285]},"properties":{"s":36.6,"pub":false}},{"type":"Feature","geometry":{"type":"Point","coordinates":[-107.0446,40.2908]},"properties":{"s":36.6,"pub":false}},{"type":"Feature","geometry":{"type":"Point","coordinates":[-107.0446,40.2966]},"properties":{"s":36.6,"pub":false}},{"type":"Feature","geometry":{"type":"Point","coordinates":[-107.0446,40.3314]},"properties":{"s":22.0,"pub":false}},{"type":"Feature","geometry":{"type":"Point","coordinates":[-107.0446,40.3546]},"properties":{"s":22.0,"pub":false}},{"type":"Feature","geometry":{"type":"Point","coordinates":[-107.0371,40.2386]},"properties":{"s":46.3,"pub":false}},{"type":"Feature","geometry":{"type":"Point","coordinates":[-107.0371,40.2444]},"properties":{"s":65.9,"pub":false}},{"type":"Feature","geometry":{"type":"Point","coordinates":[-107.0371,40.2502]},"properties":{"s":65.9,"pub":false}},{"type":"Feature","geometry":{"type":"Point","coordinates":[-107.0371,40.256]},"properties":{"s":95.1,"pub":false}},{"type":"Feature","geometry":{"type":"Point","coordinates":[-107.0371,40.2618]},"properties":{"s":95.1,"pub":true}},{"type":"Feature","geometry":{"type":"Point","coordinates":[-107.0371,40.2676]},"properties":{"s":95.1,"pub":false}},{"type":"Feature","geometry":{"type":"Point","coordinates":[-107.0371,40.2734]},"properties":{"s":65.9,"pub":false}},{"type":"Feature","geometry":{"type":"Point","coordinates":[-107.0371,40.2792]},"properties":{"s":36.6,"pub":false}},{"type":"Feature","geometry":{"type":"Point","coordinates":[-107.0371,40.285]},"properties":{"s":36.6,"pub":true}},{"type":"Feature","geometry":{"type":"Point","coordinates":[-107.0371,40.2908]},"properties":{"s":36.6,"pub":true}},{"type":"Feature","geometry":{"type":"Point","coordinates":[-107.0371,40.3372]},"properties":{"s":22.0,"pub":false}},{"type":"Feature","geometry":{"type":"Point","coordinates":[-107.0371,40.3488]},"properties":{"s":22.0,"pub":false}},{"type":"Feature","geometry":{"type":"Point","coordinates":[-107.0296,40.2154]},"properties":{"s":22.0,"pub":true}},{"type":"Feature","geometry":{"type":"Point","coordinates":[-107.0296,40.2386]},"properties":{"s":46.3,"pub":false}},{"type":"Feature","geometry":{"type":"Point","coordinates":[-107.0296,40.2444]},"properties":{"s":46.3,"pub":false}},{"type":"Feature","geometry":{"type":"Point","coordinates":[-107.0296,40.2502]},"properties":{"s":46.3,"pub":false}},{"type":"Feature","geometry":{"type":"Point","coordinates":[-107.0296,40.256]},"properties":{"s":65.9,"pub":false}},{"type":"Feature","geometry":{"type":"Point","coordinates":[-107.0296,40.2618]},"properties":{"s":65.9,"pub":false}},{"type":"Feature","geometry":{"type":"Point","coordinates":[-107.0296,40.2676]},"properties":{"s":65.9,"pub":true}},{"type":"Feature","geometry":{"type":"Point","coordinates":[-107.0296,40.2734]},"properties":{"s":65.9,"pub":false}},{"type":"Feature","geometry":{"type":"Point","coordinates":[-107.0296,40.2792]},"properties":{"s":36.6,"pub":false}},{"type":"Feature","geometry":{"type":"Point","coordinates":[-107.0296,40.285]},"properties":{"s":36.6,"pub":true}},{"type":"Feature","geometry":{"type":"Point","coordinates":[-107.0296,40.2908]},"properties":{"s":36.6,"pub":true}},{"type":"Feature","geometry":{"type":"Point","coordinates":[-107.0296,40.2966]},"properties":{"s":36.6,"pub":true}},{"type":"Feature","geometry":{"type":"Point","coordinates":[-107.0296,40.314]},"properties":{"s":36.6,"pub":false}},{"type":"Feature","geometry":{"type":"Point","coordinates":[-107.0296,40.3198]},"properties":{"s":36.6,"pub":false}},{"type":"Feature","geometry":{"type":"Point","coordinates":[-107.0296,40.3488]},"properties":{"s":22.0,"pub":true}},{"type":"Feature","geometry":{"type":"Point","coordinates":[-107.0221,40.2096]},"properties":{"s":22.0,"pub":false}},{"type":"Feature","geometry":{"type":"Point","coordinates":[-107.0221,40.2154]},"properties":{"s":22.0,"pub":false}},{"type":"Feature","geometry":{"type":"Point","coordinates":[-107.0221,40.2444]},"properties":{"s":46.3,"pub":false}},{"type":"Feature","geometry":{"type":"Point","coordinates":[-107.0221,40.2502]},"properties":{"s":46.3,"pub":true}},{"type":"Feature","geometry":{"type":"Point","coordinates":[-107.0221,40.256]},"properties":{"s":46.3,"pub":false}},{"type":"Feature","geometry":{"type":"Point","coordinates":[-107.0221,40.2618]},"properties":{"s":65.9,"pub":false}},{"type":"Feature","geometry":{"type":"Point","coordinates":[-107.0221,40.2676]},"properties":{"s":65.9,"pub":false}},{"type":"Feature","geometry":{"type":"Point","coordinates":[-107.0221,40.2734]},"properties":{"s":65.9,"pub":false}},{"type":"Feature","geometry":{"type":"Point","coordinates":[-107.0221,40.2792]},"properties":{"s":36.6,"pub":false}},{"type":"Feature","geometry":{"type":"Point","coordinates":[-107.0221,40.285]},"properties":{"s":36.6,"pub":false}},{"type":"Feature","geometry":{"type":"Point","coordinates":[-107.0221,40.2908]},"properties":{"s":36.6,"pub":true}},{"type":"Feature","geometry":{"type":"Point","coordinates":[-107.0221,40.2966]},"properties":{"s":36.6,"pub":false}},{"type":"Feature","geometry":{"type":"Point","coordinates":[-107.0221,40.314]},"properties":{"s":36.6,"pub":false}},{"type":"Feature","geometry":{"type":"Point","coordinates":[-107.0146,40.2096]},"properties":{"s":22.0,"pub":false}},{"type":"Feature","geometry":{"type":"Point","coordinates":[-107.0146,40.2154]},"properties":{"s":22.0,"pub":false}},{"type":"Feature","geometry":{"type":"Point","coordinates":[-107.0146,40.2212]},"properties":{"s":22.0,"pub":false}},{"type":"Feature","geometry":{"type":"Point","coordinates":[-107.0146,40.2502]},"properties":{"s":46.3,"pub":false}},{"type":"Feature","geometry":{"type":"Point","coordinates":[-107.0146,40.256]},"properties":{"s":46.3,"pub":false}},{"type":"Feature","geometry":{"type":"Point","coordinates":[-107.0146,40.2618]},"properties":{"s":46.3,"pub":false}},{"type":"Feature","geometry":{"type":"Point","coordinates":[-107.0146,40.2676]},"properties":{"s":65.9,"pub":false}},{"type":"Feature","geometry":{"type":"Point","coordinates":[-107.0146,40.2734]},"properties":{"s":65.9,"pub":false}},{"type":"Feature","geometry":{"type":"Point","coordinates":[-107.0146,40.2792]},"properties":{"s":65.9,"pub":false}},{"type":"Feature","geometry":{"type":"Point","coordinates":[-107.0146,40.285]},"properties":{"s":36.6,"pub":false}},{"type":"Feature","geometry":{"type":"Point","coordinates":[-107.0146,40.2908]},"properties":{"s":36.6,"pub":false}},{"type":"Feature","geometry":{"type":"Point","coordinates":[-107.0146,40.2966]},"properties":{"s":36.6,"pub":true}},{"type":"Feature","geometry":{"type":"Point","coordinates":[-107.0146,40.343]},"properties":{"s":22.0,"pub":false}},{"type":"Feature","geometry":{"type":"Point","coordinates":[-107.0146,40.3488]},"properties":{"s":22.0,"pub":false}},{"type":"Feature","geometry":{"type":"Point","coordinates":[-107.0146,40.4822]},"properties":{"s":65.9,"pub":false}},{"type":"Feature","geometry":{"type":"Point","coordinates":[-107.0071,40.2096]},"properties":{"s":22.0,"pub":false}},{"type":"Feature","geometry":{"type":"Point","coordinates":[-107.0071,40.2154]},"properties":{"s":22.0,"pub":false}},{"type":"Feature","geometry":{"type":"Point","coordinates":[-107.0071,40.2212]},"properties":{"s":22.0,"pub":false}},{"type":"Feature","geometry":{"type":"Point","coordinates":[-107.0071,40.2502]},"properties":{"s":46.3,"pub":false}},{"type":"Feature","geometry":{"type":"Point","coordinates":[-107.0071,40.256]},"properties":{"s":46.3,"pub":false}},{"type":"Feature","geometry":{"type":"Point","coordinates":[-107.0071,40.2618]},"properties":{"s":46.3,"pub":false}},{"type":"Feature","geometry":{"type":"Point","coordinates":[-107.0071,40.2676]},"properties":{"s":65.9,"pub":false}},{"type":"Feature","geometry":{"type":"Point","coordinates":[-107.0071,40.2734]},"properties":{"s":65.9,"pub":false}},{"type":"Feature","geometry":{"type":"Point","coordinates":[-107.0071,40.2792]},"properties":{"s":65.9,"pub":false}},{"type":"Feature","geometry":{"type":"Point","coordinates":[-107.0071,40.285]},"properties":{"s":65.9,"pub":false}},{"type":"Feature","geometry":{"type":"Point","coordinates":[-107.0071,40.3372]},"properties":{"s":22.0,"pub":false}},{"type":"Feature","geometry":{"type":"Point","coordinates":[-107.0071,40.343]},"properties":{"s":22.0,"pub":true}},{"type":"Feature","geometry":{"type":"Point","coordinates":[-107.0071,40.3488]},"properties":{"s":22.0,"pub":false}},{"type":"Feature","geometry":{"type":"Point","coordinates":[-107.0071,40.3546]},"properties":{"s":22.0,"pub":false}},{"type":"Feature","geometry":{"type":"Point","coordinates":[-107.0071,40.4126]},"properties":{"s":46.3,"pub":false}},{"type":"Feature","geometry":{"type":"Point","coordinates":[-107.0071,40.4764]},"properties":{"s":65.9,"pub":false}},{"type":"Feature","geometry":{"type":"Point","coordinates":[-107.0071,40.4822]},"properties":{"s":65.9,"pub":false}},{"type":"Feature","geometry":{"type":"Point","coordinates":[-106.9996,40.2096]},"properties":{"s":22.0,"pub":false}},{"type":"Feature","geometry":{"type":"Point","coordinates":[-106.9996,40.2154]},"properties":{"s":22.0,"pub":false}},{"type":"Feature","geometry":{"type":"Point","coordinates":[-106.9996,40.2212]},"properties":{"s":22.0,"pub":false}},{"type":"Feature","geometry":{"type":"Point","coordinates":[-106.9996,40.227]},"properties":{"s":22.0,"pub":false}},{"type":"Feature","geometry":{"type":"Point","coordinates":[-106.9996,40.2444]},"properties":{"s":22.0,"pub":false}},{"type":"Feature","geometry":{"type":"Point","coordinates":[-106.9996,40.2502]},"properties":{"s":46.3,"pub":false}},{"type":"Feature","geometry":{"type":"Point","coordinates":[-106.9996,40.256]},"properties":{"s":46.3,"pub":false}},{"type":"Feature","geometry":{"type":"Point","coordinates":[-106.9996,40.2618]},"properties":{"s":46.3,"pub":false}},{"type":"Feature","geometry":{"type":"Point","coordinates":[-106.9996,40.2676]},"properties":{"s":46.3,"pub":false}},{"type":"Feature","geometry":{"type":"Point","coordinates":[-106.9996,40.2734]},"properties":{"s":65.9,"pub":false}},{"type":"Feature","geometry":{"type":"Point","coordinates":[-106.9996,40.2792]},"properties":{"s":65.9,"pub":false}},{"type":"Feature","geometry":{"type":"Point","coordinates":[-106.9996,40.285]},"properties":{"s":46.3,"pub":false}},{"type":"Feature","geometry":{"type":"Point","coordinates":[-106.9996,40.343]},"properties":{"s":22.0,"pub":true}},{"type":"Feature","geometry":{"type":"Point","coordinates":[-106.9996,40.3488]},"properties":{"s":22.0,"pub":true}},{"type":"Feature","geometry":{"type":"Point","coordinates":[-106.9996,40.3546]},"properties":{"s":22.0,"pub":false}},{"type":"Feature","geometry":{"type":"Point","coordinates":[-106.9996,40.3604]},"properties":{"s":22.0,"pub":false}},{"type":"Feature","geometry":{"type":"Point","coordinates":[-106.9996,40.3662]},"properties":{"s":22.0,"pub":false}},{"type":"Feature","geometry":{"type":"Point","coordinates":[-106.9996,40.372]},"properties":{"s":22.0,"pub":false}},{"type":"Feature","geometry":{"type":"Point","coordinates":[-106.9996,40.4068]},"properties":{"s":46.3,"pub":false}},{"type":"Feature","geometry":{"type":"Point","coordinates":[-106.9996,40.4126]},"properties":{"s":46.3,"pub":false}},{"type":"Feature","geometry":{"type":"Point","coordinates":[-106.9996,40.4184]},"properties":{"s":46.3,"pub":false}},{"type":"Feature","geometry":{"type":"Point","coordinates":[-106.9996,40.4764]},"properties":{"s":65.9,"pub":false}},{"type":"Feature","geometry":{"type":"Point","coordinates":[-106.9996,40.4822]},"properties":{"s":65.9,"pub":false}},{"type":"Feature","geometry":{"type":"Point","coordinates":[-106.9921,40.2154]},"properties":{"s":22.0,"pub":false}},{"type":"Feature","geometry":{"type":"Point","coordinates":[-106.9921,40.2212]},"properties":{"s":22.0,"pub":false}},{"type":"Feature","geometry":{"type":"Point","coordinates":[-106.9921,40.227]},"properties":{"s":22.0,"pub":false}},{"type":"Feature","geometry":{"type":"Point","coordinates":[-106.9921,40.2328]},"properties":{"s":22.0,"pub":false}},{"type":"Feature","geometry":{"type":"Point","coordinates":[-106.9921,40.2444]},"properties":{"s":51.2,"pub":false}},{"type":"Feature","geometry":{"type":"Point","coordinates":[-106.9921,40.2502]},"properties":{"s":51.2,"pub":false}},{"type":"Feature","geometry":{"type":"Point","coordinates":[-106.9921,40.256]},"properties":{"s":51.2,"pub":false}},{"type":"Feature","geometry":{"type":"Point","coordinates":[-106.9921,40.2618]},"properties":{"s":46.3,"pub":false}},{"type":"Feature","geometry":{"type":"Point","coordinates":[-106.9921,40.2676]},"properties":{"s":46.3,"pub":false}},{"type":"Feature","geometry":{"type":"Point","coordinates":[-106.9921,40.2734]},"properties":{"s":46.3,"pub":false}},{"type":"Feature","geometry":{"type":"Point","coordinates":[-106.9921,40.2792]},"properties":{"s":46.3,"pub":false}},{"type":"Feature","geometry":{"type":"Point","coordinates":[-106.9921,40.285]},"properties":{"s":46.3,"pub":false}},{"type":"Feature","geometry":{"type":"Point","coordinates":[-106.9921,40.3662]},"properties":{"s":22.0,"pub":false}},{"type":"Feature","geometry":{"type":"Point","coordinates":[-106.9921,40.372]},"properties":{"s":22.0,"pub":false}},{"type":"Feature","geometry":{"type":"Point","coordinates":[-106.9921,40.3778]},"properties":{"s":22.0,"pub":false}},{"type":"Feature","geometry":{"type":"Point","coordinates":[-106.9921,40.3836]},"properties":{"s":22.0,"pub":false}},{"type":"Feature","geometry":{"type":"Point","coordinates":[-106.9921,40.4068]},"properties":{"s":46.3,"pub":false}},{"type":"Feature","geometry":{"type":"Point","coordinates":[-106.9921,40.4126]},"properties":{"s":46.3,"pub":false}},{"type":"Feature","geometry":{"type":"Point","coordinates":[-106.9921,40.4184]},"properties":{"s":46.3,"pub":false}},{"type":"Feature","geometry":{"type":"Point","coordinates":[-106.9921,40.4764]},"properties":{"s":65.9,"pub":false}},{"type":"Feature","geometry":{"type":"Point","coordinates":[-106.9921,40.4822]},"properties":{"s":65.9,"pub":false}},{"type":"Feature","geometry":{"type":"Point","coordinates":[-106.9846,40.2154]},"properties":{"s":22.0,"pub":false}},{"type":"Feature","geometry":{"type":"Point","coordinates":[-106.9846,40.2212]},"properties":{"s":22.0,"pub":false}},{"type":"Feature","geometry":{"type":"Point","coordinates":[-106.9846,40.227]},"properties":{"s":22.0,"pub":false}},{"type":"Feature","geometry":{"type":"Point","coordinates":[-106.9846,40.2328]},"properties":{"s":22.0,"pub":false}},{"type":"Feature","geometry":{"type":"Point","coordinates":[-106.9846,40.2386]},"properties":{"s":51.2,"pub":false}},{"type":"Feature","geometry":{"type":"Point","coordinates":[-106.9846,40.2444]},"properties":{"s":51.2,"pub":false}},{"type":"Feature","geometry":{"type":"Point","coordinates":[-106.9846,40.2502]},"properties":{"s":51.2,"pub":false}},{"type":"Feature","geometry":{"type":"Point","coordinates":[-106.9846,40.256]},"properties":{"s":51.2,"pub":false}},{"type":"Feature","geometry":{"type":"Point","coordinates":[-106.9846,40.2618]},"properties":{"s":51.2,"pub":false}},{"type":"Feature","geometry":{"type":"Point","coordinates":[-106.9846,40.2676]},"properties":{"s":51.2,"pub":false}},{"type":"Feature","geometry":{"type":"Point","coordinates":[-106.9846,40.2734]},"properties":{"s":46.3,"pub":false}},{"type":"Feature","geometry":{"type":"Point","coordinates":[-106.9846,40.2792]},"properties":{"s":46.3,"pub":false}},{"type":"Feature","geometry":{"type":"Point","coordinates":[-106.9846,40.285]},"properties":{"s":46.3,"pub":false}},{"type":"Feature","geometry":{"type":"Point","coordinates":[-106.9846,40.2908]},"properties":{"s":46.3,"pub":false}},{"type":"Feature","geometry":{"type":"Point","coordinates":[-106.9846,40.3778]},"properties":{"s":22.0,"pub":false}},{"type":"Feature","geometry":{"type":"Point","coordinates":[-106.9846,40.3836]},"properties":{"s":22.0,"pub":false}},{"type":"Feature","geometry":{"type":"Point","coordinates":[-106.9846,40.4068]},"properties":{"s":46.3,"pub":false}},{"type":"Feature","geometry":{"type":"Point","coordinates":[-106.9846,40.4126]},"properties":{"s":46.3,"pub":false}},{"type":"Feature","geometry":{"type":"Point","coordinates":[-106.9846,40.4184]},"properties":{"s":65.9,"pub":false}},{"type":"Feature","geometry":{"type":"Point","coordinates":[-106.9846,40.4242]},"properties":{"s":65.9,"pub":false}},{"type":"Feature","geometry":{"type":"Point","coordinates":[-106.9846,40.4474]},"properties":{"s":65.9,"pub":false}},{"type":"Feature","geometry":{"type":"Point","coordinates":[-106.9846,40.4532]},"properties":{"s":65.9,"pub":false}},{"type":"Feature","geometry":{"type":"Point","coordinates":[-106.9846,40.4648]},"properties":{"s":65.9,"pub":false}},{"type":"Feature","geometry":{"type":"Point","coordinates":[-106.9846,40.4706]},"properties":{"s":65.9,"pub":false}},{"type":"Feature","geometry":{"type":"Point","coordinates":[-106.9846,40.4764]},"properties":{"s":65.9,"pub":false}},{"type":"Feature","geometry":{"type":"Point","coordinates":[-106.9846,40.4822]},"properties":{"s":65.9,"pub":false}},{"type":"Feature","geometry":{"type":"Point","coordinates":[-106.9771,40.2154]},"properties":{"s":22.0,"pub":false}},{"type":"Feature","geometry":{"type":"Point","coordinates":[-106.9771,40.2212]},"properties":{"s":22.0,"pub":false}},{"type":"Feature","geometry":{"type":"Point","coordinates":[-106.9771,40.227]},"properties":{"s":22.0,"pub":false}},{"type":"Feature","geometry":{"type":"Point","coordinates":[-106.9771,40.2328]},"properties":{"s":51.2,"pub":false}},{"type":"Feature","geometry":{"type":"Point","coordinates":[-106.9771,40.2386]},"properties":{"s":51.2,"pub":false}},{"type":"Feature","geometry":{"type":"Point","coordinates":[-106.9771,40.2444]},"properties":{"s":51.2,"pub":false}},{"type":"Feature","geometry":{"type":"Point","coordinates":[-106.9771,40.2502]},"properties":{"s":51.2,"pub":false}},{"type":"Feature","geometry":{"type":"Point","coordinates":[-106.9771,40.256]},"properties":{"s":51.2,"pub":false}},{"type":"Feature","geometry":{"type":"Point","coordinates":[-106.9771,40.2618]},"properties":{"s":51.2,"pub":false}},{"type":"Feature","geometry":{"type":"Point","coordinates":[-106.9771,40.2676]},"properties":{"s":51.2,"pub":false}},{"type":"Feature","geometry":{"type":"Point","coordinates":[-106.9771,40.2734]},"properties":{"s":46.3,"pub":false}},{"type":"Feature","geometry":{"type":"Point","coordinates":[-106.9771,40.2792]},"properties":{"s":46.3,"pub":false}},{"type":"Feature","geometry":{"type":"Point","coordinates":[-106.9771,40.285]},"properties":{"s":46.3,"pub":false}},{"type":"Feature","geometry":{"type":"Point","coordinates":[-106.9771,40.2908]},"properties":{"s":46.3,"pub":false}},{"type":"Feature","geometry":{"type":"Point","coordinates":[-106.9771,40.4068]},"properties":{"s":46.3,"pub":false}},{"type":"Feature","geometry":{"type":"Point","coordinates":[-106.9771,40.4126]},"properties":{"s":65.9,"pub":false}},{"type":"Feature","geometry":{"type":"Point","coordinates":[-106.9771,40.4184]},"properties":{"s":65.9,"pub":false}},{"type":"Feature","geometry":{"type":"Point","coordinates":[-106.9771,40.4242]},"properties":{"s":65.9,"pub":false}},{"type":"Feature","geometry":{"type":"Point","coordinates":[-106.9771,40.43]},"properties":{"s":65.9,"pub":false}},{"type":"Feature","geometry":{"type":"Point","coordinates":[-106.9771,40.4358]},"properties":{"s":65.9,"pub":false}},{"type":"Feature","geometry":{"type":"Point","coordinates":[-106.9771,40.4416]},"properties":{"s":65.9,"pub":false}},{"type":"Feature","geometry":{"type":"Point","coordinates":[-106.9771,40.4474]},"properties":{"s":65.9,"pub":false}},{"type":"Feature","geometry":{"type":"Point","coordinates":[-106.9771,40.4532]},"properties":{"s":65.9,"pub":false}},{"type":"Feature","geometry":{"type":"Point","coordinates":[-106.9771,40.459]},"properties":{"s":65.9,"pub":false}},{"type":"Feature","geometry":{"type":"Point","coordinates":[-106.9771,40.4648]},"properties":{"s":65.9,"pub":false}},{"type":"Feature","geometry":{"type":"Point","coordinates":[-106.9771,40.4706]},"properties":{"s":65.9,"pub":false}},{"type":"Feature","geometry":{"type":"Point","coordinates":[-106.9771,40.4764]},"properties":{"s":65.9,"pub":false}},{"type":"Feature","geometry":{"type":"Point","coordinates":[-106.9771,40.4822]},"properties":{"s":65.9,"pub":false}},{"type":"Feature","geometry":{"type":"Point","coordinates":[-106.9696,40.2096]},"properties":{"s":22.0,"pub":false}},{"type":"Feature","geometry":{"type":"Point","coordinates":[-106.9696,40.2154]},"properties":{"s":22.0,"pub":true}},{"type":"Feature","geometry":{"type":"Point","coordinates":[-106.9696,40.2212]},"properties":{"s":22.0,"pub":false}},{"type":"Feature","geometry":{"type":"Point","coordinates":[-106.9696,40.227]},"properties":{"s":51.2,"pub":false}},{"type":"Feature","geometry":{"type":"Point","coordinates":[-106.9696,40.2328]},"properties":{"s":51.2,"pub":false}},{"type":"Feature","geometry":{"type":"Point","coordinates":[-106.9696,40.2386]},"properties":{"s":51.2,"pub":false}},{"type":"Feature","geometry":{"type":"Point","coordinates":[-106.9696,40.2444]},"properties":{"s":51.2,"pub":false}},{"type":"Feature","geometry":{"type":"Point","coordinates":[-106.9696,40.2502]},"properties":{"s":51.2,"pub":false}},{"type":"Feature","geometry":{"type":"Point","coordinates":[-106.9696,40.256]},"properties":{"s":51.2,"pub":false}},{"type":"Feature","geometry":{"type":"Point","coordinates":[-106.9696,40.2618]},"properties":{"s":46.3,"pub":false}},{"type":"Feature","geometry":{"type":"Point","coordinates":[-106.9696,40.2676]},"properties":{"s":46.3,"pub":false}},{"type":"Feature","geometry":{"type":"Point","coordinates":[-106.9696,40.2734]},"properties":{"s":46.3,"pub":false}},{"type":"Feature","geometry":{"type":"Point","coordinates":[-106.9696,40.2792]},"properties":{"s":46.3,"pub":false}},{"type":"Feature","geometry":{"type":"Point","coordinates":[-106.9696,40.285]},"properties":{"s":46.3,"pub":false}},{"type":"Feature","geometry":{"type":"Point","coordinates":[-106.9696,40.2908]},"properties":{"s":46.3,"pub":false}},{"type":"Feature","geometry":{"type":"Point","coordinates":[-106.9696,40.2966]},"properties":{"s":46.3,"pub":false}},{"type":"Feature","geometry":{"type":"Point","coordinates":[-106.9696,40.3024]},"properties":{"s":22.0,"pub":false}},{"type":"Feature","geometry":{"type":"Point","coordinates":[-106.9696,40.3082]},"properties":{"s":22.0,"pub":false}},{"type":"Feature","geometry":{"type":"Point","coordinates":[-106.9696,40.401]},"properties":{"s":46.3,"pub":false}},{"type":"Feature","geometry":{"type":"Point","coordinates":[-106.9696,40.4068]},"properties":{"s":46.3,"pub":false}},{"type":"Feature","geometry":{"type":"Point","coordinates":[-106.9696,40.4126]},"properties":{"s":65.9,"pub":false}},{"type":"Feature","geometry":{"type":"Point","coordinates":[-106.9696,40.4184]},"properties":{"s":65.9,"pub":false}},{"type":"Feature","geometry":{"type":"Point","coordinates":[-106.9696,40.4242]},"properties":{"s":65.9,"pub":false}},{"type":"Feature","geometry":{"type":"Point","coordinates":[-106.9696,40.43]},"properties":{"s":65.9,"pub":false}},{"type":"Feature","geometry":{"type":"Point","coordinates":[-106.9696,40.4358]},"properties":{"s":65.9,"pub":false}},{"type":"Feature","geometry":{"type":"Point","coordinates":[-106.9696,40.4416]},"properties":{"s":65.9,"pub":false}},{"type":"Feature","geometry":{"type":"Point","coordinates":[-106.9696,40.4474]},"properties":{"s":65.9,"pub":false}},{"type":"Feature","geometry":{"type":"Point","coordinates":[-106.9696,40.4532]},"properties":{"s":65.9,"pub":true}},{"type":"Feature","geometry":{"type":"Point","coordinates":[-106.9696,40.459]},"properties":{"s":65.9,"pub":true}},{"type":"Feature","geometry":{"type":"Point","coordinates":[-106.9696,40.4648]},"properties":{"s":65.9,"pub":true}},{"type":"Feature","geometry":{"type":"Point","coordinates":[-106.9696,40.4706]},"properties":{"s":65.9,"pub":true}},{"type":"Feature","geometry":{"type":"Point","coordinates":[-106.9696,40.4764]},"properties":{"s":65.9,"pub":true}},{"type":"Feature","geometry":{"type":"Point","coordinates":[-106.9696,40.4822]},"properties":{"s":65.9,"pub":false}},{"type":"Feature","geometry":{"type":"Point","coordinates":[-106.9621,40.2154]},"properties":{"s":22.0,"pub":true}},{"type":"Feature","geometry":{"type":"Point","coordinates":[-106.9621,40.2212]},"properties":{"s":22.0,"pub":false}},{"type":"Feature","geometry":{"type":"Point","coordinates":[-106.9621,40.227]},"properties":{"s":51.2,"pub":false}},{"type":"Feature","geometry":{"type":"Point","coordinates":[-106.9621,40.2328]},"properties":{"s":51.2,"pub":false}},{"type":"Feature","geometry":{"type":"Point","coordinates":[-106.9621,40.2386]},"properties":{"s":51.2,"pub":false}},{"type":"Feature","geometry":{"type":"Point","coordinates":[-106.9621,40.2444]},"properties":{"s":51.2,"pub":false}},{"type":"Feature","geometry":{"type":"Point","coordinates":[-106.9621,40.2502]},"properties":{"s":51.2,"pub":false}},{"type":"Feature","geometry":{"type":"Point","coordinates":[-106.9621,40.256]},"properties":{"s":51.2,"pub":false}},{"type":"Feature","geometry":{"type":"Point","coordinates":[-106.9621,40.2618]},"properties":{"s":46.3,"pub":false}},{"type":"Feature","geometry":{"type":"Point","coordinates":[-106.9621,40.2676]},"properties":{"s":46.3,"pub":false}},{"type":"Feature","geometry":{"type":"Point","coordinates":[-106.9621,40.2734]},"properties":{"s":46.3,"pub":false}},{"type":"Feature","geometry":{"type":"Point","coordinates":[-106.9621,40.2966]},"properties":{"s":51.2,"pub":false}},{"type":"Feature","geometry":{"type":"Point","coordinates":[-106.9621,40.3024]},"properties":{"s":22.0,"pub":false}},{"type":"Feature","geometry":{"type":"Point","coordinates":[-106.9621,40.3082]},"properties":{"s":22.0,"pub":false}},{"type":"Feature","geometry":{"type":"Point","coordinates":[-106.9621,40.314]},"properties":{"s":22.0,"pub":false}},{"type":"Feature","geometry":{"type":"Point","coordinates":[-106.9621,40.3198]},"properties":{"s":22.0,"pub":false}},{"type":"Feature","geometry":{"type":"Point","coordinates":[-106.9621,40.3256]},"properties":{"s":22.0,"pub":false}},{"type":"Feature","geometry":{"type":"Point","coordinates":[-106.9621,40.3314]},"properties":{"s":22.0,"pub":false}},{"type":"Feature","geometry":{"type":"Point","coordinates":[-106.9621,40.401]},"properties":{"s":51.2,"pub":false}},{"type":"Feature","geometry":{"type":"Point","coordinates":[-106.9621,40.4068]},"properties":{"s":51.2,"pub":false}},{"type":"Feature","geometry":{"type":"Point","coordinates":[-106.9621,40.4126]},"properties":{"s":70.7,"pub":false}},{"type":"Feature","geometry":{"type":"Point","coordinates":[-106.9621,40.4184]},"properties":{"s":65.9,"pub":false}},{"type":"Feature","geometry":{"type":"Point","coordinates":[-106.9621,40.4242]},"properties":{"s":65.9,"pub":false}},{"type":"Feature","geometry":{"type":"Point","coordinates":[-106.9621,40.43]},"properties":{"s":65.9,"pub":false}},{"type":"Feature","geometry":{"type":"Point","coordinates":[-106.9621,40.4358]},"properties":{"s":65.9,"pub":false}},{"type":"Feature","geometry":{"type":"Point","coordinates":[-106.9621,40.4416]},"properties":{"s":65.9,"pub":false}},{"type":"Feature","geometry":{"type":"Point","coordinates":[-106.9621,40.4474]},"properties":{"s":65.9,"pub":false}},{"type":"Feature","geometry":{"type":"Point","coordinates":[-106.9621,40.4532]},"properties":{"s":65.9,"pub":true}},{"type":"Feature","geometry":{"type":"Point","coordinates":[-106.9621,40.459]},"properties":{"s":65.9,"pub":true}},{"type":"Feature","geometry":{"type":"Point","coordinates":[-106.9621,40.4648]},"properties":{"s":65.9,"pub":true}},{"type":"Feature","geometry":{"type":"Point","coordinates":[-106.9621,40.4706]},"properties":{"s":65.9,"pub":true}},{"type":"Feature","geometry":{"type":"Point","coordinates":[-106.9621,40.4764]},"properties":{"s":65.9,"pub":true}},{"type":"Feature","geometry":{"type":"Point","coordinates":[-106.9621,40.4822]},"properties":{"s":65.9,"pub":false}},{"type":"Feature","geometry":{"type":"Point","coordinates":[-106.9621,40.488]},"properties":{"s":65.9,"pub":false}},{"type":"Feature","geometry":{"type":"Point","coordinates":[-106.9546,40.227]},"properties":{"s":46.3,"pub":false}},{"type":"Feature","geometry":{"type":"Point","coordinates":[-106.9546,40.2328]},"properties":{"s":51.2,"pub":false}},{"type":"Feature","geometry":{"type":"Point","coordinates":[-106.9546,40.2386]},"properties":{"s":51.2,"pub":false}},{"type":"Feature","geometry":{"type":"Point","coordinates":[-106.9546,40.2444]},"properties":{"s":46.3,"pub":false}},{"type":"Feature","geometry":{"type":"Point","coordinates":[-106.9546,40.2502]},"properties":{"s":51.2,"pub":false}},{"type":"Feature","geometry":{"type":"Point","coordinates":[-106.9546,40.256]},"properties":{"s":46.3,"pub":false}},{"type":"Feature","geometry":{"type":"Point","coordinates":[-106.9546,40.2618]},"properties":{"s":46.3,"pub":false}},{"type":"Feature","geometry":{"type":"Point","coordinates":[-106.9546,40.2676]},"properties":{"s":46.3,"pub":false}},{"type":"Feature","geometry":{"type":"Point","coordinates":[-106.9546,40.2734]},"properties":{"s":46.3,"pub":false}},{"type":"Feature","geometry":{"type":"Point","coordinates":[-106.9546,40.3372]},"properties":{"s":22.0,"pub":false}},{"type":"Feature","geometry":{"type":"Point","coordinates":[-106.9546,40.3952]},"properties":{"s":22.0,"pub":false}},{"type":"Feature","geometry":{"type":"Point","coordinates":[-106.9546,40.401]},"properties":{"s":51.2,"pub":false}},{"type":"Feature","geometry":{"type":"Point","coordinates":[-106.9546,40.4068]},"properties":{"s":51.2,"pub":false}},{"type":"Feature","geometry":{"type":"Point","coordinates":[-106.9546,40.4126]},"properties":{"s":46.3,"pub":false}},{"type":"Feature","geometry":{"type":"Point","coordinates":[-106.9546,40.4184]},"properties":{"s":65.9,"pub":false}},{"type":"Feature","geometry":{"type":"Point","coordinates":[-106.9546,40.4242]},"properties":{"s":65.9,"pub":false}},{"type":"Feature","geometry":{"type":"Point","coordinates":[-106.9546,40.43]},"properties":{"s":65.9,"pub":false}},{"type":"Feature","geometry":{"type":"Point","coordinates":[-106.9546,40.4358]},"properties":{"s":65.9,"pub":false}},{"type":"Feature","geometry":{"type":"Point","coordinates":[-106.9546,40.4416]},"properties":{"s":65.9,"pub":true}},{"type":"Feature","geometry":{"type":"Point","coordinates":[-106.9546,40.4474]},"properties":{"s":65.9,"pub":true}},{"type":"Feature","geometry":{"type":"Point","coordinates":[-106.9546,40.4532]},"properties":{"s":65.9,"pub":true}},{"type":"Feature","geometry":{"type":"Point","coordinates":[-106.9546,40.459]},"properties":{"s":65.9,"pub":true}},{"type":"Feature","geometry":{"type":"Point","coordinates":[-106.9546,40.4648]},"properties":{"s":65.9,"pub":true}},{"type":"Feature","geometry":{"type":"Point","coordinates":[-106.9546,40.4706]},"properties":{"s":65.9,"pub":true}},{"type":"Feature","geometry":{"type":"Point","coordinates":[-106.9546,40.4764]},"properties":{"s":65.9,"pub":true}},{"type":"Feature","geometry":{"type":"Point","coordinates":[-106.9546,40.4822]},"properties":{"s":65.9,"pub":true}},{"type":"Feature","geometry":{"type":"Point","coordinates":[-106.9546,40.488]},"properties":{"s":65.9,"pub":false}},{"type":"Feature","geometry":{"type":"Point","coordinates":[-106.9471,40.227]},"properties":{"s":46.3,"pub":false}},{"type":"Feature","geometry":{"type":"Point","coordinates":[-106.9471,40.2328]},"properties":{"s":46.3,"pub":false}},{"type":"Feature","geometry":{"type":"Point","coordinates":[-106.9471,40.2386]},"properties":{"s":46.3,"pub":false}},{"type":"Feature","geometry":{"type":"Point","coordinates":[-106.9471,40.2444]},"properties":{"s":46.3,"pub":false}},{"type":"Feature","geometry":{"type":"Point","coordinates":[-106.9471,40.2502]},"properties":{"s":46.3,"pub":false}},{"type":"Feature","geometry":{"type":"Point","coordinates":[-106.9471,40.256]},"properties":{"s":46.3,"pub":false}},{"type":"Feature","geometry":{"type":"Point","coordinates":[-106.9471,40.2618]},"properties":{"s":46.3,"pub":false}},{"type":"Feature","geometry":{"type":"Point","coordinates":[-106.9471,40.3894]},"properties":{"s":22.0,"pub":false}},{"type":"Feature","geometry":{"type":"Point","coordinates":[-106.9471,40.3952]},"properties":{"s":22.0,"pub":false}},{"type":"Feature","geometry":{"type":"Point","coordinates":[-106.9471,40.401]},"properties":{"s":46.3,"pub":false}},{"type":"Feature","geometry":{"type":"Point","coordinates":[-106.9471,40.4068]},"properties":{"s":46.3,"pub":false}},{"type":"Feature","geometry":{"type":"Point","coordinates":[-106.9471,40.4126]},"properties":{"s":46.3,"pub":false}},{"type":"Feature","geometry":{"type":"Point","coordinates":[-106.9471,40.4184]},"properties":{"s":65.9,"pub":false}},{"type":"Feature","geometry":{"type":"Point","coordinates":[-106.9471,40.4242]},"properties":{"s":65.9,"pub":false}},{"type":"Feature","geometry":{"type":"Point","coordinates":[-106.9471,40.43]},"properties":{"s":65.9,"pub":false}},{"type":"Feature","geometry":{"type":"Point","coordinates":[-106.9471,40.4358]},"properties":{"s":65.9,"pub":false}},{"type":"Feature","geometry":{"type":"Point","coordinates":[-106.9471,40.4416]},"properties":{"s":65.9,"pub":true}},{"type":"Feature","geometry":{"type":"Point","coordinates":[-106.9471,40.4474]},"properties":{"s":65.9,"pub":true}},{"type":"Feature","geometry":{"type":"Point","coordinates":[-106.9471,40.4532]},"properties":{"s":65.9,"pub":true}},{"type":"Feature","geometry":{"type":"Point","coordinates":[-106.9471,40.459]},"properties":{"s":65.9,"pub":true}},{"type":"Feature","geometry":{"type":"Point","coordinates":[-106.9471,40.4648]},"properties":{"s":65.9,"pub":true}},{"type":"Feature","geometry":{"type":"Point","coordinates":[-106.9471,40.4706]},"properties":{"s":65.9,"pub":true}},{"type":"Feature","geometry":{"type":"Point","coordinates":[-106.9471,40.4764]},"properties":{"s":65.9,"pub":true}},{"type":"Feature","geometry":{"type":"Point","coordinates":[-106.9471,40.4822]},"properties":{"s":65.9,"pub":false}},{"type":"Feature","geometry":{"type":"Point","coordinates":[-106.9471,40.488]},"properties":{"s":65.9,"pub":false}},{"type":"Feature","geometry":{"type":"Point","coordinates":[-106.9471,40.4938]},"properties":{"s":65.9,"pub":false}},{"type":"Feature","geometry":{"type":"Point","coordinates":[-106.9396,40.2502]},"properties":{"s":46.3,"pub":false}},{"type":"Feature","geometry":{"type":"Point","coordinates":[-106.9396,40.3894]},"properties":{"s":22.0,"pub":false}},{"type":"Feature","geometry":{"type":"Point","coordinates":[-106.9396,40.401]},"properties":{"s":46.3,"pub":false}},{"type":"Feature","geometry":{"type":"Point","coordinates":[-106.9396,40.4068]},"properties":{"s":46.3,"pub":false}},{"type":"Feature","geometry":{"type":"Point","coordinates":[-106.9396,40.4126]},"properties":{"s":46.3,"pub":false}},{"type":"Feature","geometry":{"type":"Point","coordinates":[-106.9396,40.4184]},"properties":{"s":46.3,"pub":false}},{"type":"Feature","geometry":{"type":"Point","coordinates":[-106.9396,40.4242]},"properties":{"s":65.9,"pub":false}},{"type":"Feature","geometry":{"type":"Point","coordinates":[-106.9396,40.43]},"properties":{"s":65.9,"pub":false}},{"type":"Feature","geometry":{"type":"Point","coordinates":[-106.9396,40.4358]},"properties":{"s":65.9,"pub":false}},{"type":"Feature","geometry":{"type":"Point","coordinates":[-106.9396,40.4416]},"properties":{"s":65.9,"pub":true}},{"type":"Feature","geometry":{"type":"Point","coordinates":[-106.9396,40.4474]},"properties":{"s":65.9,"pub":true}},{"type":"Feature","geometry":{"type":"Point","coordinates":[-106.9396,40.4532]},"properties":{"s":65.9,"pub":true}},{"type":"Feature","geometry":{"type":"Point","coordinates":[-106.9396,40.459]},"properties":{"s":65.9,"pub":true}},{"type":"Feature","geometry":{"type":"Point","coordinates":[-106.9396,40.4648]},"properties":{"s":65.9,"pub":true}},{"type":"Feature","geometry":{"type":"Point","coordinates":[-106.9396,40.4706]},"properties":{"s":65.9,"pub":false}},{"type":"Feature","geometry":{"type":"Point","coordinates":[-106.9396,40.4764]},"properties":{"s":65.9,"pub":false}},{"type":"Feature","geometry":{"type":"Point","coordinates":[-106.9396,40.4822]},"properties":{"s":65.9,"pub":false}},{"type":"Feature","geometry":{"type":"Point","coordinates":[-106.9396,40.488]},"properties":{"s":65.9,"pub":false}},{"type":"Feature","geometry":{"type":"Point","coordinates":[-106.9396,40.4938]},"properties":{"s":65.9,"pub":false}},{"type":"Feature","geometry":{"type":"Point","coordinates":[-106.9321,40.401]},"properties":{"s":46.3,"pub":false}},{"type":"Feature","geometry":{"type":"Point","coordinates":[-106.9321,40.4068]},"properties":{"s":46.3,"pub":false}},{"type":"Feature","geometry":{"type":"Point","coordinates":[-106.9321,40.4126]},"properties":{"s":46.3,"pub":false}},{"type":"Feature","geometry":{"type":"Point","coordinates":[-106.9321,40.4184]},"properties":{"s":46.3,"pub":false}},{"type":"Feature","geometry":{"type":"Point","coordinates":[-106.9321,40.4242]},"properties":{"s":65.9,"pub":false}},{"type":"Feature","geometry":{"type":"Point","coordinates":[-106.9321,40.43]},"properties":{"s":65.9,"pub":true}},{"type":"Feature","geometry":{"type":"Point","coordinates":[-106.9321,40.4358]},"properties":{"s":65.9,"pub":false}},{"type":"Feature","geometry":{"type":"Point","coordinates":[-106.9321,40.4416]},"properties":{"s":65.9,"pub":true}},{"type":"Feature","geometry":{"type":"Point","coordinates":[-106.9321,40.4474]},"properties":{"s":65.9,"pub":true}},{"type":"Feature","geometry":{"type":"Point","coordinates":[-106.9321,40.4532]},"properties":{"s":65.9,"pub":true}},{"type":"Feature","geometry":{"type":"Point","coordinates":[-106.9321,40.459]},"properties":{"s":65.9,"pub":true}},{"type":"Feature","geometry":{"type":"Point","coordinates":[-106.9321,40.4648]},"properties":{"s":65.9,"pub":true}},{"type":"Feature","geometry":{"type":"Point","coordinates":[-106.9321,40.4706]},"properties":{"s":65.9,"pub":false}},{"type":"Feature","geometry":{"type":"Point","coordinates":[-106.9321,40.4764]},"properties":{"s":65.9,"pub":false}},{"type":"Feature","geometry":{"type":"Point","coordinates":[-106.9321,40.4822]},"properties":{"s":65.9,"pub":false}},{"type":"Feature","geometry":{"type":"Point","coordinates":[-106.9321,40.488]},"properties":{"s":65.9,"pub":false}},{"type":"Feature","geometry":{"type":"Point","coordinates":[-106.9321,40.4938]},"properties":{"s":65.9,"pub":false}},{"type":"Feature","geometry":{"type":"Point","coordinates":[-106.9321,40.4996]},"properties":{"s":46.3,"pub":false}},{"type":"Feature","geometry":{"type":"Point","coordinates":[-106.9246,40.3894]},"properties":{"s":46.3,"pub":true}},{"type":"Feature","geometry":{"type":"Point","coordinates":[-106.9246,40.3952]},"properties":{"s":46.3,"pub":true}},{"type":"Feature","geometry":{"type":"Point","coordinates":[-106.9246,40.401]},"properties":{"s":46.3,"pub":false}},{"type":"Feature","geometry":{"type":"Point","coordinates":[-106.9246,40.4068]},"properties":{"s":46.3,"pub":false}},{"type":"Feature","geometry":{"type":"Point","coordinates":[-106.9246,40.4126]},"properties":{"s":46.3,"pub":false}},{"type":"Feature","geometry":{"type":"Point","coordinates":[-106.9246,40.4184]},"properties":{"s":46.3,"pub":false}},{"type":"Feature","geometry":{"type":"Point","coordinates":[-106.9246,40.4242]},"properties":{"s":65.9,"pub":false}},{"type":"Feature","geometry":{"type":"Point","coordinates":[-106.9246,40.43]},"properties":{"s":65.9,"pub":true}},{"type":"Feature","geometry":{"type":"Point","coordinates":[-106.9246,40.4358]},"properties":{"s":65.9,"pub":false}},{"type":"Feature","geometry":{"type":"Point","coordinates":[-106.9246,40.4416]},"properties":{"s":65.9,"pub":true}},{"type":"Feature","geometry":{"type":"Point","coordinates":[-106.9246,40.4474]},"properties":{"s":65.9,"pub":true}},{"type":"Feature","geometry":{"type":"Point","coordinates":[-106.9246,40.4532]},"properties":{"s":65.9,"pub":true}},{"type":"Feature","geometry":{"type":"Point","coordinates":[-106.9246,40.459]},"properties":{"s":65.9,"pub":true}},{"type":"Feature","geometry":{"type":"Point","coordinates":[-106.9246,40.4648]},"properties":{"s":65.9,"pub":true}},{"type":"Feature","geometry":{"type":"Point","coordinates":[-106.9246,40.4706]},"properties":{"s":65.9,"pub":false}},{"type":"Feature","geometry":{"type":"Point","coordinates":[-106.9246,40.4764]},"properties":{"s":65.9,"pub":false}},{"type":"Feature","geometry":{"type":"Point","coordinates":[-106.9246,40.4822]},"properties":{"s":65.9,"pub":false}},{"type":"Feature","geometry":{"type":"Point","coordinates":[-106.9246,40.488]},"properties":{"s":65.9,"pub":false}},{"type":"Feature","geometry":{"type":"Point","coordinates":[-106.9246,40.4938]},"properties":{"s":65.9,"pub":false}},{"type":"Feature","geometry":{"type":"Point","coordinates":[-106.9246,40.4996]},"properties":{"s":46.3,"pub":false}},{"type":"Feature","geometry":{"type":"Point","coordinates":[-106.9171,40.3894]},"properties":{"s":46.3,"pub":false}},{"type":"Feature","geometry":{"type":"Point","coordinates":[-106.9171,40.3952]},"properties":{"s":46.3,"pub":false}},{"type":"Feature","geometry":{"type":"Point","coordinates":[-106.9171,40.401]},"properties":{"s":46.3,"pub":false}},{"type":"Feature","geometry":{"type":"Point","coordinates":[-106.9171,40.4068]},"properties":{"s":46.3,"pub":false}},{"type":"Feature","geometry":{"type":"Point","coordinates":[-106.9171,40.4126]},"properties":{"s":46.3,"pub":false}},{"type":"Feature","geometry":{"type":"Point","coordinates":[-106.9171,40.4184]},"properties":{"s":46.3,"pub":false}},{"type":"Feature","geometry":{"type":"Point","coordinates":[-106.9171,40.4242]},"properties":{"s":46.3,"pub":false}},{"type":"Feature","geometry":{"type":"Point","coordinates":[-106.9171,40.43]},"properties":{"s":65.9,"pub":true}},{"type":"Feature","geometry":{"type":"Point","coordinates":[-106.9171,40.4358]},"properties":{"s":65.9,"pub":true}},{"type":"Feature","geometry":{"type":"Point","coordinates":[-106.9171,40.4416]},"properties":{"s":65.9,"pub":true}},{"type":"Feature","geometry":{"type":"Point","coordinates":[-106.9171,40.4474]},"properties":{"s":65.9,"pub":true}},{"type":"Feature","geometry":{"type":"Point","coordinates":[-106.9171,40.4532]},"properties":{"s":65.9,"pub":true}},{"type":"Feature","geometry":{"type":"Point","coordinates":[-106.9171,40.459]},"properties":{"s":70.7,"pub":true}},{"type":"Feature","geometry":{"type":"Point","coordinates":[-106.9171,40.4648]},"properties":{"s":70.7,"pub":true}},{"type":"Feature","geometry":{"type":"Point","coordinates":[-106.9171,40.4706]},"properties":{"s":70.7,"pub":true}},{"type":"Feature","geometry":{"type":"Point","coordinates":[-106.9171,40.4764]},"properties":{"s":70.7,"pub":false}},{"type":"Feature","geometry":{"type":"Point","coordinates":[-106.9171,40.4822]},"properties":{"s":65.9,"pub":false}},{"type":"Feature","geometry":{"type":"Point","coordinates":[-106.9171,40.488]},"properties":{"s":65.9,"pub":false}},{"type":"Feature","geometry":{"type":"Point","coordinates":[-106.9171,40.4938]},"properties":{"s":65.9,"pub":false}},{"type":"Feature","geometry":{"type":"Point","coordinates":[-106.9171,40.4996]},"properties":{"s":46.3,"pub":false}},{"type":"Feature","geometry":{"type":"Point","coordinates":[-106.9096,40.3894]},"properties":{"s":46.3,"pub":false}},{"type":"Feature","geometry":{"type":"Point","coordinates":[-106.9096,40.3952]},"properties":{"s":46.3,"pub":false}},{"type":"Feature","geometry":{"type":"Point","coordinates":[-106.9096,40.401]},"properties":{"s":46.3,"pub":false}},{"type":"Feature","geometry":{"type":"Point","coordinates":[-106.9096,40.4068]},"properties":{"s":46.3,"pub":false}},{"type":"Feature","geometry":{"type":"Point","coordinates":[-106.9096,40.4126]},"properties":{"s":46.3,"pub":false}},{"type":"Feature","geometry":{"type":"Point","coordinates":[-106.9096,40.4184]},"properties":{"s":46.3,"pub":false}},{"type":"Feature","geometry":{"type":"Point","coordinates":[-106.9096,40.4242]},"properties":{"s":46.3,"pub":false}},{"type":"Feature","geometry":{"type":"Point","coordinates":[-106.9096,40.43]},"properties":{"s":65.9,"pub":true}},{"type":"Feature","geometry":{"type":"Point","coordinates":[-106.9096,40.4358]},"properties":{"s":65.9,"pub":true}},{"type":"Feature","geometry":{"type":"Point","coordinates":[-106.9096,40.4416]},"properties":{"s":65.9,"pub":true}},{"type":"Feature","geometry":{"type":"Point","coordinates":[-106.9096,40.4474]},"properties":{"s":70.7,"pub":true}},{"type":"Feature","geometry":{"type":"Point","coordinates":[-106.9096,40.4532]},"properties":{"s":100.0,"pub":true}},{"type":"Feature","geometry":{"type":"Point","coordinates":[-106.9096,40.459]},"properties":{"s":70.7,"pub":true}},{"type":"Feature","geometry":{"type":"Point","coordinates":[-106.9096,40.4648]},"properties":{"s":100.0,"pub":true}},{"type":"Feature","geometry":{"type":"Point","coordinates":[-106.9096,40.4706]},"properties":{"s":100.0,"pub":true}},{"type":"Feature","geometry":{"type":"Point","coordinates":[-106.9096,40.4764]},"properties":{"s":100.0,"pub":false}},{"type":"Feature","geometry":{"type":"Point","coordinates":[-106.9096,40.4822]},"properties":{"s":70.7,"pub":false}},{"type":"Feature","geometry":{"type":"Point","coordinates":[-106.9096,40.488]},"properties":{"s":65.9,"pub":false}},{"type":"Feature","geometry":{"type":"Point","coordinates":[-106.9096,40.4938]},"properties":{"s":65.9,"pub":false}},{"type":"Feature","geometry":{"type":"Point","coordinates":[-106.9096,40.4996]},"properties":{"s":46.3,"pub":false}},{"type":"Feature","geometry":{"type":"Point","coordinates":[-106.9021,40.3894]},"properties":{"s":46.3,"pub":false}},{"type":"Feature","geometry":{"type":"Point","coordinates":[-106.9021,40.3952]},"properties":{"s":46.3,"pub":false}},{"type":"Feature","geometry":{"type":"Point","coordinates":[-106.9021,40.401]},"properties":{"s":46.3,"pub":false}},{"type":"Feature","geometry":{"type":"Point","coordinates":[-106.9021,40.4068]},"properties":{"s":46.3,"pub":false}},{"type":"Feature","geometry":{"type":"Point","coordinates":[-106.9021,40.4126]},"properties":{"s":46.3,"pub":false}},{"type":"Feature","geometry":{"type":"Point","coordinates":[-106.9021,40.4184]},"properties":{"s":46.3,"pub":false}},{"type":"Feature","geometry":{"type":"Point","coordinates":[-106.9021,40.4242]},"properties":{"s":46.3,"pub":false}},{"type":"Feature","geometry":{"type":"Point","coordinates":[-106.9021,40.43]},"properties":{"s":65.9,"pub":true}},{"type":"Feature","geometry":{"type":"Point","coordinates":[-106.9021,40.4358]},"properties":{"s":70.7,"pub":true}},{"type":"Feature","geometry":{"type":"Point","coordinates":[-106.9021,40.4416]},"properties":{"s":70.7,"pub":true}},{"type":"Feature","geometry":{"type":"Point","coordinates":[-106.9021,40.4474]},"properties":{"s":100.0,"pub":true}},{"type":"Feature","geometry":{"type":"Point","coordinates":[-106.9021,40.4532]},"properties":{"s":100.0,"pub":true}},{"type":"Feature","geometry":{"type":"Point","coordinates":[-106.9021,40.459]},"properties":{"s":100.0,"pub":true}},{"type":"Feature","geometry":{"type":"Point","coordinates":[-106.9021,40.4648]},"properties":{"s":100.0,"pub":true}},{"type":"Feature","geometry":{"type":"Point","coordinates":[-106.9021,40.4706]},"properties":{"s":100.0,"pub":true}},{"type":"Feature","geometry":{"type":"Point","coordinates":[-106.9021,40.4764]},"properties":{"s":100.0,"pub":true}},{"type":"Feature","geometry":{"type":"Point","coordinates":[-106.9021,40.4822]},"properties":{"s":70.7,"pub":false}},{"type":"Feature","geometry":{"type":"Point","coordinates":[-106.9021,40.488]},"properties":{"s":65.9,"pub":false}},{"type":"Feature","geometry":{"type":"Point","coordinates":[-106.9021,40.4938]},"properties":{"s":65.9,"pub":false}},{"type":"Feature","geometry":{"type":"Point","coordinates":[-106.9021,40.4996]},"properties":{"s":65.9,"pub":false}},{"type":"Feature","geometry":{"type":"Point","coordinates":[-106.9021,40.5054]},"properties":{"s":46.3,"pub":false}},{"type":"Feature","geometry":{"type":"Point","coordinates":[-106.8946,40.3894]},"properties":{"s":46.3,"pub":false}},{"type":"Feature","geometry":{"type":"Point","coordinates":[-106.8946,40.3952]},"properties":{"s":65.9,"pub":false}},{"type":"Feature","geometry":{"type":"Point","coordinates":[-106.8946,40.401]},"properties":{"s":65.9,"pub":false}},{"type":"Feature","geometry":{"type":"Point","coordinates":[-106.8946,40.4068]},"properties":{"s":46.3,"pub":false}},{"type":"Feature","geometry":{"type":"Point","coordinates":[-106.8946,40.4126]},"properties":{"s":46.3,"pub":false}},{"type":"Feature","geometry":{"type":"Point","coordinates":[-106.8946,40.4184]},"properties":{"s":46.3,"pub":false}},{"type":"Feature","geometry":{"type":"Point","coordinates":[-106.8946,40.4242]},"properties":{"s":46.3,"pub":false}},{"type":"Feature","geometry":{"type":"Point","coordinates":[-106.8946,40.43]},"properties":{"s":70.7,"pub":true}},{"type":"Feature","geometry":{"type":"Point","coordinates":[-106.8946,40.4358]},"properties":{"s":70.7,"pub":true}},{"type":"Feature","geometry":{"type":"Point","coordinates":[-106.8946,40.4416]},"properties":{"s":100.0,"pub":true}},{"type":"Feature","geometry":{"type":"Point","coordinates":[-106.8946,40.4474]},"properties":{"s":100.0,"pub":true}},{"type":"Feature","geometry":{"type":"Point","coordinates":[-106.8946,40.4532]},"properties":{"s":100.0,"pub":true}},{"type":"Feature","geometry":{"type":"Point","coordinates":[-106.8946,40.459]},"properties":{"s":100.0,"pub":true}},{"type":"Feature","geometry":{"type":"Point","coordinates":[-106.8946,40.4648]},"properties":{"s":100.0,"pub":false}},{"type":"Feature","geometry":{"type":"Point","coordinates":[-106.8946,40.4706]},"properties":{"s":100.0,"pub":false}},{"type":"Feature","geometry":{"type":"Point","coordinates":[-106.8946,40.4764]},"properties":{"s":100.0,"pub":false}},{"type":"Feature","geometry":{"type":"Point","coordinates":[-106.8946,40.4822]},"properties":{"s":70.7,"pub":false}},{"type":"Feature","geometry":{"type":"Point","coordinates":[-106.8946,40.488]},"properties":{"s":65.9,"pub":false}},{"type":"Feature","geometry":{"type":"Point","coordinates":[-106.8946,40.4938]},"properties":{"s":65.9,"pub":false}},{"type":"Feature","geometry":{"type":"Point","coordinates":[-106.8946,40.4996]},"properties":{"s":65.9,"pub":false}},{"type":"Feature","geometry":{"type":"Point","coordinates":[-106.8946,40.5054]},"properties":{"s":46.3,"pub":false}},{"type":"Feature","geometry":{"type":"Point","coordinates":[-106.8871,40.3952]},"properties":{"s":65.9,"pub":false}},{"type":"Feature","geometry":{"type":"Point","coordinates":[-106.8871,40.401]},"properties":{"s":65.9,"pub":false}},{"type":"Feature","geometry":{"type":"Point","coordinates":[-106.8871,40.4068]},"properties":{"s":65.9,"pub":false}},{"type":"Feature","geometry":{"type":"Point","coordinates":[-106.8871,40.4126]},"properties":{"s":65.9,"pub":false}},{"type":"Feature","geometry":{"type":"Point","coordinates":[-106.8871,40.4184]},"properties":{"s":70.7,"pub":false}},{"type":"Feature","geometry":{"type":"Point","coordinates":[-106.8871,40.4242]},"properties":{"s":70.7,"pub":false}},{"type":"Feature","geometry":{"type":"Point","coordinates":[-106.8871,40.43]},"properties":{"s":70.7,"pub":true}},{"type":"Feature","geometry":{"type":"Point","coordinates":[-106.8871,40.4358]},"properties":{"s":100.0,"pub":true}},{"type":"Feature","geometry":{"type":"Point","coordinates":[-106.8871,40.4416]},"properties":{"s":100.0,"pub":true}},{"type":"Feature","geometry":{"type":"Point","coordinates":[-106.8871,40.4474]},"properties":{"s":100.0,"pub":true}},{"type":"Feature","geometry":{"type":"Point","coordinates":[-106.8871,40.4532]},"properties":{"s":100.0,"pub":true}},{"type":"Feature","geometry":{"type":"Point","coordinates":[-106.8871,40.459]},"properties":{"s":100.0,"pub":true}},{"type":"Feature","geometry":{"type":"Point","coordinates":[-106.8871,40.4648]},"properties":{"s":100.0,"pub":false}},{"type":"Feature","geometry":{"type":"Point","coordinates":[-106.8871,40.4706]},"properties":{"s":95.1,"pub":false}},{"type":"Feature","geometry":{"type":"Point","coordinates":[-106.8871,40.4764]},"properties":{"s":100.0,"pub":false}},{"type":"Feature","geometry":{"type":"Point","coordinates":[-106.8871,40.4822]},"properties":{"s":70.7,"pub":false}},{"type":"Feature","geometry":{"type":"Point","coordinates":[-106.8871,40.488]},"properties":{"s":65.9,"pub":false}},{"type":"Feature","geometry":{"type":"Point","coordinates":[-106.8871,40.4938]},"properties":{"s":65.9,"pub":false}},{"type":"Feature","geometry":{"type":"Point","coordinates":[-106.8871,40.4996]},"properties":{"s":65.9,"pub":false}},{"type":"Feature","geometry":{"type":"Point","coordinates":[-106.8871,40.5054]},"properties":{"s":46.3,"pub":false}},{"type":"Feature","geometry":{"type":"Point","coordinates":[-106.8796,40.401]},"properties":{"s":65.9,"pub":false}},{"type":"Feature","geometry":{"type":"Point","coordinates":[-106.8796,40.4068]},"properties":{"s":65.9,"pub":false}},{"type":"Feature","geometry":{"type":"Point","coordinates":[-106.8796,40.4126]},"properties":{"s":65.9,"pub":false}},{"type":"Feature","geometry":{"type":"Point","coordinates":[-106.8796,40.4184]},"properties":{"s":65.9,"pub":false}},{"type":"Feature","geometry":{"type":"Point","coordinates":[-106.8796,40.4242]},"properties":{"s":65.9,"pub":false}},{"type":"Feature","geometry":{"type":"Point","coordinates":[-106.8796,40.43]},"properties":{"s":65.9,"pub":false}},{"type":"Feature","geometry":{"type":"Point","coordinates":[-106.8796,40.4358]},"properties":{"s":95.1,"pub":false}},{"type":"Feature","geometry":{"type":"Point","coordinates":[-106.8796,40.4416]},"properties":{"s":95.1,"pub":true}},{"type":"Feature","geometry":{"type":"Point","coordinates":[-106.8796,40.4474]},"properties":{"s":95.1,"pub":true}},{"type":"Feature","geometry":{"type":"Point","coordinates":[-106.8796,40.4532]},"properties":{"s":95.1,"pub":true}},{"type":"Feature","geometry":{"type":"Point","coordinates":[-106.8796,40.459]},"properties":{"s":95.1,"pub":true}},{"type":"Feature","geometry":{"type":"Point","coordinates":[-106.8796,40.4648]},"properties":{"s":95.1,"pub":false}},{"type":"Feature","geometry":{"type":"Point","coordinates":[-106.8796,40.4706]},"properties":{"s":95.1,"pub":false}},{"type":"Feature","geometry":{"type":"Point","coordinates":[-106.8796,40.4764]},"properties":{"s":95.1,"pub":false}},{"type":"Feature","geometry":{"type":"Point","coordinates":[-106.8796,40.4822]},"properties":{"s":65.9,"pub":false}},{"type":"Feature","geometry":{"type":"Point","coordinates":[-106.8796,40.488]},"properties":{"s":65.9,"pub":false}},{"type":"Feature","geometry":{"type":"Point","coordinates":[-106.8796,40.4938]},"properties":{"s":65.9,"pub":false}},{"type":"Feature","geometry":{"type":"Point","coordinates":[-106.8796,40.4996]},"properties":{"s":65.9,"pub":false}},{"type":"Feature","geometry":{"type":"Point","coordinates":[-106.8721,40.4068]},"properties":{"s":65.9,"pub":false}},{"type":"Feature","geometry":{"type":"Point","coordinates":[-106.8721,40.4126]},"properties":{"s":65.9,"pub":false}},{"type":"Feature","geometry":{"type":"Point","coordinates":[-106.8721,40.4184]},"properties":{"s":65.9,"pub":false}},{"type":"Feature","geometry":{"type":"Point","coordinates":[-106.8721,40.4242]},"properties":{"s":65.9,"pub":false}},{"type":"Feature","geometry":{"type":"Point","coordinates":[-106.8721,40.43]},"properties":{"s":65.9,"pub":false}},{"type":"Feature","geometry":{"type":"Point","coordinates":[-106.8721,40.4358]},"properties":{"s":95.1,"pub":false}},{"type":"Feature","geometry":{"type":"Point","coordinates":[-106.8721,40.4416]},"properties":{"s":95.1,"pub":false}},{"type":"Feature","geometry":{"type":"Point","coordinates":[-106.8721,40.4474]},"properties":{"s":95.1,"pub":true}},{"type":"Feature","geometry":{"type":"Point","coordinates":[-106.8721,40.4532]},"properties":{"s":95.1,"pub":true}},{"type":"Feature","geometry":{"type":"Point","coordinates":[-106.8721,40.459]},"properties":{"s":95.1,"pub":true}},{"type":"Feature","geometry":{"type":"Point","coordinates":[-106.8721,40.4648]},"properties":{"s":95.1,"pub":true}},{"type":"Feature","geometry":{"type":"Point","coordinates":[-106.8721,40.4706]},"properties":{"s":95.1,"pub":false}},{"type":"Feature","geometry":{"type":"Point","coordinates":[-106.8721,40.4764]},"properties":{"s":95.1,"pub":false}},{"type":"Feature","geometry":{"type":"Point","coordinates":[-106.8721,40.4822]},"properties":{"s":65.9,"pub":false}},{"type":"Feature","geometry":{"type":"Point","coordinates":[-106.8721,40.488]},"properties":{"s":65.9,"pub":false}},{"type":"Feature","geometry":{"type":"Point","coordinates":[-106.8721,40.4938]},"properties":{"s":65.9,"pub":false}},{"type":"Feature","geometry":{"type":"Point","coordinates":[-106.8721,40.4996]},"properties":{"s":65.9,"pub":false}},{"type":"Feature","geometry":{"type":"Point","coordinates":[-106.8646,40.4068]},"properties":{"s":65.9,"pub":false}},{"type":"Feature","geometry":{"type":"Point","coordinates":[-106.8646,40.4126]},"properties":{"s":65.9,"pub":false}},{"type":"Feature","geometry":{"type":"Point","coordinates":[-106.8646,40.4184]},"properties":{"s":65.9,"pub":false}},{"type":"Feature","geometry":{"type":"Point","coordinates":[-106.8646,40.4242]},"properties":{"s":65.9,"pub":false}},{"type":"Feature","geometry":{"type":"Point","coordinates":[-106.8646,40.43]},"properties":{"s":65.9,"pub":false}},{"type":"Feature","geometry":{"type":"Point","coordinates":[-106.8646,40.4358]},"properties":{"s":95.1,"pub":false}},{"type":"Feature","geometry":{"type":"Point","coordinates":[-106.8646,40.4416]},"properties":{"s":95.1,"pub":false}},{"type":"Feature","geometry":{"type":"Point","coordinates":[-106.8646,40.4474]},"properties":{"s":95.1,"pub":true}},{"type":"Feature","geometry":{"type":"Point","coordinates":[-106.8646,40.4532]},"properties":{"s":95.1,"pub":true}},{"type":"Feature","geometry":{"type":"Point","coordinates":[-106.8646,40.459]},"properties":{"s":95.1,"pub":true}},{"type":"Feature","geometry":{"type":"Point","coordinates":[-106.8646,40.4648]},"properties":{"s":95.1,"pub":false}},{"type":"Feature","geometry":{"type":"Point","coordinates":[-106.8646,40.4706]},"properties":{"s":95.1,"pub":true}},{"type":"Feature","geometry":{"type":"Point","coordinates":[-106.8646,40.4764]},"properties":{"s":95.1,"pub":false}},{"type":"Feature","geometry":{"type":"Point","coordinates":[-106.8646,40.4822]},"properties":{"s":65.9,"pub":false}},{"type":"Feature","geometry":{"type":"Point","coordinates":[-106.8646,40.488]},"properties":{"s":65.9,"pub":false}},{"type":"Feature","geometry":{"type":"Point","coordinates":[-106.8646,40.4938]},"properties":{"s":65.9,"pub":false}},{"type":"Feature","geometry":{"type":"Point","coordinates":[-106.8571,40.4126]},"properties":{"s":65.9,"pub":false}},{"type":"Feature","geometry":{"type":"Point","coordinates":[-106.8571,40.4184]},"properties":{"s":65.9,"pub":false}},{"type":"Feature","geometry":{"type":"Point","coordinates":[-106.8571,40.4242]},"properties":{"s":65.9,"pub":false}},{"type":"Feature","geometry":{"type":"Point","coordinates":[-106.8571,40.43]},"properties":{"s":95.1,"pub":false}},{"type":"Feature","geometry":{"type":"Point","coordinates":[-106.8571,40.4358]},"properties":{"s":95.1,"pub":false}},{"type":"Feature","geometry":{"type":"Point","coordinates":[-106.8571,40.4416]},"properties":{"s":95.1,"pub":false}},{"type":"Feature","geometry":{"type":"Point","coordinates":[-106.8571,40.4474]},"properties":{"s":95.1,"pub":true}},{"type":"Feature","geometry":{"type":"Point","coordinates":[-106.8571,40.4532]},"properties":{"s":65.9,"pub":true}},{"type":"Feature","geometry":{"type":"Point","coordinates":[-106.8571,40.459]},"properties":{"s":65.9,"pub":true}},{"type":"Feature","geometry":{"type":"Point","coordinates":[-106.8571,40.4648]},"properties":{"s":65.9,"pub":false}},{"type":"Feature","geometry":{"type":"Point","coordinates":[-106.8571,40.4706]},"properties":{"s":95.1,"pub":false}},{"type":"Feature","geometry":{"type":"Point","coordinates":[-106.8571,40.4764]},"properties":{"s":95.1,"pub":false}},{"type":"Feature","geometry":{"type":"Point","coordinates":[-106.8571,40.4822]},"properties":{"s":65.9,"pub":false}},{"type":"Feature","geometry":{"type":"Point","coordinates":[-106.8571,40.488]},"properties":{"s":65.9,"pub":false}},{"type":"Feature","geometry":{"type":"Point","coordinates":[-106.8496,40.43]},"properties":{"s":95.1,"pub":false}},{"type":"Feature","geometry":{"type":"Point","coordinates":[-106.8496,40.4358]},"properties":{"s":95.1,"pub":false}},{"type":"Feature","geometry":{"type":"Point","coordinates":[-106.8496,40.4416]},"properties":{"s":95.1,"pub":false}},{"type":"Feature","geometry":{"type":"Point","coordinates":[-106.8496,40.4474]},"properties":{"s":95.1,"pub":true}},{"type":"Feature","geometry":{"type":"Point","coordinates":[-106.8496,40.4532]},"properties":{"s":65.9,"pub":true}},{"type":"Feature","geometry":{"type":"Point","coordinates":[-106.8496,40.459]},"properties":{"s":65.9,"pub":true}},{"type":"Feature","geometry":{"type":"Point","coordinates":[-106.8496,40.4648]},"properties":{"s":65.9,"pub":false}},{"type":"Feature","geometry":{"type":"Point","coordinates":[-106.8496,40.4706]},"properties":{"s":65.9,"pub":false}},{"type":"Feature","geometry":{"type":"Point","coordinates":[-106.8496,40.4764]},"properties":{"s":65.9,"pub":false}},{"type":"Feature","geometry":{"type":"Point","coordinates":[-106.8496,40.4822]},"properties":{"s":65.9,"pub":false}},{"type":"Feature","geometry":{"type":"Point","coordinates":[-106.8421,40.4474]},"properties":{"s":65.9,"pub":false}},{"type":"Feature","geometry":{"type":"Point","coordinates":[-106.8421,40.4532]},"properties":{"s":65.9,"pub":true}},{"type":"Feature","geometry":{"type":"Point","coordinates":[-106.8421,40.459]},"properties":{"s":65.9,"pub":false}},{"type":"Feature","geometry":{"type":"Point","coordinates":[-106.8421,40.4648]},"properties":{"s":65.9,"pub":false}},{"type":"Feature","geometry":{"type":"Point","coordinates":[-106.8421,40.4706]},"properties":{"s":65.9,"pub":false}},{"type":"Feature","geometry":{"type":"Point","coordinates":[-106.8421,40.4764]},"properties":{"s":36.6,"pub":false}},{"type":"Feature","geometry":{"type":"Point","coordinates":[-106.8346,40.4474]},"properties":{"s":65.9,"pub":false}},{"type":"Feature","geometry":{"type":"Point","coordinates":[-106.8346,40.4532]},"properties":{"s":65.9,"pub":false}},{"type":"Feature","geometry":{"type":"Point","coordinates":[-106.8346,40.459]},"properties":{"s":65.9,"pub":false}},{"type":"Feature","geometry":{"type":"Point","coordinates":[-106.8346,40.4648]},"properties":{"s":65.9,"pub":false}},{"type":"Feature","geometry":{"type":"Point","coordinates":[-106.8346,40.4706]},"properties":{"s":36.6,"pub":false}}]}