{"type":"FeatureCollection","features":[{"type":"Feature","geometry":{"type":"Point","coordinates":[-104.2992,37.2699]},"properties":{"s":100.0,"pub":false}},{"type":"Feature","geometry":{"type":"Point","coordinates":[-104.2992,37.2757]},"properties":{"s":100.0,"pub":false}},{"type":"Feature","geometry":{"type":"Point","coordinates":[-104.2992,37.2815]},"properties":{"s":100.0,"pub":false}},{"type":"Feature","geometry":{"type":"Point","coordinates":[-104.2917,37.2699]},"properties":{"s":100.0,"pub":false}},{"type":"Feature","geometry":{"type":"Point","coordinates":[-104.2917,37.2757]},"properties":{"s":100.0,"pub":false}},{"type":"Feature","geometry":{"type":"Point","coordinates":[-104.2917,37.2815]},"properties":{"s":100.0,"pub":false}},{"type":"Feature","geometry":{"type":"Point","coordinates":[-104.2917,37.2873]},"properties":{"s":92.3,"pub":false}},{"type":"Feature","geometry":{"type":"Point","coordinates":[-104.2842,37.2641]},"properties":{"s":100.0,"pub":false}},{"type":"Feature","geometry":{"type":"Point","coordinates":[-104.2842,37.2699]},"properties":{"s":100.0,"pub":false}},{"type":"Feature","geometry":{"type":"Point","coordinates":[-104.2842,37.2757]},"properties":{"s":100.0,"pub":false}},{"type":"Feature","geometry":{"type":"Point","coordinates":[-104.2842,37.2815]},"properties":{"s":92.3,"pub":false}},{"type":"Feature","geometry":{"type":"Point","coordinates":[-104.2767,37.2641]},"properties":{"s":100.0,"pub":false}},{"type":"Feature","geometry":{"type":"Point","coordinates":[-104.2767,37.2699]},"properties":{"s":100.0,"pub":false}},{"type":"Feature","geometry":{"type":"Point","coordinates":[-104.2767,37.2757]},"properties":{"s":100.0,"pub":false}},{"type":"Feature","geometry":{"type":"Point","coordinates":[-104.2767,37.2815]},"properties":{"s":92.3,"pub":false}},{"type":"Feature","geometry":{"type":"Point","coordinates":[-104.2692,37.2583]},"properties":{"s":100.0,"pub":false}},{"type":"Feature","geometry":{"type":"Point","coordinates":[-104.2692,37.2641]},"properties":{"s":100.0,"pub":false}},{"type":"Feature","geometry":{"type":"Point","coordinates":[-104.2692,37.2699]},"properties":{"s":100.0,"pub":false}},{"type":"Feature","geometry":{"type":"Point","coordinates":[-104.2692,37.2757]},"properties":{"s":92.3,"pub":false}},{"type":"Feature","geometry":{"type":"Point","coordinates":[-104.2692,37.2815]},"properties":{"s":92.3,"pub":false}},{"type":"Feature","geometry":{"type":"Point","coordinates":[-104.2617,37.2583]},"properties":{"s":100.0,"pub":false}},{"type":"Feature","geometry":{"type":"Point","coordinates":[-104.2617,37.2641]},"properties":{"s":100.0,"pub":false}},{"type":"Feature","geometry":{"type":"Point","coordinates":[-104.2617,37.2699]},"properties":{"s":92.3,"pub":false}},{"type":"Feature","geometry":{"type":"Point","coordinates":[-104.2617,37.2757]},"properties":{"s":92.3,"pub":false}},{"type":"Feature","geometry":{"type":"Point","coordinates":[-104.2542,37.2525]},"properties":{"s":100.0,"pub":false}},{"type":"Feature","geometry":{"type":"Point","coordinates":[-104.2542,37.2583]},"properties":{"s":100.0,"pub":false}},{"type":"Feature","geometry":{"type":"Point","coordinates":[-104.2542,37.2641]},"properties":{"s":100.0,"pub":false}},{"type":"Feature","geometry":{"type":"Point","coordinates":[-104.2542,37.2699]},"properties":{"s":92.3,"pub":false}},{"type":"Feature","geometry":{"type":"Point","coordinates":[-104.2467,37.2467]},"properties":{"s":100.0,"pub":false}},{"type":"Feature","geometry":{"type":"Point","coordinates":[-104.2467,37.2525]},"properties":{"s":100.0,"pub":false}},{"type":"Feature","geometry":{"type":"Point","coordinates":[-104.2467,37.2583]},"properties":{"s":100.0,"pub":false}},{"type":"Feature","geometry":{"type":"Point","coordinates":[-104.2467,37.2641]},"properties":{"s":92.3,"pub":false}},{"type":"Feature","geometry":{"type":"Point","coordinates":[-104.2392,37.2409]},"properties":{"s":100.0,"pub":false}},{"type":"Feature","geometry":{"type":"Point","coordinates":[-104.2392,37.2467]},"properties":{"s":100.0,"pub":false}},{"type":"Feature","geometry":{"type":"Point","coordinates":[-104.2392,37.2525]},"properties":{"s":100.0,"pub":false}},{"type":"Feature","geometry":{"type":"Point","coordinates":[-104.2392,37.2583]},"properties":{"s":92.3,"pub":false}},{"type":"Feature","geometry":{"type":"Point","coordinates":[-104.2317,37.2293]},"properties":{"s":100.0,"pub":false}},{"type":"Feature","geometry":{"type":"Point","coordinates":[-104.2317,37.2351]},"properties":{"s":100.0,"pub":false}},{"type":"Feature","geometry":{"type":"Point","coordinates":[-104.2317,37.2409]},"properties":{"s":100.0,"pub":false}},{"type":"Feature","geometry":{"type":"Point","coordinates":[-104.2317,37.2467]},"properties":{"s":100.0,"pub":false}},{"type":"Feature","geometry":{"type":"Point","coordinates":[-104.2317,37.2525]},"properties":{"s":92.3,"pub":false}},{"type":"Feature","geometry":{"type":"Point","coordinates":[-104.2242,37.2235]},"properties":{"s":100.0,"pub":false}},{"type":"Feature","geometry":{"type":"Point","coordinates":[-104.2242,37.2293]},"properties":{"s":100.0,"pub":false}},{"type":"Feature","geometry":{"type":"Point","coordinates":[-104.2242,37.2351]},"properties":{"s":100.0,"pub":false}},{"type":"Feature","geometry":{"type":"Point","coordinates":[-104.2242,37.2409]},"properties":{"s":92.3,"pub":false}},{"type":"Feature","geometry":{"type":"Point","coordinates":[-104.2242,37.2467]},"properties":{"s":92.3,"pub":false}},{"type":"Feature","geometry":{"type":"Point","coordinates":[-104.2167,37.2177]},"properties":{"s":100.0,"pub":false}},{"type":"Feature","geometry":{"type":"Point","coordinates":[-104.2167,37.2235]},"properties":{"s":100.0,"pub":false}},{"type":"Feature","geometry":{"type":"Point","coordinates":[-104.2167,37.2293]},"properties":{"s":100.0,"pub":false}},{"type":"Feature","geometry":{"type":"Point","coordinates":[-104.2167,37.2351]},"properties":{"s":92.3,"pub":false}},{"type":"Feature","geometry":{"type":"Point","coordinates":[-104.2167,37.2409]},"properties":{"s":92.3,"pub":false}},{"type":"Feature","geometry":{"type":"Point","coordinates":[-104.2092,37.2119]},"properties":{"s":100.0,"pub":false}},{"type":"Feature","geometry":{"type":"Point","coordinates":[-104.2092,37.2177]},"properties":{"s":100.0,"pub":false}},{"type":"Feature","geometry":{"type":"Point","coordinates":[-104.2092,37.2235]},"properties":{"s":100.0,"pub":false}},{"type":"Feature","geometry":{"type":"Point","coordinates":[-104.2092,37.2293]},"properties":{"s":92.3,"pub":false}},{"type":"Feature","geometry":{"type":"Point","coordinates":[-104.2017,37.2061]},"properties":{"s":100.0,"pub":false}},{"type":"Feature","geometry":{"type":"Point","coordinates":[-104.2017,37.2119]},"properties":{"s":100.0,"pub":false}},{"type":"Feature","geometry":{"type":"Point","coordinates":[-104.2017,37.2177]},"properties":{"s":100.0,"pub":false}},{"type":"Feature","geometry":{"type":"Point","coordinates":[-104.2017,37.2235]},"properties":{"s":92.3,"pub":false}},{"type":"Feature","geometry":{"type":"Point","coordinates":[-104.1942,37.2061]},"properties":{"s":100.0,"pub":false}},{"type":"Feature","geometry":{"type":"Point","coordinates":[-104.1942,37.2119]},"properties":{"s":100.0,"pub":false}},{"type":"Feature","geometry":{"type":"Point","coordinates":[-104.1942,37.2177]},"properties":{"s":92.3,"pub":false}},{"type":"Feature","geometry":{"type":"Point","coordinates":[-104.1867,37.2061]},"properties":{"s":100.0,"pub":false}},{"type":"Feature","geometry":{"type":"Point","coordinates":[-104.1867,37.2119]},"properties":{"s":100.0,"pub":false}},{"type":"Feature","geometry":{"type":"Point","coordinates":[-104.1867,37.2177]},"properties":{"s":92.3,"pub":false}},{"type":"Feature","geometry":{"type":"Point","coordinates":[-104.1792,37.2061]},"properties":{"s":100.0,"pub":false}},{"type":"Feature","geometry":{"type":"Point","coordinates":[-104.1792,37.2119]},"properties":{"s":100.0,"pub":false}},{"type":"Feature","geometry":{"type":"Point","coordinates":[-104.1717,37.2003]},"properties":{"s":100.0,"pub":false}},{"type":"Feature","geometry":{"type":"Point","coordinates":[-104.1717,37.2061]},"properties":{"s":100.0,"pub":false}},{"type":"Feature","geometry":{"type":"Point","coordinates":[-104.1717,37.2119]},"properties":{"s":100.0,"pub":false}},{"type":"Feature","geometry":{"type":"Point","coordinates":[-104.1642,37.2003]},"properties":{"s":100.0,"pub":false}},{"type":"Feature","geometry":{"type":"Point","coordinates":[-104.1642,37.2061]},"properties":{"s":100.0,"pub":false}},{"type":"Feature","geometry":{"type":"Point","coordinates":[-104.1567,37.2003]},"properties":{"s":100.0,"pub":false}},{"type":"Feature","geometry":{"type":"Point","coordinates":[-104.1567,37.2061]},"properties":{"s":100.0,"pub":false}},{"type":"Feature","geometry":{"type":"Point","coordinates":[-104.1492,37.1945]},"properties":{"s":100.0,"pub":false}},{"type":"Feature","geometry":{"type":"Point","coordinates":[-104.1492,37.2003]},"properties":{"s":100.0,"pub":false}},{"type":"Feature","geometry":{"type":"Point","coordinates":[-104.1492,37.2061]},"properties":{"s":92.3,"pub":false}},{"type":"Feature","geometry":{"type":"Point","coordinates":[-104.1417,37.1887]},"properties":{"s":100.0,"pub":false}},{"type":"Feature","geometry":{"type":"Point","coordinates":[-104.1417,37.1945]},"properties":{"s":100.0,"pub":false}},{"type":"Feature","geometry":{"type":"Point","coordinates":[-104.1417,37.2003]},"properties":{"s":100.0,"pub":false}},{"type":"Feature","geometry":{"type":"Point","coordinates":[-104.1342,37.1945]},"properties":{"s":100.0,"pub":false}},{"type":"Feature","geometry":{"type":"Point","coordinates":[-104.1342,37.2003]},"properties":{"s":92.3,"pub":false}},{"type":"Feature","geometry":{"type":"Point","coordinates":[-104.1267,37.1887]},"properties":{"s":92.3,"pub":false}},{"type":"Feature","geometry":{"type":"Point","coordinates":[-104.1267,37.1945]},"properties":{"s":92.3,"pub":false}},{"type":"Feature","geometry":{"type":"Point","coordinates":[-104.1267,37.2003]},"properties":{"s":92.3,"pub":false}},{"type":"Feature","geometry":{"type":"Point","coordinates":[-104.1192,37.1887]},"properties":{"s":92.3,"pub":false}},{"type":"Feature","geometry":{"type":"Point","coordinates":[-104.1192,37.1945]},"properties":{"s":92.3,"pub":false}},{"type":"Feature","geometry":{"type":"Point","coordinates":[-104.1192,37.2003]},"properties":{"s":92.3,"pub":false}},{"type":"Feature","geometry":{"type":"Point","coordinates":[-104.1117,37.1887]},"properties":{"s":92.3,"pub":false}},{"type":"Feature","geometry":{"type":"Point","coordinates":[-104.1117,37.1945]},"properties":{"s":92.3,"pub":false}},{"type":"Feature","geometry":{"type":"Point","coordinates":[-104.1117,37.2003]},"properties":{"s":92.3,"pub":false}},{"type":"Feature","geometry":{"type":"Point","coordinates":[-104.1042,37.1887]},"properties":{"s":92.3,"pub":false}},{"type":"Feature","geometry":{"type":"Point","coordinates":[-104.1042,37.1945]},"properties":{"s":92.3,"pub":false}},{"type":"Feature","geometry":{"type":"Point","coordinates":[-104.1042,37.2003]},"properties":{"s":92.3,"pub":false}},{"type":"Feature","geometry":{"type":"Point","coordinates":[-104.0967,37.1887]},"properties":{"s":92.3,"pub":false}},{"type":"Feature","geometry":{"type":"Point","coordinates":[-104.0967,37.1945]},"properties":{"s":92.3,"pub":false}},{"type":"Feature","geometry":{"type":"Point","coordinates":[-104.0967,37.2003]},"properties":{"s":92.3,"pub":false}},{"type":"Feature","geometry":{"type":"Point","coordinates":[-104.0967,37.2061]},"properties":{"s":92.3,"pub":false}},{"type":"Feature","geometry":{"type":"Point","coordinates":[-104.0892,37.1887]},"properties":{"s":92.3,"pub":false}},{"type":"Feature","geometry":{"type":"Point","coordinates":[-104.0892,37.1945]},"properties":{"s":92.3,"pub":false}},{"type":"Feature","geometry":{"type":"Point","coordinates":[-104.0892,37.2003]},"properties":{"s":92.3,"pub":false}},{"type":"Feature","geometry":{"type":"Point","coordinates":[-104.0892,37.2061]},"properties":{"s":92.3,"pub":false}},{"type":"Feature","geometry":{"type":"Point","coordinates":[-104.0892,37.2119]},"properties":{"s":92.3,"pub":false}},{"type":"Feature","geometry":{"type":"Point","coordinates":[-104.0817,37.1887]},"properties":{"s":92.3,"pub":false}},{"type":"Feature","geometry":{"type":"Point","coordinates":[-104.0817,37.1945]},"properties":{"s":92.3,"pub":false}},{"type":"Feature","geometry":{"type":"Point","coordinates":[-104.0817,37.2003]},"properties":{"s":92.3,"pub":false}},{"type":"Feature","geometry":{"type":"Point","coordinates":[-104.0817,37.2061]},"properties":{"s":92.3,"pub":false}},{"type":"Feature","geometry":{"type":"Point","coordinates":[-104.0817,37.2119]},"properties":{"s":92.3,"pub":false}},{"type":"Feature","geometry":{"type":"Point","coordinates":[-104.0817,37.2177]},"properties":{"s":92.3,"pub":false}},{"type":"Feature","geometry":{"type":"Point","coordinates":[-104.0742,37.2061]},"properties":{"s":92.3,"pub":false}},{"type":"Feature","geometry":{"type":"Point","coordinates":[-104.0742,37.2119]},"properties":{"s":92.3,"pub":false}},{"type":"Feature","geometry":{"type":"Point","coordinates":[-104.0742,37.2177]},"properties":{"s":92.3,"pub":false}},{"type":"Feature","geometry":{"type":"Point","coordinates":[-104.0742,37.2235]},"properties":{"s":92.3,"pub":false}},{"type":"Feature","geometry":{"type":"Point","coordinates":[-104.0667,37.2061]},"properties":{"s":92.3,"pub":false}},{"type":"Feature","geometry":{"type":"Point","coordinates":[-104.0667,37.2119]},"properties":{"s":92.3,"pub":false}},{"type":"Feature","geometry":{"type":"Point","coordinates":[-104.0667,37.2177]},"properties":{"s":92.3,"pub":false}},{"type":"Feature","geometry":{"type":"Point","coordinates":[-104.0667,37.2235]},"properties":{"s":92.3,"pub":false}},{"type":"Feature","geometry":{"type":"Point","coordinates":[-104.0667,37.2293]},"properties":{"s":92.3,"pub":false}},{"type":"Feature","geometry":{"type":"Point","coordinates":[-104.0667,37.2351]},"properties":{"s":92.3,"pub":false}},{"type":"Feature","geometry":{"type":"Point","coordinates":[-104.0592,37.2119]},"properties":{"s":92.3,"pub":false}},{"type":"Feature","geometry":{"type":"Point","coordinates":[-104.0592,37.2177]},"properties":{"s":92.3,"pub":false}},{"type":"Feature","geometry":{"type":"Point","coordinates":[-104.0592,37.2235]},"properties":{"s":92.3,"pub":false}},{"type":"Feature","geometry":{"type":"Point","coordinates":[-104.0592,37.2293]},"properties":{"s":92.3,"pub":false}},{"type":"Feature","geometry":{"type":"Point","coordinates":[-104.0592,37.2351]},"properties":{"s":92.3,"pub":false}},{"type":"Feature","geometry":{"type":"Point","coordinates":[-104.0592,37.2409]},"properties":{"s":92.3,"pub":false}},{"type":"Feature","geometry":{"type":"Point","coordinates":[-104.0517,37.2235]},"properties":{"s":92.3,"pub":false}},{"type":"Feature","geometry":{"type":"Point","coordinates":[-104.0517,37.2293]},"properties":{"s":92.3,"pub":false}},{"type":"Feature","geometry":{"type":"Point","coordinates":[-104.0517,37.2351]},"properties":{"s":92.3,"pub":false}},{"type":"Feature","geometry":{"type":"Point","coordinates":[-104.0517,37.2409]},"properties":{"s":92.3,"pub":false}},{"type":"Feature","geometry":{"type":"Point","coordinates":[-104.0517,37.2467]},"properties":{"s":92.3,"pub":false}},{"type":"Feature","geometry":{"type":"Point","coordinates":[-104.0442,37.2293]},"properties":{"s":92.3,"pub":false}},{"type":"Feature","geometry":{"type":"Point","coordinates":[-104.0442,37.2351]},"properties":{"s":92.3,"pub":false}},{"type":"Feature","geometry":{"type":"Point","coordinates":[-104.0442,37.2409]},"properties":{"s":92.3,"pub":false}},{"type":"Feature","geometry":{"type":"Point","coordinates":[-104.0442,37.2467]},"properties":{"s":92.3,"pub":false}},{"type":"Feature","geometry":{"type":"Point","coordinates":[-104.0367,37.2235]},"properties":{"s":92.3,"pub":false}},{"type":"Feature","geometry":{"type":"Point","coordinates":[-104.0367,37.2293]},"properties":{"s":92.3,"pub":false}},{"type":"Feature","geometry":{"type":"Point","coordinates":[-104.0367,37.2351]},"properties":{"s":92.3,"pub":false}},{"type":"Feature","geometry":{"type":"Point","coordinates":[-104.0367,37.2409]},"properties":{"s":92.3,"pub":false}},{"type":"Feature","geometry":{"type":"Point","coordinates":[-104.0367,37.2467]},"properties":{"s":92.3,"pub":false}},{"type":"Feature","geometry":{"type":"Point","coordinates":[-104.0367,37.2525]},"properties":{"s":92.3,"pub":false}},{"type":"Feature","geometry":{"type":"Point","coordinates":[-104.0292,37.2235]},"properties":{"s":92.3,"pub":false}},{"type":"Feature","geometry":{"type":"Point","coordinates":[-104.0292,37.2293]},"properties":{"s":92.3,"pub":false}},{"type":"Feature","geometry":{"type":"Point","coordinates":[-104.0292,37.2351]},"properties":{"s":92.3,"pub":false}},{"type":"Feature","geometry":{"type":"Point","coordinates":[-104.0292,37.2409]},"properties":{"s":92.3,"pub":false}},{"type":"Feature","geometry":{"type":"Point","coordinates":[-104.0292,37.2467]},"properties":{"s":92.3,"pub":false}},{"type":"Feature","geometry":{"type":"Point","coordinates":[-104.0292,37.2525]},"properties":{"s":92.3,"pub":false}},{"type":"Feature","geometry":{"type":"Point","coordinates":[-104.0217,37.2293]},"properties":{"s":92.3,"pub":false}},{"type":"Feature","geometry":{"type":"Point","coordinates":[-104.0217,37.2351]},"properties":{"s":92.3,"pub":false}},{"type":"Feature","geometry":{"type":"Point","coordinates":[-104.0217,37.2409]},"properties":{"s":92.3,"pub":false}},{"type":"Feature","geometry":{"type":"Point","coordinates":[-104.0217,37.2467]},"properties":{"s":92.3,"pub":false}},{"type":"Feature","geometry":{"type":"Point","coordinates":[-104.0217,37.2525]},"properties":{"s":92.3,"pub":false}},{"type":"Feature","geometry":{"type":"Point","coordinates":[-104.0142,37.2293]},"properties":{"s":92.3,"pub":false}},{"type":"Feature","geometry":{"type":"Point","coordinates":[-104.0142,37.2351]},"properties":{"s":92.3,"pub":false}},{"type":"Feature","geometry":{"type":"Point","coordinates":[-104.0142,37.2409]},"properties":{"s":92.3,"pub":false}},{"type":"Feature","geometry":{"type":"Point","coordinates":[-104.0142,37.2467]},"properties":{"s":92.3,"pub":false}},{"type":"Feature","geometry":{"type":"Point","coordinates":[-104.0142,37.2525]},"properties":{"s":92.3,"pub":false}},{"type":"Feature","geometry":{"type":"Point","coordinates":[-104.0142,37.2583]},"properties":{"s":92.3,"pub":false}},{"type":"Feature","geometry":{"type":"Point","coordinates":[-104.0067,37.2409]},"properties":{"s":92.3,"pub":false}},{"type":"Feature","geometry":{"type":"Point","coordinates":[-104.0067,37.2467]},"properties":{"s":92.3,"pub":false}},{"type":"Feature","geometry":{"type":"Point","coordinates":[-104.0067,37.2525]},"properties":{"s":92.3,"pub":false}},{"type":"Feature","geometry":{"type":"Point","coordinates":[-104.0067,37.2583]},"properties":{"s":92.3,"pub":false}},{"type":"Feature","geometry":{"type":"Point","coordinates":[-103.9992,37.2525]},"properties":{"s":92.3,"pub":false}},{"type":"Feature","geometry":{"type":"Point","coordinates":[-103.9992,37.2583]},"properties":{"s":92.3,"pub":false}},{"type":"Feature","geometry":{"type":"Point","coordinates":[-103.9992,37.2641]},"properties":{"s":92.3,"pub":false}},{"type":"Feature","geometry":{"type":"Point","coordinates":[-103.9917,37.2525]},"properties":{"s":92.3,"pub":false}},{"type":"Feature","geometry":{"type":"Point","coordinates":[-103.9917,37.2583]},"properties":{"s":92.3,"pub":false}},{"type":"Feature","geometry":{"type":"Point","coordinates":[-103.9917,37.2641]},"properties":{"s":92.3,"pub":false}},{"type":"Feature","geometry":{"type":"Point","coordinates":[-103.9917,37.2699]},"properties":{"s":92.3,"pub":false}},{"type":"Feature","geometry":{"type":"Point","coordinates":[-103.9917,37.2757]},"properties":{"s":92.3,"pub":false}},{"type":"Feature","geometry":{"type":"Point","coordinates":[-103.9842,37.2525]},"properties":{"s":92.3,"pub":false}},{"type":"Feature","geometry":{"type":"Point","coordinates":[-103.9842,37.2583]},"properties":{"s":92.3,"pub":false}},{"type":"Feature","geometry":{"type":"Point","coordinates":[-103.9842,37.2641]},"properties":{"s":92.3,"pub":false}},{"type":"Feature","geometry":{"type":"Point","coordinates":[-103.9842,37.2699]},"properties":{"s":92.3,"pub":false}},{"type":"Feature","geometry":{"type":"Point","coordinates":[-103.9842,37.2757]},"properties":{"s":92.3,"pub":false}},{"type":"Feature","geometry":{"type":"Point","coordinates":[-103.9842,37.2815]},"properties":{"s":92.3,"pub":false}},{"type":"Feature","geometry":{"type":"Point","coordinates":[-103.9842,37.2873]},"properties":{"s":92.3,"pub":false}},{"type":"Feature","geometry":{"type":"Point","coordinates":[-103.9842,37.2931]},"properties":{"s":92.3,"pub":false}},{"type":"Feature","geometry":{"type":"Point","coordinates":[-103.9842,37.3047]},"properties":{"s":92.3,"pub":false}},{"type":"Feature","geometry":{"type":"Point","coordinates":[-103.9767,37.2641]},"properties":{"s":92.3,"pub":false}},{"type":"Feature","geometry":{"type":"Point","coordinates":[-103.9767,37.2699]},"properties":{"s":92.3,"pub":false}},{"type":"Feature","geometry":{"type":"Point","coordinates":[-103.9767,37.2757]},"properties":{"s":92.3,"pub":false}},{"type":"Feature","geometry":{"type":"Point","coordinates":[-103.9767,37.2815]},"properties":{"s":92.3,"pub":false}},{"type":"Feature","geometry":{"type":"Point","coordinates":[-103.9767,37.2873]},"properties":{"s":92.3,"pub":false}},{"type":"Feature","geometry":{"type":"Point","coordinates":[-103.9767,37.2931]},"properties":{"s":92.3,"pub":false}},{"type":"Feature","geometry":{"type":"Point","coordinates":[-103.9767,37.2989]},"properties":{"s":92.3,"pub":false}},{"type":"Feature","geometry":{"type":"Point","coordinates":[-103.9767,37.3047]},"properties":{"s":92.3,"pub":false}},{"type":"Feature","geometry":{"type":"Point","coordinates":[-103.9767,37.3105]},"properties":{"s":92.3,"pub":false}},{"type":"Feature","geometry":{"type":"Point","coordinates":[-103.9692,37.2641]},"properties":{"s":92.3,"pub":false}},{"type":"Feature","geometry":{"type":"Point","coordinates":[-103.9692,37.2699]},"properties":{"s":92.3,"pub":false}},{"type":"Feature","geometry":{"type":"Point","coordinates":[-103.9692,37.2757]},"properties":{"s":92.3,"pub":false}},{"type":"Feature","geometry":{"type":"Point","coordinates":[-103.9692,37.2815]},"properties":{"s":92.3,"pub":false}},{"type":"Feature","geometry":{"type":"Point","coordinates":[-103.9692,37.2873]},"properties":{"s":92.3,"pub":false}},{"type":"Feature","geometry":{"type":"Point","coordinates":[-103.9692,37.2931]},"properties":{"s":92.3,"pub":false}},{"type":"Feature","geometry":{"type":"Point","coordinates":[-103.9692,37.2989]},"properties":{"s":92.3,"pub":false}},{"type":"Feature","geometry":{"type":"Point","coordinates":[-103.9692,37.3047]},"properties":{"s":92.3,"pub":false}},{"type":"Feature","geometry":{"type":"Point","coordinates":[-103.9692,37.3105]},"properties":{"s":92.3,"pub":false}},{"type":"Feature","geometry":{"type":"Point","coordinates":[-103.9617,37.2757]},"properties":{"s":92.3,"pub":false}},{"type":"Feature","geometry":{"type":"Point","coordinates":[-103.9617,37.2815]},"properties":{"s":92.3,"pub":false}},{"type":"Feature","geometry":{"type":"Point","coordinates":[-103.9617,37.2873]},"properties":{"s":92.3,"pub":false}},{"type":"Feature","geometry":{"type":"Point","coordinates":[-103.9617,37.2931]},"properties":{"s":92.3,"pub":false}},{"type":"Feature","geometry":{"type":"Point","coordinates":[-103.9617,37.2989]},"properties":{"s":92.3,"pub":false}},{"type":"Feature","geometry":{"type":"Point","coordinates":[-103.9617,37.3047]},"properties":{"s":92.3,"pub":false}},{"type":"Feature","geometry":{"type":"Point","coordinates":[-103.9617,37.3105]},"properties":{"s":92.3,"pub":false}},{"type":"Feature","geometry":{"type":"Point","coordinates":[-103.9617,37.3163]},"properties":{"s":92.3,"pub":false}},{"type":"Feature","geometry":{"type":"Point","coordinates":[-103.9617,37.3221]},"properties":{"s":92.3,"pub":false}},{"type":"Feature","geometry":{"type":"Point","coordinates":[-103.9617,37.3279]},"properties":{"s":92.3,"pub":false}},{"type":"Feature","geometry":{"type":"Point","coordinates":[-103.9617,37.3337]},"properties":{"s":92.3,"pub":false}},{"type":"Feature","geometry":{"type":"Point","coordinates":[-103.9617,37.3395]},"properties":{"s":92.3,"pub":false}},{"type":"Feature","geometry":{"type":"Point","coordinates":[-103.9617,37.3453]},"properties":{"s":92.3,"pub":false}},{"type":"Feature","geometry":{"type":"Point","coordinates":[-103.9542,37.2757]},"properties":{"s":92.3,"pub":false}},{"type":"Feature","geometry":{"type":"Point","coordinates":[-103.9542,37.2815]},"properties":{"s":92.3,"pub":false}},{"type":"Feature","geometry":{"type":"Point","coordinates":[-103.9542,37.2873]},"properties":{"s":92.3,"pub":false}},{"type":"Feature","geometry":{"type":"Point","coordinates":[-103.9542,37.2931]},"properties":{"s":92.3,"pub":false}},{"type":"Feature","geometry":{"type":"Point","coordinates":[-103.9542,37.2989]},"properties":{"s":92.3,"pub":false}},{"type":"Feature","geometry":{"type":"Point","coordinates":[-103.9542,37.3047]},"properties":{"s":92.3,"pub":false}},{"type":"Feature","geometry":{"type":"Point","coordinates":[-103.9542,37.3105]},"properties":{"s":92.3,"pub":false}},{"type":"Feature","geometry":{"type":"Point","coordinates":[-103.9542,37.3163]},"properties":{"s":92.3,"pub":false}},{"type":"Feature","geometry":{"type":"Point","coordinates":[-103.9542,37.3221]},"properties":{"s":92.3,"pub":false}},{"type":"Feature","geometry":{"type":"Point","coordinates":[-103.9542,37.3279]},"properties":{"s":92.3,"pub":false}},{"type":"Feature","geometry":{"type":"Point","coordinates":[-103.9542,37.3337]},"properties":{"s":92.3,"pub":false}},{"type":"Feature","geometry":{"type":"Point","coordinates":[-103.9542,37.3395]},"properties":{"s":92.3,"pub":false}},{"type":"Feature","geometry":{"type":"Point","coordinates":[-103.9542,37.3453]},"properties":{"s":92.3,"pub":false}},{"type":"Feature","geometry":{"type":"Point","coordinates":[-103.9467,37.2757]},"properties":{"s":92.3,"pub":false}},{"type":"Feature","geometry":{"type":"Point","coordinates":[-103.9467,37.2815]},"properties":{"s":92.3,"pub":false}},{"type":"Feature","geometry":{"type":"Point","coordinates":[-103.9467,37.2873]},"properties":{"s":92.3,"pub":true}},{"type":"Feature","geometry":{"type":"Point","coordinates":[-103.9467,37.2931]},"properties":{"s":92.3,"pub":false}},{"type":"Feature","geometry":{"type":"Point","coordinates":[-103.9467,37.2989]},"properties":{"s":92.3,"pub":false}},{"type":"Feature","geometry":{"type":"Point","coordinates":[-103.9467,37.3047]},"properties":{"s":92.3,"pub":false}},{"type":"Feature","geometry":{"type":"Point","coordinates":[-103.9467,37.3105]},"properties":{"s":92.3,"pub":false}},{"type":"Feature","geometry":{"type":"Point","coordinates":[-103.9467,37.3163]},"properties":{"s":92.3,"pub":false}},{"type":"Feature","geometry":{"type":"Point","coordinates":[-103.9467,37.3221]},"properties":{"s":92.3,"pub":false}},{"type":"Feature","geometry":{"type":"Point","coordinates":[-103.9467,37.3279]},"properties":{"s":92.3,"pub":false}},{"type":"Feature","geometry":{"type":"Point","coordinates":[-103.9467,37.3337]},"properties":{"s":92.3,"pub":false}},{"type":"Feature","geometry":{"type":"Point","coordinates":[-103.9467,37.3395]},"properties":{"s":92.3,"pub":false}},{"type":"Feature","geometry":{"type":"Point","coordinates":[-103.9467,37.3453]},"properties":{"s":92.3,"pub":false}},{"type":"Feature","geometry":{"type":"Point","coordinates":[-103.9392,37.2815]},"properties":{"s":92.3,"pub":false}},{"type":"Feature","geometry":{"type":"Point","coordinates":[-103.9392,37.2873]},"properties":{"s":92.3,"pub":true}},{"type":"Feature","geometry":{"type":"Point","coordinates":[-103.9392,37.2931]},"properties":{"s":92.3,"pub":false}},{"type":"Feature","geometry":{"type":"Point","coordinates":[-103.9392,37.2989]},"properties":{"s":92.3,"pub":false}},{"type":"Feature","geometry":{"type":"Point","coordinates":[-103.9392,37.3047]},"properties":{"s":92.3,"pub":false}},{"type":"Feature","geometry":{"type":"Point","coordinates":[-103.9392,37.3105]},"properties":{"s":92.3,"pub":false}},{"type":"Feature","geometry":{"type":"Point","coordinates":[-103.9392,37.3163]},"properties":{"s":92.3,"pub":false}},{"type":"Feature","geometry":{"type":"Point","coordinates":[-103.9392,37.3221]},"properties":{"s":92.3,"pub":false}},{"type":"Feature","geometry":{"type":"Point","coordinates":[-103.9392,37.3279]},"properties":{"s":92.3,"pub":false}},{"type":"Feature","geometry":{"type":"Point","coordinates":[-103.9392,37.3337]},"properties":{"s":92.3,"pub":false}},{"type":"Feature","geometry":{"type":"Point","coordinates":[-103.9392,37.3395]},"properties":{"s":92.3,"pub":false}},{"type":"Feature","geometry":{"type":"Point","coordinates":[-103.9392,37.3453]},"properties":{"s":92.3,"pub":false}},{"type":"Feature","geometry":{"type":"Point","coordinates":[-103.9317,37.2931]},"properties":{"s":92.3,"pub":false}},{"type":"Feature","geometry":{"type":"Point","coordinates":[-103.9317,37.2989]},"properties":{"s":92.3,"pub":false}},{"type":"Feature","geometry":{"type":"Point","coordinates":[-103.9317,37.3047]},"properties":{"s":92.3,"pub":false}},{"type":"Feature","geometry":{"type":"Point","coordinates":[-103.9317,37.3105]},"properties":{"s":92.3,"pub":false}},{"type":"Feature","geometry":{"type":"Point","coordinates":[-103.9317,37.3163]},"properties":{"s":92.3,"pub":false}},{"type":"Feature","geometry":{"type":"Point","coordinates":[-103.9317,37.3221]},"properties":{"s":92.3,"pub":false}},{"type":"Feature","geometry":{"type":"Point","coordinates":[-103.9317,37.3279]},"properties":{"s":92.3,"pub":false}},{"type":"Feature","geometry":{"type":"Point","coordinates":[-103.9317,37.3337]},"properties":{"s":92.3,"pub":false}},{"type":"Feature","geometry":{"type":"Point","coordinates":[-103.9317,37.3395]},"properties":{"s":92.3,"pub":false}},{"type":"Feature","geometry":{"type":"Point","coordinates":[-103.9317,37.3453]},"properties":{"s":92.3,"pub":false}},{"type":"Feature","geometry":{"type":"Point","coordinates":[-103.9242,37.2931]},"properties":{"s":92.3,"pub":false}},{"type":"Feature","geometry":{"type":"Point","coordinates":[-103.9242,37.2989]},"properties":{"s":92.3,"pub":false}},{"type":"Feature","geometry":{"type":"Point","coordinates":[-103.9242,37.3047]},"properties":{"s":92.3,"pub":false}},{"type":"Feature","geometry":{"type":"Point","coordinates":[-103.9242,37.3163]},"properties":{"s":92.3,"pub":false}},{"type":"Feature","geometry":{"type":"Point","coordinates":[-103.9242,37.3221]},"properties":{"s":92.3,"pub":false}},{"type":"Feature","geometry":{"type":"Point","coordinates":[-103.9242,37.3279]},"properties":{"s":92.3,"pub":false}},{"type":"Feature","geometry":{"type":"Point","coordinates":[-103.9242,37.3337]},"properties":{"s":92.3,"pub":false}},{"type":"Feature","geometry":{"type":"Point","coordinates":[-103.9242,37.3395]},"properties":{"s":92.3,"pub":false}},{"type":"Feature","geometry":{"type":"Point","coordinates":[-103.9242,37.3453]},"properties":{"s":92.3,"pub":false}},{"type":"Feature","geometry":{"type":"Point","coordinates":[-103.9167,37.3163]},"properties":{"s":92.3,"pub":true}},{"type":"Feature","geometry":{"type":"Point","coordinates":[-103.9167,37.3221]},"properties":{"s":92.3,"pub":false}},{"type":"Feature","geometry":{"type":"Point","coordinates":[-103.9167,37.3279]},"properties":{"s":92.3,"pub":false}},{"type":"Feature","geometry":{"type":"Point","coordinates":[-103.9167,37.3337]},"properties":{"s":92.3,"pub":false}},{"type":"Feature","geometry":{"type":"Point","coordinates":[-103.9167,37.3395]},"properties":{"s":92.3,"pub":false}},{"type":"Feature","geometry":{"type":"Point","coordinates":[-103.9167,37.3453]},"properties":{"s":92.3,"pub":false}},{"type":"Feature","geometry":{"type":"Point","coordinates":[-103.9092,37.3279]},"properties":{"s":92.3,"pub":false}},{"type":"Feature","geometry":{"type":"Point","coordinates":[-103.9092,37.3337]},"properties":{"s":92.3,"pub":true}},{"type":"Feature","geometry":{"type":"Point","coordinates":[-103.9092,37.3395]},"properties":{"s":92.3,"pub":true}}]}