{"type":"FeatureCollection","features":[{"type":"Feature","geometry":{"type":"Point","coordinates":[-106.5716,40.3782]},"properties":{"s":28.6,"pub":false}},{"type":"Feature","geometry":{"type":"Point","coordinates":[-106.5566,40.3666]},"properties":{"s":21.4,"pub":false}},{"type":"Feature","geometry":{"type":"Point","coordinates":[-106.5566,40.3724]},"properties":{"s":21.4,"pub":false}},{"type":"Feature","geometry":{"type":"Point","coordinates":[-106.5491,40.3666]},"properties":{"s":21.4,"pub":false}},{"type":"Feature","geometry":{"type":"Point","coordinates":[-106.5416,40.355]},"properties":{"s":21.4,"pub":false}},{"type":"Feature","geometry":{"type":"Point","coordinates":[-106.5416,40.3608]},"properties":{"s":21.4,"pub":false}},{"type":"Feature","geometry":{"type":"Point","coordinates":[-106.5416,40.3666]},"properties":{"s":21.4,"pub":false}},{"type":"Feature","geometry":{"type":"Point","coordinates":[-106.5341,40.355]},"properties":{"s":21.4,"pub":false}},{"type":"Feature","geometry":{"type":"Point","coordinates":[-106.5341,40.3608]},"properties":{"s":21.4,"pub":false}},{"type":"Feature","geometry":{"type":"Point","coordinates":[-106.5266,40.355]},"properties":{"s":21.4,"pub":false}},{"type":"Feature","geometry":{"type":"Point","coordinates":[-106.5266,40.3608]},"properties":{"s":21.4,"pub":false}},{"type":"Feature","geometry":{"type":"Point","coordinates":[-106.5266,40.3666]},"properties":{"s":50.0,"pub":false}},{"type":"Feature","geometry":{"type":"Point","coordinates":[-106.5266,40.3724]},"properties":{"s":21.4,"pub":false}},{"type":"Feature","geometry":{"type":"Point","coordinates":[-106.5266,40.3782]},"properties":{"s":64.3,"pub":false}},{"type":"Feature","geometry":{"type":"Point","coordinates":[-106.5191,40.3434]},"properties":{"s":25.0,"pub":false}},{"type":"Feature","geometry":{"type":"Point","coordinates":[-106.5191,40.3492]},"properties":{"s":25.0,"pub":false}},{"type":"Feature","geometry":{"type":"Point","coordinates":[-106.5191,40.355]},"properties":{"s":21.4,"pub":false}},{"type":"Feature","geometry":{"type":"Point","coordinates":[-106.5191,40.3608]},"properties":{"s":21.4,"pub":false}},{"type":"Feature","geometry":{"type":"Point","coordinates":[-106.5191,40.3666]},"properties":{"s":21.4,"pub":false}},{"type":"Feature","geometry":{"type":"Point","coordinates":[-106.5191,40.3724]},"properties":{"s":64.3,"pub":false}},{"type":"Feature","geometry":{"type":"Point","coordinates":[-106.5191,40.3782]},"properties":{"s":67.9,"pub":false}},{"type":"Feature","geometry":{"type":"Point","coordinates":[-106.5191,40.384]},"properties":{"s":67.9,"pub":false}},{"type":"Feature","geometry":{"type":"Point","coordinates":[-106.5191,40.3898]},"properties":{"s":67.9,"pub":false}},{"type":"Feature","geometry":{"type":"Point","coordinates":[-106.5116,40.3144]},"properties":{"s":32.1,"pub":false}},{"type":"Feature","geometry":{"type":"Point","coordinates":[-106.5116,40.3202]},"properties":{"s":32.1,"pub":false}},{"type":"Feature","geometry":{"type":"Point","coordinates":[-106.5116,40.326]},"properties":{"s":32.1,"pub":false}},{"type":"Feature","geometry":{"type":"Point","coordinates":[-106.5116,40.3318]},"properties":{"s":53.6,"pub":false}},{"type":"Feature","geometry":{"type":"Point","coordinates":[-106.5116,40.3376]},"properties":{"s":53.6,"pub":false}},{"type":"Feature","geometry":{"type":"Point","coordinates":[-106.5116,40.3434]},"properties":{"s":25.0,"pub":false}},{"type":"Feature","geometry":{"type":"Point","coordinates":[-106.5116,40.3492]},"properties":{"s":25.0,"pub":false}},{"type":"Feature","geometry":{"type":"Point","coordinates":[-106.5116,40.355]},"properties":{"s":21.4,"pub":false}},{"type":"Feature","geometry":{"type":"Point","coordinates":[-106.5116,40.3608]},"properties":{"s":25.0,"pub":false}},{"type":"Feature","geometry":{"type":"Point","coordinates":[-106.5116,40.3666]},"properties":{"s":25.0,"pub":false}},{"type":"Feature","geometry":{"type":"Point","coordinates":[-106.5116,40.3724]},"properties":{"s":67.9,"pub":false}},{"type":"Feature","geometry":{"type":"Point","coordinates":[-106.5116,40.3782]},"properties":{"s":67.9,"pub":false}},{"type":"Feature","geometry":{"type":"Point","coordinates":[-106.5116,40.384]},"properties":{"s":64.3,"pub":false}},{"type":"Feature","geometry":{"type":"Point","coordinates":[-106.5041,40.3086]},"properties":{"s":32.1,"pub":false}},{"type":"Feature","geometry":{"type":"Point","coordinates":[-106.5041,40.3144]},"properties":{"s":96.4,"pub":false}},{"type":"Feature","geometry":{"type":"Point","coordinates":[-106.5041,40.3202]},"properties":{"s":96.4,"pub":false}},{"type":"Feature","geometry":{"type":"Point","coordinates":[-106.5041,40.326]},"properties":{"s":96.4,"pub":false}},{"type":"Feature","geometry":{"type":"Point","coordinates":[-106.5041,40.3318]},"properties":{"s":96.4,"pub":false}},{"type":"Feature","geometry":{"type":"Point","coordinates":[-106.5041,40.3376]},"properties":{"s":96.4,"pub":false}},{"type":"Feature","geometry":{"type":"Point","coordinates":[-106.5041,40.3434]},"properties":{"s":67.9,"pub":false}},{"type":"Feature","geometry":{"type":"Point","coordinates":[-106.5041,40.3492]},"properties":{"s":28.6,"pub":false}},{"type":"Feature","geometry":{"type":"Point","coordinates":[-106.5041,40.355]},"properties":{"s":25.0,"pub":false}},{"type":"Feature","geometry":{"type":"Point","coordinates":[-106.5041,40.3608]},"properties":{"s":25.0,"pub":false}},{"type":"Feature","geometry":{"type":"Point","coordinates":[-106.5041,40.3666]},"properties":{"s":64.3,"pub":false}},{"type":"Feature","geometry":{"type":"Point","coordinates":[-106.5041,40.3724]},"properties":{"s":64.3,"pub":false}},{"type":"Feature","geometry":{"type":"Point","coordinates":[-106.5041,40.3782]},"properties":{"s":64.3,"pub":false}},{"type":"Feature","geometry":{"type":"Point","coordinates":[-106.5041,40.384]},"properties":{"s":92.9,"pub":false}},{"type":"Feature","geometry":{"type":"Point","coordinates":[-106.5041,40.3898]},"properties":{"s":64.3,"pub":false}},{"type":"Feature","geometry":{"type":"Point","coordinates":[-106.5041,40.3956]},"properties":{"s":64.3,"pub":false}},{"type":"Feature","geometry":{"type":"Point","coordinates":[-106.4966,40.3028]},"properties":{"s":32.1,"pub":false}},{"type":"Feature","geometry":{"type":"Point","coordinates":[-106.4966,40.3086]},"properties":{"s":96.4,"pub":false}},{"type":"Feature","geometry":{"type":"Point","coordinates":[-106.4966,40.3144]},"properties":{"s":96.4,"pub":false}},{"type":"Feature","geometry":{"type":"Point","coordinates":[-106.4966,40.3202]},"properties":{"s":96.4,"pub":false}},{"type":"Feature","geometry":{"type":"Point","coordinates":[-106.4966,40.326]},"properties":{"s":96.4,"pub":false}},{"type":"Feature","geometry":{"type":"Point","coordinates":[-106.4966,40.3318]},"properties":{"s":100.0,"pub":false}},{"type":"Feature","geometry":{"type":"Point","coordinates":[-106.4966,40.3376]},"properties":{"s":100.0,"pub":false}},{"type":"Feature","geometry":{"type":"Point","coordinates":[-106.4966,40.3434]},"properties":{"s":100.0,"pub":false}},{"type":"Feature","geometry":{"type":"Point","coordinates":[-106.4966,40.3492]},"properties":{"s":67.9,"pub":false}},{"type":"Feature","geometry":{"type":"Point","coordinates":[-106.4966,40.355]},"properties":{"s":64.3,"pub":false}},{"type":"Feature","geometry":{"type":"Point","coordinates":[-106.4966,40.3608]},"properties":{"s":64.3,"pub":false}},{"type":"Feature","geometry":{"type":"Point","coordinates":[-106.4966,40.3666]},"properties":{"s":64.3,"pub":false}},{"type":"Feature","geometry":{"type":"Point","coordinates":[-106.4966,40.3724]},"properties":{"s":64.3,"pub":false}},{"type":"Feature","geometry":{"type":"Point","coordinates":[-106.4966,40.3782]},"properties":{"s":64.3,"pub":false}},{"type":"Feature","geometry":{"type":"Point","coordinates":[-106.4966,40.384]},"properties":{"s":64.3,"pub":false}},{"type":"Feature","geometry":{"type":"Point","coordinates":[-106.4966,40.3898]},"properties":{"s":64.3,"pub":false}},{"type":"Feature","geometry":{"type":"Point","coordinates":[-106.4966,40.3956]},"properties":{"s":64.3,"pub":false}},{"type":"Feature","geometry":{"type":"Point","coordinates":[-106.4966,40.4014]},"properties":{"s":64.3,"pub":false}},{"type":"Feature","geometry":{"type":"Point","coordinates":[-106.4891,40.297]},"properties":{"s":32.1,"pub":false}},{"type":"Feature","geometry":{"type":"Point","coordinates":[-106.4891,40.3028]},"properties":{"s":32.1,"pub":false}},{"type":"Feature","geometry":{"type":"Point","coordinates":[-106.4891,40.3086]},"properties":{"s":96.4,"pub":false}},{"type":"Feature","geometry":{"type":"Point","coordinates":[-106.4891,40.3144]},"properties":{"s":96.4,"pub":false}},{"type":"Feature","geometry":{"type":"Point","coordinates":[-106.4891,40.3202]},"properties":{"s":96.4,"pub":false}},{"type":"Feature","geometry":{"type":"Point","coordinates":[-106.4891,40.326]},"properties":{"s":100.0,"pub":false}},{"type":"Feature","geometry":{"type":"Point","coordinates":[-106.4891,40.3318]},"properties":{"s":100.0,"pub":false}},{"type":"Feature","geometry":{"type":"Point","coordinates":[-106.4891,40.3376]},"properties":{"s":100.0,"pub":false}},{"type":"Feature","geometry":{"type":"Point","coordinates":[-106.4891,40.3434]},"properties":{"s":92.9,"pub":false}},{"type":"Feature","geometry":{"type":"Point","coordinates":[-106.4891,40.3492]},"properties":{"s":64.3,"pub":false}},{"type":"Feature","geometry":{"type":"Point","coordinates":[-106.4891,40.355]},"properties":{"s":64.3,"pub":false}},{"type":"Feature","geometry":{"type":"Point","coordinates":[-106.4891,40.3608]},"properties":{"s":64.3,"pub":false}},{"type":"Feature","geometry":{"type":"Point","coordinates":[-106.4891,40.3666]},"properties":{"s":64.3,"pub":false}},{"type":"Feature","geometry":{"type":"Point","coordinates":[-106.4891,40.3724]},"properties":{"s":64.3,"pub":false}},{"type":"Feature","geometry":{"type":"Point","coordinates":[-106.4891,40.3782]},"properties":{"s":64.3,"pub":false}},{"type":"Feature","geometry":{"type":"Point","coordinates":[-106.4891,40.384]},"properties":{"s":64.3,"pub":false}},{"type":"Feature","geometry":{"type":"Point","coordinates":[-106.4891,40.3898]},"properties":{"s":64.3,"pub":false}},{"type":"Feature","geometry":{"type":"Point","coordinates":[-106.4891,40.3956]},"properties":{"s":64.3,"pub":false}},{"type":"Feature","geometry":{"type":"Point","coordinates":[-106.4891,40.4014]},"properties":{"s":64.3,"pub":false}},{"type":"Feature","geometry":{"type":"Point","coordinates":[-106.4891,40.4072]},"properties":{"s":64.3,"pub":false}},{"type":"Feature","geometry":{"type":"Point","coordinates":[-106.4816,40.297]},"properties":{"s":32.1,"pub":false}},{"type":"Feature","geometry":{"type":"Point","coordinates":[-106.4816,40.3028]},"properties":{"s":35.7,"pub":false}},{"type":"Feature","geometry":{"type":"Point","coordinates":[-106.4816,40.3086]},"properties":{"s":100.0,"pub":false}},{"type":"Feature","geometry":{"type":"Point","coordinates":[-106.4816,40.3144]},"properties":{"s":100.0,"pub":false}},{"type":"Feature","geometry":{"type":"Point","coordinates":[-106.4816,40.3202]},"properties":{"s":100.0,"pub":false}},{"type":"Feature","geometry":{"type":"Point","coordinates":[-106.4816,40.326]},"properties":{"s":100.0,"pub":false}},{"type":"Feature","geometry":{"type":"Point","coordinates":[-106.4816,40.3318]},"properties":{"s":92.9,"pub":false}},{"type":"Feature","geometry":{"type":"Point","coordinates":[-106.4816,40.3376]},"properties":{"s":92.9,"pub":false}},{"type":"Feature","geometry":{"type":"Point","coordinates":[-106.4816,40.3434]},"properties":{"s":92.9,"pub":false}},{"type":"Feature","geometry":{"type":"Point","coordinates":[-106.4816,40.3492]},"properties":{"s":64.3,"pub":true}},{"type":"Feature","geometry":{"type":"Point","coordinates":[-106.4816,40.355]},"properties":{"s":64.3,"pub":false}},{"type":"Feature","geometry":{"type":"Point","coordinates":[-106.4816,40.3608]},"properties":{"s":64.3,"pub":false}},{"type":"Feature","geometry":{"type":"Point","coordinates":[-106.4816,40.3666]},"properties":{"s":64.3,"pub":false}},{"type":"Feature","geometry":{"type":"Point","coordinates":[-106.4816,40.3724]},"properties":{"s":64.3,"pub":false}},{"type":"Feature","geometry":{"type":"Point","coordinates":[-106.4816,40.3782]},"properties":{"s":64.3,"pub":false}},{"type":"Feature","geometry":{"type":"Point","coordinates":[-106.4816,40.384]},"properties":{"s":64.3,"pub":true}},{"type":"Feature","geometry":{"type":"Point","coordinates":[-106.4816,40.3898]},"properties":{"s":64.3,"pub":true}},{"type":"Feature","geometry":{"type":"Point","coordinates":[-106.4816,40.3956]},"properties":{"s":64.3,"pub":false}},{"type":"Feature","geometry":{"type":"Point","coordinates":[-106.4816,40.4014]},"properties":{"s":64.3,"pub":false}},{"type":"Feature","geometry":{"type":"Point","coordinates":[-106.4816,40.4072]},"properties":{"s":64.3,"pub":false}},{"type":"Feature","geometry":{"type":"Point","coordinates":[-106.4741,40.297]},"properties":{"s":35.7,"pub":false}},{"type":"Feature","geometry":{"type":"Point","coordinates":[-106.4741,40.3028]},"properties":{"s":35.7,"pub":false}},{"type":"Feature","geometry":{"type":"Point","coordinates":[-106.4741,40.3086]},"properties":{"s":35.7,"pub":false}},{"type":"Feature","geometry":{"type":"Point","coordinates":[-106.4741,40.3144]},"properties":{"s":100.0,"pub":false}},{"type":"Feature","geometry":{"type":"Point","coordinates":[-106.4741,40.3202]},"properties":{"s":96.4,"pub":false}},{"type":"Feature","geometry":{"type":"Point","coordinates":[-106.4741,40.326]},"properties":{"s":96.4,"pub":false}},{"type":"Feature","geometry":{"type":"Point","coordinates":[-106.4741,40.3318]},"properties":{"s":92.9,"pub":false}},{"type":"Feature","geometry":{"type":"Point","coordinates":[-106.4741,40.3376]},"properties":{"s":92.9,"pub":true}},{"type":"Feature","geometry":{"type":"Point","coordinates":[-106.4741,40.3434]},"properties":{"s":92.9,"pub":true}},{"type":"Feature","geometry":{"type":"Point","coordinates":[-106.4741,40.3492]},"properties":{"s":92.9,"pub":true}},{"type":"Feature","geometry":{"type":"Point","coordinates":[-106.4741,40.355]},"properties":{"s":64.3,"pub":true}},{"type":"Feature","geometry":{"type":"Point","coordinates":[-106.4741,40.3608]},"properties":{"s":92.9,"pub":true}},{"type":"Feature","geometry":{"type":"Point","coordinates":[-106.4741,40.3666]},"properties":{"s":92.9,"pub":true}},{"type":"Feature","geometry":{"type":"Point","coordinates":[-106.4741,40.3724]},"properties":{"s":64.3,"pub":true}},{"type":"Feature","geometry":{"type":"Point","coordinates":[-106.4741,40.3782]},"properties":{"s":64.3,"pub":false}},{"type":"Feature","geometry":{"type":"Point","coordinates":[-106.4741,40.384]},"properties":{"s":64.3,"pub":false}},{"type":"Feature","geometry":{"type":"Point","coordinates":[-106.4666,40.297]},"properties":{"s":35.7,"pub":false}},{"type":"Feature","geometry":{"type":"Point","coordinates":[-106.4666,40.3028]},"properties":{"s":35.7,"pub":false}},{"type":"Feature","geometry":{"type":"Point","coordinates":[-106.4666,40.3086]},"properties":{"s":100.0,"pub":false}},{"type":"Feature","geometry":{"type":"Point","coordinates":[-106.4666,40.3144]},"properties":{"s":100.0,"pub":false}},{"type":"Feature","geometry":{"type":"Point","coordinates":[-106.4666,40.3202]},"properties":{"s":100.0,"pub":false}},{"type":"Feature","geometry":{"type":"Point","coordinates":[-106.4666,40.326]},"properties":{"s":96.4,"pub":false}},{"type":"Feature","geometry":{"type":"Point","coordinates":[-106.4666,40.3318]},"properties":{"s":96.4,"pub":false}},{"type":"Feature","geometry":{"type":"Point","coordinates":[-106.4666,40.3376]},"properties":{"s":92.9,"pub":true}},{"type":"Feature","geometry":{"type":"Point","coordinates":[-106.4666,40.3434]},"properties":{"s":92.9,"pub":true}},{"type":"Feature","geometry":{"type":"Point","coordinates":[-106.4666,40.3492]},"properties":{"s":64.3,"pub":true}},{"type":"Feature","geometry":{"type":"Point","coordinates":[-106.4666,40.355]},"properties":{"s":64.3,"pub":true}},{"type":"Feature","geometry":{"type":"Point","coordinates":[-106.4666,40.3608]},"properties":{"s":64.3,"pub":true}},{"type":"Feature","geometry":{"type":"Point","coordinates":[-106.4666,40.3666]},"properties":{"s":64.3,"pub":true}},{"type":"Feature","geometry":{"type":"Point","coordinates":[-106.4666,40.3724]},"properties":{"s":21.4,"pub":true}},{"type":"Feature","geometry":{"type":"Point","coordinates":[-106.4666,40.3782]},"properties":{"s":21.4,"pub":false}},{"type":"Feature","geometry":{"type":"Point","coordinates":[-106.4591,40.297]},"properties":{"s":35.7,"pub":false}},{"type":"Feature","geometry":{"type":"Point","coordinates":[-106.4591,40.3028]},"properties":{"s":100.0,"pub":false}},{"type":"Feature","geometry":{"type":"Point","coordinates":[-106.4591,40.3086]},"properties":{"s":100.0,"pub":false}},{"type":"Feature","geometry":{"type":"Point","coordinates":[-106.4591,40.3144]},"properties":{"s":100.0,"pub":false}},{"type":"Feature","geometry":{"type":"Point","coordinates":[-106.4591,40.3202]},"properties":{"s":96.4,"pub":false}},{"type":"Feature","geometry":{"type":"Point","coordinates":[-106.4591,40.326]},"properties":{"s":96.4,"pub":false}},{"type":"Feature","geometry":{"type":"Point","coordinates":[-106.4591,40.3318]},"properties":{"s":96.4,"pub":false}},{"type":"Feature","geometry":{"type":"Point","coordinates":[-106.4591,40.3376]},"properties":{"s":92.9,"pub":true}},{"type":"Feature","geometry":{"type":"Point","coordinates":[-106.4591,40.3434]},"properties":{"s":92.9,"pub":true}},{"type":"Feature","geometry":{"type":"Point","coordinates":[-106.4591,40.3492]},"properties":{"s":64.3,"pub":true}},{"type":"Feature","geometry":{"type":"Point","coordinates":[-106.4591,40.355]},"properties":{"s":64.3,"pub":true}},{"type":"Feature","geometry":{"type":"Point","coordinates":[-106.4591,40.3608]},"properties":{"s":21.4,"pub":true}},{"type":"Feature","geometry":{"type":"Point","coordinates":[-106.4591,40.3666]},"properties":{"s":21.4,"pub":true}},{"type":"Feature","geometry":{"type":"Point","coordinates":[-106.4516,40.2854]},"properties":{"s":35.7,"pub":true}},{"type":"Feature","geometry":{"type":"Point","coordinates":[-106.4516,40.2912]},"properties":{"s":57.1,"pub":true}},{"type":"Feature","geometry":{"type":"Point","coordinates":[-106.4516,40.297]},"properties":{"s":100.0,"pub":false}},{"type":"Feature","geometry":{"type":"Point","coordinates":[-106.4516,40.3028]},"properties":{"s":100.0,"pub":false}},{"type":"Feature","geometry":{"type":"Point","coordinates":[-106.4516,40.3086]},"properties":{"s":100.0,"pub":false}},{"type":"Feature","geometry":{"type":"Point","coordinates":[-106.4516,40.3144]},"properties":{"s":100.0,"pub":false}},{"type":"Feature","geometry":{"type":"Point","coordinates":[-106.4516,40.3202]},"properties":{"s":96.4,"pub":false}},{"type":"Feature","geometry":{"type":"Point","coordinates":[-106.4516,40.326]},"properties":{"s":96.4,"pub":false}},{"type":"Feature","geometry":{"type":"Point","coordinates":[-106.4516,40.3318]},"properties":{"s":92.9,"pub":false}},{"type":"Feature","geometry":{"type":"Point","coordinates":[-106.4516,40.3376]},"properties":{"s":92.9,"pub":true}},{"type":"Feature","geometry":{"type":"Point","coordinates":[-106.4516,40.3434]},"properties":{"s":64.3,"pub":true}},{"type":"Feature","geometry":{"type":"Point","coordinates":[-106.4516,40.3492]},"properties":{"s":21.4,"pub":true}},{"type":"Feature","geometry":{"type":"Point","coordinates":[-106.4441,40.2796]},"properties":{"s":35.7,"pub":true}},{"type":"Feature","geometry":{"type":"Point","coordinates":[-106.4441,40.2854]},"properties":{"s":57.1,"pub":true}},{"type":"Feature","geometry":{"type":"Point","coordinates":[-106.4441,40.2912]},"properties":{"s":57.1,"pub":true}},{"type":"Feature","geometry":{"type":"Point","coordinates":[-106.4441,40.297]},"properties":{"s":57.1,"pub":true}},{"type":"Feature","geometry":{"type":"Point","coordinates":[-106.4441,40.3028]},"properties":{"s":100.0,"pub":true}},{"type":"Feature","geometry":{"type":"Point","coordinates":[-106.4441,40.3086]},"properties":{"s":71.4,"pub":false}},{"type":"Feature","geometry":{"type":"Point","coordinates":[-106.4441,40.3144]},"properties":{"s":96.4,"pub":false}},{"type":"Feature","geometry":{"type":"Point","coordinates":[-106.4441,40.3202]},"properties":{"s":96.4,"pub":true}},{"type":"Feature","geometry":{"type":"Point","coordinates":[-106.4441,40.326]},"properties":{"s":96.4,"pub":true}},{"type":"Feature","geometry":{"type":"Point","coordinates":[-106.4441,40.3318]},"properties":{"s":96.4,"pub":true}},{"type":"Feature","geometry":{"type":"Point","coordinates":[-106.4441,40.3376]},"properties":{"s":92.9,"pub":true}},{"type":"Feature","geometry":{"type":"Point","coordinates":[-106.4441,40.3434]},"properties":{"s":64.3,"pub":true}},{"type":"Feature","geometry":{"type":"Point","coordinates":[-106.4366,40.2622]},"properties":{"s":28.6,"pub":true}},{"type":"Feature","geometry":{"type":"Point","coordinates":[-106.4366,40.2738]},"properties":{"s":57.1,"pub":true}},{"type":"Feature","geometry":{"type":"Point","coordinates":[-106.4366,40.2796]},"properties":{"s":57.1,"pub":true}},{"type":"Feature","geometry":{"type":"Point","coordinates":[-106.4366,40.2854]},"properties":{"s":57.1,"pub":true}},{"type":"Feature","geometry":{"type":"Point","coordinates":[-106.4366,40.2912]},"properties":{"s":57.1,"pub":true}},{"type":"Feature","geometry":{"type":"Point","coordinates":[-106.4366,40.297]},"properties":{"s":57.1,"pub":true}},{"type":"Feature","geometry":{"type":"Point","coordinates":[-106.4366,40.3028]},"properties":{"s":100.0,"pub":true}},{"type":"Feature","geometry":{"type":"Point","coordinates":[-106.4366,40.3086]},"properties":{"s":67.9,"pub":true}},{"type":"Feature","geometry":{"type":"Point","coordinates":[-106.4366,40.3144]},"properties":{"s":67.9,"pub":true}},{"type":"Feature","geometry":{"type":"Point","coordinates":[-106.4366,40.3202]},"properties":{"s":96.4,"pub":true}},{"type":"Feature","geometry":{"type":"Point","coordinates":[-106.4366,40.326]},"properties":{"s":96.4,"pub":true}},{"type":"Feature","geometry":{"type":"Point","coordinates":[-106.4366,40.3318]},"properties":{"s":96.4,"pub":true}},{"type":"Feature","geometry":{"type":"Point","coordinates":[-106.4366,40.3376]},"properties":{"s":96.4,"pub":true}},{"type":"Feature","geometry":{"type":"Point","coordinates":[-106.4366,40.3434]},"properties":{"s":64.3,"pub":true}},{"type":"Feature","geometry":{"type":"Point","coordinates":[-106.4366,40.3492]},"properties":{"s":21.4,"pub":true}},{"type":"Feature","geometry":{"type":"Point","coordinates":[-106.4291,40.2622]},"properties":{"s":28.6,"pub":true}},{"type":"Feature","geometry":{"type":"Point","coordinates":[-106.4291,40.268]},"properties":{"s":57.1,"pub":true}},{"type":"Feature","geometry":{"type":"Point","coordinates":[-106.4291,40.2738]},"properties":{"s":57.1,"pub":true}},{"type":"Feature","geometry":{"type":"Point","coordinates":[-106.4291,40.2796]},"properties":{"s":57.1,"pub":true}},{"type":"Feature","geometry":{"type":"Point","coordinates":[-106.4291,40.2854]},"properties":{"s":57.1,"pub":true}},{"type":"Feature","geometry":{"type":"Point","coordinates":[-106.4291,40.2912]},"properties":{"s":57.1,"pub":true}},{"type":"Feature","geometry":{"type":"Point","coordinates":[-106.4291,40.297]},"properties":{"s":28.6,"pub":true}},{"type":"Feature","geometry":{"type":"Point","coordinates":[-106.4291,40.3028]},"properties":{"s":71.4,"pub":true}},{"type":"Feature","geometry":{"type":"Point","coordinates":[-106.4291,40.3086]},"properties":{"s":67.9,"pub":true}},{"type":"Feature","geometry":{"type":"Point","coordinates":[-106.4291,40.3144]},"properties":{"s":67.9,"pub":true}},{"type":"Feature","geometry":{"type":"Point","coordinates":[-106.4291,40.3202]},"properties":{"s":67.9,"pub":true}},{"type":"Feature","geometry":{"type":"Point","coordinates":[-106.4291,40.326]},"properties":{"s":67.9,"pub":true}},{"type":"Feature","geometry":{"type":"Point","coordinates":[-106.4291,40.3318]},"properties":{"s":92.9,"pub":true}},{"type":"Feature","geometry":{"type":"Point","coordinates":[-106.4291,40.3376]},"properties":{"s":64.3,"pub":true}},{"type":"Feature","geometry":{"type":"Point","coordinates":[-106.4291,40.3434]},"properties":{"s":64.3,"pub":true}},{"type":"Feature","geometry":{"type":"Point","coordinates":[-106.4291,40.3492]},"properties":{"s":21.4,"pub":true}},{"type":"Feature","geometry":{"type":"Point","coordinates":[-106.4216,40.2564]},"properties":{"s":35.7,"pub":true}},{"type":"Feature","geometry":{"type":"Point","coordinates":[-106.4216,40.2622]},"properties":{"s":57.1,"pub":true}},{"type":"Feature","geometry":{"type":"Point","coordinates":[-106.4216,40.268]},"properties":{"s":57.1,"pub":true}},{"type":"Feature","geometry":{"type":"Point","coordinates":[-106.4216,40.2738]},"properties":{"s":57.1,"pub":true}},{"type":"Feature","geometry":{"type":"Point","coordinates":[-106.4216,40.2796]},"properties":{"s":57.1,"pub":true}},{"type":"Feature","geometry":{"type":"Point","coordinates":[-106.4216,40.2854]},"properties":{"s":57.1,"pub":true}},{"type":"Feature","geometry":{"type":"Point","coordinates":[-106.4216,40.2912]},"properties":{"s":57.1,"pub":true}},{"type":"Feature","geometry":{"type":"Point","coordinates":[-106.4216,40.297]},"properties":{"s":28.6,"pub":true}},{"type":"Feature","geometry":{"type":"Point","coordinates":[-106.4216,40.3028]},"properties":{"s":28.6,"pub":true}},{"type":"Feature","geometry":{"type":"Point","coordinates":[-106.4216,40.3086]},"properties":{"s":67.9,"pub":true}},{"type":"Feature","geometry":{"type":"Point","coordinates":[-106.4216,40.3144]},"properties":{"s":67.9,"pub":true}},{"type":"Feature","geometry":{"type":"Point","coordinates":[-106.4216,40.3202]},"properties":{"s":64.3,"pub":true}},{"type":"Feature","geometry":{"type":"Point","coordinates":[-106.4216,40.326]},"properties":{"s":64.3,"pub":true}},{"type":"Feature","geometry":{"type":"Point","coordinates":[-106.4216,40.3318]},"properties":{"s":64.3,"pub":true}},{"type":"Feature","geometry":{"type":"Point","coordinates":[-106.4216,40.3376]},"properties":{"s":64.3,"pub":true}},{"type":"Feature","geometry":{"type":"Point","coordinates":[-106.4216,40.3434]},"properties":{"s":64.3,"pub":true}},{"type":"Feature","geometry":{"type":"Point","coordinates":[-106.4216,40.3492]},"properties":{"s":21.4,"pub":true}},{"type":"Feature","geometry":{"type":"Point","coordinates":[-106.4141,40.2564]},"properties":{"s":35.7,"pub":true}},{"type":"Feature","geometry":{"type":"Point","coordinates":[-106.4141,40.2622]},"properties":{"s":35.7,"pub":true}},{"type":"Feature","geometry":{"type":"Point","coordinates":[-106.4141,40.268]},"properties":{"s":57.1,"pub":true}},{"type":"Feature","geometry":{"type":"Point","coordinates":[-106.4141,40.2738]},"properties":{"s":57.1,"pub":true}},{"type":"Feature","geometry":{"type":"Point","coordinates":[-106.4141,40.2796]},"properties":{"s":57.1,"pub":true}},{"type":"Feature","geometry":{"type":"Point","coordinates":[-106.4141,40.2854]},"properties":{"s":57.1,"pub":true}},{"type":"Feature","geometry":{"type":"Point","coordinates":[-106.4141,40.2912]},"properties":{"s":57.1,"pub":true}},{"type":"Feature","geometry":{"type":"Point","coordinates":[-106.4141,40.297]},"properties":{"s":71.4,"pub":true}},{"type":"Feature","geometry":{"type":"Point","coordinates":[-106.4141,40.3028]},"properties":{"s":67.9,"pub":true}},{"type":"Feature","geometry":{"type":"Point","coordinates":[-106.4141,40.3086]},"properties":{"s":64.3,"pub":true}},{"type":"Feature","geometry":{"type":"Point","coordinates":[-106.4141,40.3144]},"properties":{"s":64.3,"pub":true}},{"type":"Feature","geometry":{"type":"Point","coordinates":[-106.4141,40.3202]},"properties":{"s":64.3,"pub":true}},{"type":"Feature","geometry":{"type":"Point","coordinates":[-106.4141,40.326]},"properties":{"s":64.3,"pub":true}},{"type":"Feature","geometry":{"type":"Point","coordinates":[-106.4141,40.3318]},"properties":{"s":64.3,"pub":true}},{"type":"Feature","geometry":{"type":"Point","coordinates":[-106.4141,40.3376]},"properties":{"s":64.3,"pub":true}},{"type":"Feature","geometry":{"type":"Point","coordinates":[-106.4141,40.3434]},"properties":{"s":64.3,"pub":true}},{"type":"Feature","geometry":{"type":"Point","coordinates":[-106.4141,40.3492]},"properties":{"s":21.4,"pub":true}},{"type":"Feature","geometry":{"type":"Point","coordinates":[-106.4066,40.1114]},"properties":{"s":14.3,"pub":true}},{"type":"Feature","geometry":{"type":"Point","coordinates":[-106.4066,40.2564]},"properties":{"s":35.7,"pub":true}},{"type":"Feature","geometry":{"type":"Point","coordinates":[-106.4066,40.2622]},"properties":{"s":35.7,"pub":true}},{"type":"Feature","geometry":{"type":"Point","coordinates":[-106.4066,40.268]},"properties":{"s":57.1,"pub":true}},{"type":"Feature","geometry":{"type":"Point","coordinates":[-106.4066,40.2738]},"properties":{"s":57.1,"pub":true}},{"type":"Feature","geometry":{"type":"Point","coordinates":[-106.4066,40.2796]},"properties":{"s":57.1,"pub":true}},{"type":"Feature","geometry":{"type":"Point","coordinates":[-106.4066,40.2854]},"properties":{"s":100.0,"pub":true}},{"type":"Feature","geometry":{"type":"Point","coordinates":[-106.4066,40.2912]},"properties":{"s":100.0,"pub":true}},{"type":"Feature","geometry":{"type":"Point","coordinates":[-106.4066,40.297]},"properties":{"s":67.9,"pub":true}},{"type":"Feature","geometry":{"type":"Point","coordinates":[-106.4066,40.3028]},"properties":{"s":67.9,"pub":true}},{"type":"Feature","geometry":{"type":"Point","coordinates":[-106.4066,40.3086]},"properties":{"s":64.3,"pub":true}},{"type":"Feature","geometry":{"type":"Point","coordinates":[-106.4066,40.3144]},"properties":{"s":64.3,"pub":true}},{"type":"Feature","geometry":{"type":"Point","coordinates":[-106.4066,40.3202]},"properties":{"s":64.3,"pub":true}},{"type":"Feature","geometry":{"type":"Point","coordinates":[-106.4066,40.326]},"properties":{"s":64.3,"pub":true}},{"type":"Feature","geometry":{"type":"Point","coordinates":[-106.4066,40.3318]},"properties":{"s":64.3,"pub":true}},{"type":"Feature","geometry":{"type":"Point","coordinates":[-106.4066,40.3376]},"properties":{"s":64.3,"pub":true}},{"type":"Feature","geometry":{"type":"Point","coordinates":[-106.4066,40.3434]},"properties":{"s":21.4,"pub":true}},{"type":"Feature","geometry":{"type":"Point","coordinates":[-106.3991,40.1114]},"properties":{"s":14.3,"pub":true}},{"type":"Feature","geometry":{"type":"Point","coordinates":[-106.3991,40.1172]},"properties":{"s":14.3,"pub":true}},{"type":"Feature","geometry":{"type":"Point","coordinates":[-106.3991,40.123]},"properties":{"s":14.3,"pub":true}},{"type":"Feature","geometry":{"type":"Point","coordinates":[-106.3991,40.152]},"properties":{"s":14.3,"pub":true}},{"type":"Feature","geometry":{"type":"Point","coordinates":[-106.3991,40.1578]},"properties":{"s":14.3,"pub":true}},{"type":"Feature","geometry":{"type":"Point","coordinates":[-106.3991,40.1636]},"properties":{"s":14.3,"pub":true}},{"type":"Feature","geometry":{"type":"Point","coordinates":[-106.3991,40.2564]},"properties":{"s":35.7,"pub":false}},{"type":"Feature","geometry":{"type":"Point","coordinates":[-106.3991,40.2622]},"properties":{"s":35.7,"pub":true}},{"type":"Feature","geometry":{"type":"Point","coordinates":[-106.3991,40.268]},"properties":{"s":35.7,"pub":true}},{"type":"Feature","geometry":{"type":"Point","coordinates":[-106.3991,40.2738]},"properties":{"s":57.1,"pub":true}},{"type":"Feature","geometry":{"type":"Point","coordinates":[-106.3991,40.2796]},"properties":{"s":100.0,"pub":true}},{"type":"Feature","geometry":{"type":"Point","coordinates":[-106.3991,40.2854]},"properties":{"s":100.0,"pub":true}},{"type":"Feature","geometry":{"type":"Point","coordinates":[-106.3991,40.2912]},"properties":{"s":100.0,"pub":true}},{"type":"Feature","geometry":{"type":"Point","coordinates":[-106.3991,40.297]},"properties":{"s":96.4,"pub":true}},{"type":"Feature","geometry":{"type":"Point","coordinates":[-106.3991,40.3028]},"properties":{"s":92.9,"pub":true}},{"type":"Feature","geometry":{"type":"Point","coordinates":[-106.3991,40.3086]},"properties":{"s":64.3,"pub":true}},{"type":"Feature","geometry":{"type":"Point","coordinates":[-106.3991,40.3144]},"properties":{"s":64.3,"pub":true}},{"type":"Feature","geometry":{"type":"Point","coordinates":[-106.3991,40.3202]},"properties":{"s":64.3,"pub":true}},{"type":"Feature","geometry":{"type":"Point","coordinates":[-106.3991,40.326]},"properties":{"s":64.3,"pub":true}},{"type":"Feature","geometry":{"type":"Point","coordinates":[-106.3991,40.3318]},"properties":{"s":64.3,"pub":true}},{"type":"Feature","geometry":{"type":"Point","coordinates":[-106.3991,40.3376]},"properties":{"s":64.3,"pub":true}},{"type":"Feature","geometry":{"type":"Point","coordinates":[-106.3991,40.3434]},"properties":{"s":64.3,"pub":true}},{"type":"Feature","geometry":{"type":"Point","coordinates":[-106.3916,40.1114]},"properties":{"s":14.3,"pub":true}},{"type":"Feature","geometry":{"type":"Point","coordinates":[-106.3916,40.1172]},"properties":{"s":14.3,"pub":true}},{"type":"Feature","geometry":{"type":"Point","coordinates":[-106.3916,40.123]},"properties":{"s":14.3,"pub":true}},{"type":"Feature","geometry":{"type":"Point","coordinates":[-106.3916,40.1288]},"properties":{"s":14.3,"pub":true}},{"type":"Feature","geometry":{"type":"Point","coordinates":[-106.3916,40.1462]},"properties":{"s":14.3,"pub":true}},{"type":"Feature","geometry":{"type":"Point","coordinates":[-106.3916,40.152]},"properties":{"s":14.3,"pub":true}},{"type":"Feature","geometry":{"type":"Point","coordinates":[-106.3916,40.1578]},"properties":{"s":14.3,"pub":true}},{"type":"Feature","geometry":{"type":"Point","coordinates":[-106.3916,40.1636]},"properties":{"s":14.3,"pub":true}},{"type":"Feature","geometry":{"type":"Point","coordinates":[-106.3916,40.1694]},"properties":{"s":14.3,"pub":true}},{"type":"Feature","geometry":{"type":"Point","coordinates":[-106.3916,40.2564]},"properties":{"s":35.7,"pub":false}},{"type":"Feature","geometry":{"type":"Point","coordinates":[-106.3916,40.2622]},"properties":{"s":35.7,"pub":true}},{"type":"Feature","geometry":{"type":"Point","coordinates":[-106.3916,40.268]},"properties":{"s":35.7,"pub":true}},{"type":"Feature","geometry":{"type":"Point","coordinates":[-106.3916,40.2738]},"properties":{"s":35.7,"pub":true}},{"type":"Feature","geometry":{"type":"Point","coordinates":[-106.3916,40.2796]},"properties":{"s":100.0,"pub":true}},{"type":"Feature","geometry":{"type":"Point","coordinates":[-106.3916,40.2854]},"properties":{"s":100.0,"pub":true}},{"type":"Feature","geometry":{"type":"Point","coordinates":[-106.3916,40.2912]},"properties":{"s":100.0,"pub":true}},{"type":"Feature","geometry":{"type":"Point","coordinates":[-106.3916,40.297]},"properties":{"s":96.4,"pub":true}},{"type":"Feature","geometry":{"type":"Point","coordinates":[-106.3916,40.3028]},"properties":{"s":92.9,"pub":true}},{"type":"Feature","geometry":{"type":"Point","coordinates":[-106.3916,40.3086]},"properties":{"s":92.9,"pub":true}},{"type":"Feature","geometry":{"type":"Point","coordinates":[-106.3916,40.3144]},"properties":{"s":64.3,"pub":true}},{"type":"Feature","geometry":{"type":"Point","coordinates":[-106.3916,40.3202]},"properties":{"s":92.9,"pub":true}},{"type":"Feature","geometry":{"type":"Point","coordinates":[-106.3916,40.326]},"properties":{"s":64.3,"pub":true}},{"type":"Feature","geometry":{"type":"Point","coordinates":[-106.3916,40.3318]},"properties":{"s":64.3,"pub":true}},{"type":"Feature","geometry":{"type":"Point","coordinates":[-106.3916,40.3376]},"properties":{"s":64.3,"pub":true}},{"type":"Feature","geometry":{"type":"Point","coordinates":[-106.3916,40.3434]},"properties":{"s":64.3,"pub":true}},{"type":"Feature","geometry":{"type":"Point","coordinates":[-106.3841,40.1172]},"properties":{"s":14.3,"pub":true}},{"type":"Feature","geometry":{"type":"Point","coordinates":[-106.3841,40.123]},"properties":{"s":14.3,"pub":true}},{"type":"Feature","geometry":{"type":"Point","coordinates":[-106.3841,40.1288]},"properties":{"s":14.3,"pub":true}},{"type":"Feature","geometry":{"type":"Point","coordinates":[-106.3841,40.1346]},"properties":{"s":14.3,"pub":true}},{"type":"Feature","geometry":{"type":"Point","coordinates":[-106.3841,40.1404]},"properties":{"s":14.3,"pub":true}},{"type":"Feature","geometry":{"type":"Point","coordinates":[-106.3841,40.1462]},"properties":{"s":14.3,"pub":true}},{"type":"Feature","geometry":{"type":"Point","coordinates":[-106.3841,40.152]},"properties":{"s":14.3,"pub":true}},{"type":"Feature","geometry":{"type":"Point","coordinates":[-106.3841,40.1578]},"properties":{"s":14.3,"pub":true}},{"type":"Feature","geometry":{"type":"Point","coordinates":[-106.3841,40.1636]},"properties":{"s":14.3,"pub":true}},{"type":"Feature","geometry":{"type":"Point","coordinates":[-106.3841,40.1694]},"properties":{"s":14.3,"pub":true}},{"type":"Feature","geometry":{"type":"Point","coordinates":[-106.3841,40.1752]},"properties":{"s":14.3,"pub":true}},{"type":"Feature","geometry":{"type":"Point","coordinates":[-106.3841,40.2564]},"properties":{"s":35.7,"pub":false}},{"type":"Feature","geometry":{"type":"Point","coordinates":[-106.3841,40.2622]},"properties":{"s":35.7,"pub":true}},{"type":"Feature","geometry":{"type":"Point","coordinates":[-106.3841,40.268]},"properties":{"s":35.7,"pub":true}},{"type":"Feature","geometry":{"type":"Point","coordinates":[-106.3841,40.2738]},"properties":{"s":35.7,"pub":true}},{"type":"Feature","geometry":{"type":"Point","coordinates":[-106.3841,40.2796]},"properties":{"s":100.0,"pub":true}},{"type":"Feature","geometry":{"type":"Point","coordinates":[-106.3841,40.2854]},"properties":{"s":100.0,"pub":true}},{"type":"Feature","geometry":{"type":"Point","coordinates":[-106.3841,40.2912]},"properties":{"s":96.4,"pub":false}},{"type":"Feature","geometry":{"type":"Point","coordinates":[-106.3841,40.297]},"properties":{"s":96.4,"pub":false}},{"type":"Feature","geometry":{"type":"Point","coordinates":[-106.3841,40.3028]},"properties":{"s":92.9,"pub":false}},{"type":"Feature","geometry":{"type":"Point","coordinates":[-106.3841,40.3086]},"properties":{"s":92.9,"pub":true}},{"type":"Feature","geometry":{"type":"Point","coordinates":[-106.3841,40.3144]},"properties":{"s":64.3,"pub":true}},{"type":"Feature","geometry":{"type":"Point","coordinates":[-106.3841,40.3202]},"properties":{"s":92.9,"pub":true}},{"type":"Feature","geometry":{"type":"Point","coordinates":[-106.3841,40.326]},"properties":{"s":64.3,"pub":true}},{"type":"Feature","geometry":{"type":"Point","coordinates":[-106.3841,40.3318]},"properties":{"s":64.3,"pub":true}},{"type":"Feature","geometry":{"type":"Point","coordinates":[-106.3841,40.3376]},"properties":{"s":64.3,"pub":true}},{"type":"Feature","geometry":{"type":"Point","coordinates":[-106.3841,40.3434]},"properties":{"s":64.3,"pub":true}},{"type":"Feature","geometry":{"type":"Point","coordinates":[-106.3841,40.3492]},"properties":{"s":21.4,"pub":true}},{"type":"Feature","geometry":{"type":"Point","coordinates":[-106.3766,40.123]},"properties":{"s":14.3,"pub":true}},{"type":"Feature","geometry":{"type":"Point","coordinates":[-106.3766,40.1288]},"properties":{"s":14.3,"pub":true}},{"type":"Feature","geometry":{"type":"Point","coordinates":[-106.3766,40.1346]},"properties":{"s":14.3,"pub":true}},{"type":"Feature","geometry":{"type":"Point","coordinates":[-106.3766,40.1404]},"properties":{"s":14.3,"pub":true}},{"type":"Feature","geometry":{"type":"Point","coordinates":[-106.3766,40.1462]},"properties":{"s":14.3,"pub":true}},{"type":"Feature","geometry":{"type":"Point","coordinates":[-106.3766,40.152]},"properties":{"s":14.3,"pub":true}},{"type":"Feature","geometry":{"type":"Point","coordinates":[-106.3766,40.1578]},"properties":{"s":14.3,"pub":true}},{"type":"Feature","geometry":{"type":"Point","coordinates":[-106.3766,40.1636]},"properties":{"s":14.3,"pub":true}},{"type":"Feature","geometry":{"type":"Point","coordinates":[-106.3766,40.1694]},"properties":{"s":14.3,"pub":true}},{"type":"Feature","geometry":{"type":"Point","coordinates":[-106.3766,40.1752]},"properties":{"s":14.3,"pub":true}},{"type":"Feature","geometry":{"type":"Point","coordinates":[-106.3766,40.181]},"properties":{"s":14.3,"pub":true}},{"type":"Feature","geometry":{"type":"Point","coordinates":[-106.3766,40.2564]},"properties":{"s":35.7,"pub":false}},{"type":"Feature","geometry":{"type":"Point","coordinates":[-106.3766,40.2622]},"properties":{"s":35.7,"pub":false}},{"type":"Feature","geometry":{"type":"Point","coordinates":[-106.3766,40.268]},"properties":{"s":35.7,"pub":false}},{"type":"Feature","geometry":{"type":"Point","coordinates":[-106.3766,40.2738]},"properties":{"s":35.7,"pub":false}},{"type":"Feature","geometry":{"type":"Point","coordinates":[-106.3766,40.2796]},"properties":{"s":100.0,"pub":false}},{"type":"Feature","geometry":{"type":"Point","coordinates":[-106.3766,40.2854]},"properties":{"s":96.4,"pub":true}},{"type":"Feature","geometry":{"type":"Point","coordinates":[-106.3766,40.2912]},"properties":{"s":96.4,"pub":false}},{"type":"Feature","geometry":{"type":"Point","coordinates":[-106.3766,40.297]},"properties":{"s":96.4,"pub":false}},{"type":"Feature","geometry":{"type":"Point","coordinates":[-106.3766,40.3028]},"properties":{"s":92.9,"pub":false}},{"type":"Feature","geometry":{"type":"Point","coordinates":[-106.3766,40.3086]},"properties":{"s":64.3,"pub":true}},{"type":"Feature","geometry":{"type":"Point","coordinates":[-106.3766,40.3144]},"properties":{"s":64.3,"pub":true}},{"type":"Feature","geometry":{"type":"Point","coordinates":[-106.3766,40.3202]},"properties":{"s":64.3,"pub":true}},{"type":"Feature","geometry":{"type":"Point","coordinates":[-106.3766,40.326]},"properties":{"s":64.3,"pub":true}},{"type":"Feature","geometry":{"type":"Point","coordinates":[-106.3766,40.3318]},"properties":{"s":64.3,"pub":true}},{"type":"Feature","geometry":{"type":"Point","coordinates":[-106.3766,40.3376]},"properties":{"s":64.3,"pub":true}},{"type":"Feature","geometry":{"type":"Point","coordinates":[-106.3766,40.3434]},"properties":{"s":64.3,"pub":true}},{"type":"Feature","geometry":{"type":"Point","coordinates":[-106.3766,40.3492]},"properties":{"s":21.4,"pub":true}},{"type":"Feature","geometry":{"type":"Point","coordinates":[-106.3766,40.355]},"properties":{"s":21.4,"pub":true}},{"type":"Feature","geometry":{"type":"Point","coordinates":[-106.3691,40.1288]},"properties":{"s":14.3,"pub":true}},{"type":"Feature","geometry":{"type":"Point","coordinates":[-106.3691,40.1346]},"properties":{"s":14.3,"pub":true}},{"type":"Feature","geometry":{"type":"Point","coordinates":[-106.3691,40.1404]},"properties":{"s":14.3,"pub":true}},{"type":"Feature","geometry":{"type":"Point","coordinates":[-106.3691,40.1462]},"properties":{"s":14.3,"pub":true}},{"type":"Feature","geometry":{"type":"Point","coordinates":[-106.3691,40.152]},"properties":{"s":14.3,"pub":true}},{"type":"Feature","geometry":{"type":"Point","coordinates":[-106.3691,40.1578]},"properties":{"s":14.3,"pub":true}},{"type":"Feature","geometry":{"type":"Point","coordinates":[-106.3691,40.1636]},"properties":{"s":14.3,"pub":true}},{"type":"Feature","geometry":{"type":"Point","coordinates":[-106.3691,40.1694]},"properties":{"s":14.3,"pub":true}},{"type":"Feature","geometry":{"type":"Point","coordinates":[-106.3691,40.1752]},"properties":{"s":14.3,"pub":true}},{"type":"Feature","geometry":{"type":"Point","coordinates":[-106.3691,40.181]},"properties":{"s":14.3,"pub":true}},{"type":"Feature","geometry":{"type":"Point","coordinates":[-106.3691,40.1868]},"properties":{"s":14.3,"pub":true}},{"type":"Feature","geometry":{"type":"Point","coordinates":[-106.3691,40.2564]},"properties":{"s":35.7,"pub":false}},{"type":"Feature","geometry":{"type":"Point","coordinates":[-106.3691,40.2622]},"properties":{"s":35.7,"pub":false}},{"type":"Feature","geometry":{"type":"Point","coordinates":[-106.3691,40.268]},"properties":{"s":57.1,"pub":true}},{"type":"Feature","geometry":{"type":"Point","coordinates":[-106.3691,40.2738]},"properties":{"s":100.0,"pub":true}},{"type":"Feature","geometry":{"type":"Point","coordinates":[-106.3691,40.2796]},"properties":{"s":96.4,"pub":true}},{"type":"Feature","geometry":{"type":"Point","coordinates":[-106.3691,40.2854]},"properties":{"s":96.4,"pub":true}},{"type":"Feature","geometry":{"type":"Point","coordinates":[-106.3691,40.2912]},"properties":{"s":96.4,"pub":false}},{"type":"Feature","geometry":{"type":"Point","coordinates":[-106.3691,40.297]},"properties":{"s":92.9,"pub":false}},{"type":"Feature","geometry":{"type":"Point","coordinates":[-106.3691,40.3028]},"properties":{"s":64.3,"pub":false}},{"type":"Feature","geometry":{"type":"Point","coordinates":[-106.3691,40.3086]},"properties":{"s":64.3,"pub":true}},{"type":"Feature","geometry":{"type":"Point","coordinates":[-106.3691,40.3144]},"properties":{"s":64.3,"pub":true}},{"type":"Feature","geometry":{"type":"Point","coordinates":[-106.3691,40.3202]},"properties":{"s":64.3,"pub":true}},{"type":"Feature","geometry":{"type":"Point","coordinates":[-106.3691,40.326]},"properties":{"s":64.3,"pub":true}},{"type":"Feature","geometry":{"type":"Point","coordinates":[-106.3691,40.3318]},"properties":{"s":64.3,"pub":true}},{"type":"Feature","geometry":{"type":"Point","coordinates":[-106.3691,40.3376]},"properties":{"s":64.3,"pub":true}},{"type":"Feature","geometry":{"type":"Point","coordinates":[-106.3691,40.3434]},"properties":{"s":64.3,"pub":true}},{"type":"Feature","geometry":{"type":"Point","coordinates":[-106.3691,40.3492]},"properties":{"s":21.4,"pub":true}},{"type":"Feature","geometry":{"type":"Point","coordinates":[-106.3691,40.355]},"properties":{"s":21.4,"pub":true}},{"type":"Feature","geometry":{"type":"Point","coordinates":[-106.3616,40.1346]},"properties":{"s":14.3,"pub":true}},{"type":"Feature","geometry":{"type":"Point","coordinates":[-106.3616,40.1404]},"properties":{"s":14.3,"pub":true}},{"type":"Feature","geometry":{"type":"Point","coordinates":[-106.3616,40.1462]},"properties":{"s":14.3,"pub":true}},{"type":"Feature","geometry":{"type":"Point","coordinates":[-106.3616,40.152]},"properties":{"s":14.3,"pub":true}},{"type":"Feature","geometry":{"type":"Point","coordinates":[-106.3616,40.1578]},"properties":{"s":14.3,"pub":true}},{"type":"Feature","geometry":{"type":"Point","coordinates":[-106.3616,40.1636]},"properties":{"s":14.3,"pub":true}},{"type":"Feature","geometry":{"type":"Point","coordinates":[-106.3616,40.1694]},"properties":{"s":14.3,"pub":true}},{"type":"Feature","geometry":{"type":"Point","coordinates":[-106.3616,40.1752]},"properties":{"s":14.3,"pub":true}},{"type":"Feature","geometry":{"type":"Point","coordinates":[-106.3616,40.181]},"properties":{"s":14.3,"pub":true}},{"type":"Feature","geometry":{"type":"Point","coordinates":[-106.3616,40.1868]},"properties":{"s":14.3,"pub":true}},{"type":"Feature","geometry":{"type":"Point","coordinates":[-106.3616,40.1926]},"properties":{"s":14.3,"pub":true}},{"type":"Feature","geometry":{"type":"Point","coordinates":[-106.3616,40.2564]},"properties":{"s":53.6,"pub":true}},{"type":"Feature","geometry":{"type":"Point","coordinates":[-106.3616,40.2622]},"properties":{"s":53.6,"pub":false}},{"type":"Feature","geometry":{"type":"Point","coordinates":[-106.3616,40.268]},"properties":{"s":53.6,"pub":false}},{"type":"Feature","geometry":{"type":"Point","coordinates":[-106.3616,40.2738]},"properties":{"s":53.6,"pub":false}},{"type":"Feature","geometry":{"type":"Point","coordinates":[-106.3616,40.2796]},"properties":{"s":96.4,"pub":false}},{"type":"Feature","geometry":{"type":"Point","coordinates":[-106.3616,40.2854]},"properties":{"s":96.4,"pub":true}},{"type":"Feature","geometry":{"type":"Point","coordinates":[-106.3616,40.2912]},"properties":{"s":92.9,"pub":true}},{"type":"Feature","geometry":{"type":"Point","coordinates":[-106.3616,40.297]},"properties":{"s":64.3,"pub":true}},{"type":"Feature","geometry":{"type":"Point","coordinates":[-106.3616,40.3028]},"properties":{"s":64.3,"pub":true}},{"type":"Feature","geometry":{"type":"Point","coordinates":[-106.3616,40.3086]},"properties":{"s":64.3,"pub":true}},{"type":"Feature","geometry":{"type":"Point","coordinates":[-106.3616,40.3144]},"properties":{"s":64.3,"pub":true}},{"type":"Feature","geometry":{"type":"Point","coordinates":[-106.3616,40.3202]},"properties":{"s":64.3,"pub":true}},{"type":"Feature","geometry":{"type":"Point","coordinates":[-106.3616,40.326]},"properties":{"s":64.3,"pub":true}},{"type":"Feature","geometry":{"type":"Point","coordinates":[-106.3616,40.3318]},"properties":{"s":64.3,"pub":true}},{"type":"Feature","geometry":{"type":"Point","coordinates":[-106.3616,40.3376]},"properties":{"s":64.3,"pub":true}},{"type":"Feature","geometry":{"type":"Point","coordinates":[-106.3616,40.3434]},"properties":{"s":64.3,"pub":true}},{"type":"Feature","geometry":{"type":"Point","coordinates":[-106.3616,40.3492]},"properties":{"s":21.4,"pub":true}},{"type":"Feature","geometry":{"type":"Point","coordinates":[-106.3616,40.355]},"properties":{"s":21.4,"pub":true}},{"type":"Feature","geometry":{"type":"Point","coordinates":[-106.3541,40.1462]},"properties":{"s":14.3,"pub":true}},{"type":"Feature","geometry":{"type":"Point","coordinates":[-106.3541,40.152]},"properties":{"s":14.3,"pub":true}},{"type":"Feature","geometry":{"type":"Point","coordinates":[-106.3541,40.1578]},"properties":{"s":14.3,"pub":true}},{"type":"Feature","geometry":{"type":"Point","coordinates":[-106.3541,40.1636]},"properties":{"s":14.3,"pub":true}},{"type":"Feature","geometry":{"type":"Point","coordinates":[-106.3541,40.1694]},"properties":{"s":14.3,"pub":true}},{"type":"Feature","geometry":{"type":"Point","coordinates":[-106.3541,40.1752]},"properties":{"s":14.3,"pub":true}},{"type":"Feature","geometry":{"type":"Point","coordinates":[-106.3541,40.181]},"properties":{"s":14.3,"pub":true}},{"type":"Feature","geometry":{"type":"Point","coordinates":[-106.3541,40.1868]},"properties":{"s":14.3,"pub":true}},{"type":"Feature","geometry":{"type":"Point","coordinates":[-106.3541,40.1926]},"properties":{"s":35.7,"pub":true}},{"type":"Feature","geometry":{"type":"Point","coordinates":[-106.3541,40.1984]},"properties":{"s":35.7,"pub":true}},{"type":"Feature","geometry":{"type":"Point","coordinates":[-106.3541,40.2042]},"properties":{"s":28.6,"pub":true}},{"type":"Feature","geometry":{"type":"Point","coordinates":[-106.3541,40.2506]},"properties":{"s":25.0,"pub":true}},{"type":"Feature","geometry":{"type":"Point","coordinates":[-106.3541,40.2564]},"properties":{"s":25.0,"pub":true}},{"type":"Feature","geometry":{"type":"Point","coordinates":[-106.3541,40.2622]},"properties":{"s":25.0,"pub":false}},{"type":"Feature","geometry":{"type":"Point","coordinates":[-106.3541,40.268]},"properties":{"s":53.6,"pub":false}},{"type":"Feature","geometry":{"type":"Point","coordinates":[-106.3541,40.2738]},"properties":{"s":53.6,"pub":false}},{"type":"Feature","geometry":{"type":"Point","coordinates":[-106.3541,40.2796]},"properties":{"s":53.6,"pub":true}},{"type":"Feature","geometry":{"type":"Point","coordinates":[-106.3541,40.2854]},"properties":{"s":92.9,"pub":true}},{"type":"Feature","geometry":{"type":"Point","coordinates":[-106.3541,40.2912]},"properties":{"s":92.9,"pub":true}},{"type":"Feature","geometry":{"type":"Point","coordinates":[-106.3541,40.297]},"properties":{"s":64.3,"pub":true}},{"type":"Feature","geometry":{"type":"Point","coordinates":[-106.3541,40.3028]},"properties":{"s":64.3,"pub":true}},{"type":"Feature","geometry":{"type":"Point","coordinates":[-106.3541,40.3086]},"properties":{"s":64.3,"pub":true}},{"type":"Feature","geometry":{"type":"Point","coordinates":[-106.3541,40.3144]},"properties":{"s":64.3,"pub":true}},{"type":"Feature","geometry":{"type":"Point","coordinates":[-106.3541,40.3202]},"properties":{"s":64.3,"pub":true}},{"type":"Feature","geometry":{"type":"Point","coordinates":[-106.3541,40.326]},"properties":{"s":64.3,"pub":true}},{"type":"Feature","geometry":{"type":"Point","coordinates":[-106.3541,40.3318]},"properties":{"s":64.3,"pub":true}},{"type":"Feature","geometry":{"type":"Point","coordinates":[-106.3541,40.3376]},"properties":{"s":64.3,"pub":true}},{"type":"Feature","geometry":{"type":"Point","coordinates":[-106.3541,40.3434]},"properties":{"s":21.4,"pub":true}},{"type":"Feature","geometry":{"type":"Point","coordinates":[-106.3541,40.3492]},"properties":{"s":21.4,"pub":true}},{"type":"Feature","geometry":{"type":"Point","coordinates":[-106.3541,40.355]},"properties":{"s":21.4,"pub":true}},{"type":"Feature","geometry":{"type":"Point","coordinates":[-106.3466,40.1636]},"properties":{"s":14.3,"pub":true}},{"type":"Feature","geometry":{"type":"Point","coordinates":[-106.3466,40.1694]},"properties":{"s":14.3,"pub":true}},{"type":"Feature","geometry":{"type":"Point","coordinates":[-106.3466,40.1752]},"properties":{"s":14.3,"pub":true}},{"type":"Feature","geometry":{"type":"Point","coordinates":[-106.3466,40.181]},"properties":{"s":14.3,"pub":true}},{"type":"Feature","geometry":{"type":"Point","coordinates":[-106.3466,40.1868]},"properties":{"s":14.3,"pub":true}},{"type":"Feature","geometry":{"type":"Point","coordinates":[-106.3466,40.1926]},"properties":{"s":14.3,"pub":true}},{"type":"Feature","geometry":{"type":"Point","coordinates":[-106.3466,40.1984]},"properties":{"s":35.7,"pub":true}},{"type":"Feature","geometry":{"type":"Point","coordinates":[-106.3466,40.2042]},"properties":{"s":28.6,"pub":true}},{"type":"Feature","geometry":{"type":"Point","coordinates":[-106.3466,40.21]},"properties":{"s":28.6,"pub":false}},{"type":"Feature","geometry":{"type":"Point","coordinates":[-106.3466,40.2158]},"properties":{"s":28.6,"pub":true}},{"type":"Feature","geometry":{"type":"Point","coordinates":[-106.3466,40.2216]},"properties":{"s":28.6,"pub":true}},{"type":"Feature","geometry":{"type":"Point","coordinates":[-106.3466,40.2506]},"properties":{"s":25.0,"pub":false}},{"type":"Feature","geometry":{"type":"Point","coordinates":[-106.3466,40.2564]},"properties":{"s":25.0,"pub":false}},{"type":"Feature","geometry":{"type":"Point","coordinates":[-106.3466,40.2622]},"properties":{"s":25.0,"pub":true}},{"type":"Feature","geometry":{"type":"Point","coordinates":[-106.3466,40.268]},"properties":{"s":25.0,"pub":true}},{"type":"Feature","geometry":{"type":"Point","coordinates":[-106.3466,40.2738]},"properties":{"s":25.0,"pub":true}},{"type":"Feature","geometry":{"type":"Point","coordinates":[-106.3466,40.2796]},"properties":{"s":50.0,"pub":true}},{"type":"Feature","geometry":{"type":"Point","coordinates":[-106.3466,40.2854]},"properties":{"s":21.4,"pub":true}},{"type":"Feature","geometry":{"type":"Point","coordinates":[-106.3466,40.2912]},"properties":{"s":21.4,"pub":true}},{"type":"Feature","geometry":{"type":"Point","coordinates":[-106.3466,40.297]},"properties":{"s":21.4,"pub":true}},{"type":"Feature","geometry":{"type":"Point","coordinates":[-106.3466,40.3028]},"properties":{"s":64.3,"pub":true}},{"type":"Feature","geometry":{"type":"Point","coordinates":[-106.3466,40.3086]},"properties":{"s":64.3,"pub":true}},{"type":"Feature","geometry":{"type":"Point","coordinates":[-106.3466,40.3144]},"properties":{"s":64.3,"pub":true}},{"type":"Feature","geometry":{"type":"Point","coordinates":[-106.3466,40.3202]},"properties":{"s":64.3,"pub":true}},{"type":"Feature","geometry":{"type":"Point","coordinates":[-106.3466,40.326]},"properties":{"s":64.3,"pub":true}},{"type":"Feature","geometry":{"type":"Point","coordinates":[-106.3466,40.3318]},"properties":{"s":21.4,"pub":true}},{"type":"Feature","geometry":{"type":"Point","coordinates":[-106.3466,40.3376]},"properties":{"s":21.4,"pub":true}},{"type":"Feature","geometry":{"type":"Point","coordinates":[-106.3466,40.3434]},"properties":{"s":21.4,"pub":true}},{"type":"Feature","geometry":{"type":"Point","coordinates":[-106.3466,40.3492]},"properties":{"s":21.4,"pub":true}},{"type":"Feature","geometry":{"type":"Point","coordinates":[-106.3391,40.2042]},"properties":{"s":25.0,"pub":true}},{"type":"Feature","geometry":{"type":"Point","coordinates":[-106.3391,40.21]},"properties":{"s":25.0,"pub":true}},{"type":"Feature","geometry":{"type":"Point","coordinates":[-106.3391,40.2158]},"properties":{"s":25.0,"pub":false}},{"type":"Feature","geometry":{"type":"Point","coordinates":[-106.3391,40.2216]},"properties":{"s":25.0,"pub":false}},{"type":"Feature","geometry":{"type":"Point","coordinates":[-106.3391,40.2274]},"properties":{"s":25.0,"pub":false}},{"type":"Feature","geometry":{"type":"Point","coordinates":[-106.3391,40.2332]},"properties":{"s":25.0,"pub":false}},{"type":"Feature","geometry":{"type":"Point","coordinates":[-106.3391,40.239]},"properties":{"s":25.0,"pub":false}},{"type":"Feature","geometry":{"type":"Point","coordinates":[-106.3391,40.2448]},"properties":{"s":25.0,"pub":false}},{"type":"Feature","geometry":{"type":"Point","coordinates":[-106.3391,40.2506]},"properties":{"s":25.0,"pub":false}},{"type":"Feature","geometry":{"type":"Point","coordinates":[-106.3391,40.2564]},"properties":{"s":25.0,"pub":false}},{"type":"Feature","geometry":{"type":"Point","coordinates":[-106.3391,40.2622]},"properties":{"s":25.0,"pub":true}},{"type":"Feature","geometry":{"type":"Point","coordinates":[-106.3391,40.268]},"properties":{"s":21.4,"pub":true}},{"type":"Feature","geometry":{"type":"Point","coordinates":[-106.3391,40.2738]},"properties":{"s":21.4,"pub":true}},{"type":"Feature","geometry":{"type":"Point","coordinates":[-106.3391,40.2796]},"properties":{"s":21.4,"pub":true}},{"type":"Feature","geometry":{"type":"Point","coordinates":[-106.3391,40.2854]},"properties":{"s":21.4,"pub":true}},{"type":"Feature","geometry":{"type":"Point","coordinates":[-106.3391,40.2912]},"properties":{"s":21.4,"pub":true}},{"type":"Feature","geometry":{"type":"Point","coordinates":[-106.3391,40.297]},"properties":{"s":21.4,"pub":true}},{"type":"Feature","geometry":{"type":"Point","coordinates":[-106.3391,40.3028]},"properties":{"s":21.4,"pub":true}},{"type":"Feature","geometry":{"type":"Point","coordinates":[-106.3391,40.3086]},"properties":{"s":21.4,"pub":true}},{"type":"Feature","geometry":{"type":"Point","coordinates":[-106.3391,40.3144]},"properties":{"s":21.4,"pub":true}},{"type":"Feature","geometry":{"type":"Point","coordinates":[-106.3391,40.3202]},"properties":{"s":21.4,"pub":true}},{"type":"Feature","geometry":{"type":"Point","coordinates":[-106.3391,40.326]},"properties":{"s":21.4,"pub":true}},{"type":"Feature","geometry":{"type":"Point","coordinates":[-106.3391,40.3318]},"properties":{"s":21.4,"pub":true}},{"type":"Feature","geometry":{"type":"Point","coordinates":[-106.3391,40.3376]},"properties":{"s":21.4,"pub":true}},{"type":"Feature","geometry":{"type":"Point","coordinates":[-106.3391,40.3434]},"properties":{"s":21.4,"pub":true}},{"type":"Feature","geometry":{"type":"Point","coordinates":[-106.3316,40.2042]},"properties":{"s":25.0,"pub":true}},{"type":"Feature","geometry":{"type":"Point","coordinates":[-106.3316,40.21]},"properties":{"s":25.0,"pub":true}},{"type":"Feature","geometry":{"type":"Point","coordinates":[-106.3316,40.2158]},"properties":{"s":25.0,"pub":false}},{"type":"Feature","geometry":{"type":"Point","coordinates":[-106.3316,40.2216]},"properties":{"s":25.0,"pub":false}},{"type":"Feature","geometry":{"type":"Point","coordinates":[-106.3316,40.2274]},"properties":{"s":25.0,"pub":false}},{"type":"Feature","geometry":{"type":"Point","coordinates":[-106.3316,40.2332]},"properties":{"s":25.0,"pub":false}},{"type":"Feature","geometry":{"type":"Point","coordinates":[-106.3316,40.239]},"properties":{"s":25.0,"pub":true}},{"type":"Feature","geometry":{"type":"Point","coordinates":[-106.3316,40.2448]},"properties":{"s":25.0,"pub":true}},{"type":"Feature","geometry":{"type":"Point","coordinates":[-106.3316,40.2506]},"properties":{"s":25.0,"pub":true}},{"type":"Feature","geometry":{"type":"Point","coordinates":[-106.3316,40.2564]},"properties":{"s":25.0,"pub":true}},{"type":"Feature","geometry":{"type":"Point","coordinates":[-106.3316,40.2622]},"properties":{"s":25.0,"pub":true}},{"type":"Feature","geometry":{"type":"Point","coordinates":[-106.3316,40.268]},"properties":{"s":21.4,"pub":true}},{"type":"Feature","geometry":{"type":"Point","coordinates":[-106.3316,40.2738]},"properties":{"s":21.4,"pub":true}},{"type":"Feature","geometry":{"type":"Point","coordinates":[-106.3316,40.2796]},"properties":{"s":21.4,"pub":true}},{"type":"Feature","geometry":{"type":"Point","coordinates":[-106.3316,40.2854]},"properties":{"s":21.4,"pub":true}},{"type":"Feature","geometry":{"type":"Point","coordinates":[-106.3316,40.2912]},"properties":{"s":21.4,"pub":true}},{"type":"Feature","geometry":{"type":"Point","coordinates":[-106.3316,40.297]},"properties":{"s":21.4,"pub":true}},{"type":"Feature","geometry":{"type":"Point","coordinates":[-106.3316,40.3028]},"properties":{"s":21.4,"pub":true}},{"type":"Feature","geometry":{"type":"Point","coordinates":[-106.3316,40.3086]},"properties":{"s":21.4,"pub":true}},{"type":"Feature","geometry":{"type":"Point","coordinates":[-106.3316,40.3144]},"properties":{"s":21.4,"pub":true}},{"type":"Feature","geometry":{"type":"Point","coordinates":[-106.3316,40.3202]},"properties":{"s":21.4,"pub":true}},{"type":"Feature","geometry":{"type":"Point","coordinates":[-106.3316,40.326]},"properties":{"s":21.4,"pub":true}},{"type":"Feature","geometry":{"type":"Point","coordinates":[-106.3316,40.3318]},"properties":{"s":21.4,"pub":true}},{"type":"Feature","geometry":{"type":"Point","coordinates":[-106.3316,40.3376]},"properties":{"s":21.4,"pub":true}},{"type":"Feature","geometry":{"type":"Point","coordinates":[-106.3241,40.2042]},"properties":{"s":25.0,"pub":true}},{"type":"Feature","geometry":{"type":"Point","coordinates":[-106.3241,40.21]},"properties":{"s":25.0,"pub":true}},{"type":"Feature","geometry":{"type":"Point","coordinates":[-106.3241,40.2158]},"properties":{"s":25.0,"pub":false}},{"type":"Feature","geometry":{"type":"Point","coordinates":[-106.3241,40.2216]},"properties":{"s":25.0,"pub":false}},{"type":"Feature","geometry":{"type":"Point","coordinates":[-106.3241,40.2274]},"properties":{"s":25.0,"pub":false}},{"type":"Feature","geometry":{"type":"Point","coordinates":[-106.3241,40.2332]},"properties":{"s":25.0,"pub":false}},{"type":"Feature","geometry":{"type":"Point","coordinates":[-106.3241,40.239]},"properties":{"s":25.0,"pub":true}},{"type":"Feature","geometry":{"type":"Point","coordinates":[-106.3241,40.2448]},"properties":{"s":25.0,"pub":true}},{"type":"Feature","geometry":{"type":"Point","coordinates":[-106.3241,40.2506]},"properties":{"s":25.0,"pub":true}},{"type":"Feature","geometry":{"type":"Point","coordinates":[-106.3241,40.2564]},"properties":{"s":25.0,"pub":true}},{"type":"Feature","geometry":{"type":"Point","coordinates":[-106.3241,40.2622]},"properties":{"s":25.0,"pub":true}},{"type":"Feature","geometry":{"type":"Point","coordinates":[-106.3241,40.268]},"properties":{"s":25.0,"pub":true}},{"type":"Feature","geometry":{"type":"Point","coordinates":[-106.3241,40.2738]},"properties":{"s":21.4,"pub":true}},{"type":"Feature","geometry":{"type":"Point","coordinates":[-106.3241,40.2796]},"properties":{"s":21.4,"pub":true}},{"type":"Feature","geometry":{"type":"Point","coordinates":[-106.3241,40.2854]},"properties":{"s":21.4,"pub":true}},{"type":"Feature","geometry":{"type":"Point","coordinates":[-106.3241,40.2912]},"properties":{"s":21.4,"pub":true}},{"type":"Feature","geometry":{"type":"Point","coordinates":[-106.3241,40.297]},"properties":{"s":21.4,"pub":true}},{"type":"Feature","geometry":{"type":"Point","coordinates":[-106.3241,40.3028]},"properties":{"s":21.4,"pub":true}},{"type":"Feature","geometry":{"type":"Point","coordinates":[-106.3241,40.3086]},"properties":{"s":21.4,"pub":true}},{"type":"Feature","geometry":{"type":"Point","coordinates":[-106.3241,40.3144]},"properties":{"s":21.4,"pub":true}},{"type":"Feature","geometry":{"type":"Point","coordinates":[-106.3241,40.3202]},"properties":{"s":21.4,"pub":true}},{"type":"Feature","geometry":{"type":"Point","coordinates":[-106.3241,40.326]},"properties":{"s":21.4,"pub":true}},{"type":"Feature","geometry":{"type":"Point","coordinates":[-106.3241,40.3318]},"properties":{"s":21.4,"pub":true}},{"type":"Feature","geometry":{"type":"Point","coordinates":[-106.3241,40.3376]},"properties":{"s":21.4,"pub":true}},{"type":"Feature","geometry":{"type":"Point","coordinates":[-106.3166,40.2042]},"properties":{"s":25.0,"pub":false}},{"type":"Feature","geometry":{"type":"Point","coordinates":[-106.3166,40.21]},"properties":{"s":25.0,"pub":false}},{"type":"Feature","geometry":{"type":"Point","coordinates":[-106.3166,40.2158]},"properties":{"s":25.0,"pub":false}},{"type":"Feature","geometry":{"type":"Point","coordinates":[-106.3166,40.2216]},"properties":{"s":25.0,"pub":false}},{"type":"Feature","geometry":{"type":"Point","coordinates":[-106.3166,40.2274]},"properties":{"s":25.0,"pub":true}},{"type":"Feature","geometry":{"type":"Point","coordinates":[-106.3166,40.2332]},"properties":{"s":25.0,"pub":true}},{"type":"Feature","geometry":{"type":"Point","coordinates":[-106.3166,40.239]},"properties":{"s":25.0,"pub":true}},{"type":"Feature","geometry":{"type":"Point","coordinates":[-106.3166,40.2448]},"properties":{"s":25.0,"pub":true}},{"type":"Feature","geometry":{"type":"Point","coordinates":[-106.3166,40.2506]},"properties":{"s":25.0,"pub":true}},{"type":"Feature","geometry":{"type":"Point","coordinates":[-106.3166,40.2564]},"properties":{"s":25.0,"pub":true}},{"type":"Feature","geometry":{"type":"Point","coordinates":[-106.3166,40.268]},"properties":{"s":21.4,"pub":true}},{"type":"Feature","geometry":{"type":"Point","coordinates":[-106.3166,40.2738]},"properties":{"s":21.4,"pub":true}},{"type":"Feature","geometry":{"type":"Point","coordinates":[-106.3166,40.2796]},"properties":{"s":21.4,"pub":true}},{"type":"Feature","geometry":{"type":"Point","coordinates":[-106.3166,40.2854]},"properties":{"s":21.4,"pub":true}},{"type":"Feature","geometry":{"type":"Point","coordinates":[-106.3166,40.2912]},"properties":{"s":21.4,"pub":true}},{"type":"Feature","geometry":{"type":"Point","coordinates":[-106.3166,40.297]},"properties":{"s":21.4,"pub":true}},{"type":"Feature","geometry":{"type":"Point","coordinates":[-106.3166,40.3028]},"properties":{"s":21.4,"pub":true}},{"type":"Feature","geometry":{"type":"Point","coordinates":[-106.3166,40.3086]},"properties":{"s":21.4,"pub":true}},{"type":"Feature","geometry":{"type":"Point","coordinates":[-106.3166,40.3144]},"properties":{"s":21.4,"pub":true}},{"type":"Feature","geometry":{"type":"Point","coordinates":[-106.3166,40.3202]},"properties":{"s":21.4,"pub":true}},{"type":"Feature","geometry":{"type":"Point","coordinates":[-106.3166,40.326]},"properties":{"s":21.4,"pub":true}},{"type":"Feature","geometry":{"type":"Point","coordinates":[-106.3166,40.3318]},"properties":{"s":21.4,"pub":true}},{"type":"Feature","geometry":{"type":"Point","coordinates":[-106.3091,40.1984]},"properties":{"s":25.0,"pub":false}},{"type":"Feature","geometry":{"type":"Point","coordinates":[-106.3091,40.2796]},"properties":{"s":21.4,"pub":true}},{"type":"Feature","geometry":{"type":"Point","coordinates":[-106.3091,40.2854]},"properties":{"s":21.4,"pub":true}},{"type":"Feature","geometry":{"type":"Point","coordinates":[-106.3091,40.2912]},"properties":{"s":21.4,"pub":true}},{"type":"Feature","geometry":{"type":"Point","coordinates":[-106.3091,40.297]},"properties":{"s":21.4,"pub":true}},{"type":"Feature","geometry":{"type":"Point","coordinates":[-106.3091,40.3028]},"properties":{"s":21.4,"pub":true}},{"type":"Feature","geometry":{"type":"Point","coordinates":[-106.3091,40.3086]},"properties":{"s":21.4,"pub":true}},{"type":"Feature","geometry":{"type":"Point","coordinates":[-106.3091,40.3144]},"properties":{"s":21.4,"pub":true}},{"type":"Feature","geometry":{"type":"Point","coordinates":[-106.3091,40.3202]},"properties":{"s":21.4,"pub":true}},{"type":"Feature","geometry":{"type":"Point","coordinates":[-106.3091,40.326]},"properties":{"s":21.4,"pub":true}},{"type":"Feature","geometry":{"type":"Point","coordinates":[-106.3016,40.2854]},"properties":{"s":21.4,"pub":true}},{"type":"Feature","geometry":{"type":"Point","coordinates":[-106.3016,40.2912]},"properties":{"s":21.4,"pub":true}},{"type":"Feature","geometry":{"type":"Point","coordinates":[-106.3016,40.297]},"properties":{"s":21.4,"pub":true}},{"type":"Feature","geometry":{"type":"Point","coordinates":[-106.3016,40.3028]},"properties":{"s":21.4,"pub":true}},{"type":"Feature","geometry":{"type":"Point","coordinates":[-106.3016,40.3086]},"properties":{"s":21.4,"pub":true}},{"type":"Feature","geometry":{"type":"Point","coordinates":[-106.3016,40.3144]},"properties":{"s":21.4,"pub":true}},{"type":"Feature","geometry":{"type":"Point","coordinates":[-106.3016,40.3202]},"properties":{"s":21.4,"pub":true}},{"type":"Feature","geometry":{"type":"Point","coordinates":[-106.3016,40.326]},"properties":{"s":21.4,"pub":true}},{"type":"Feature","geometry":{"type":"Point","coordinates":[-106.2941,40.2912]},"properties":{"s":21.4,"pub":true}},{"type":"Feature","geometry":{"type":"Point","coordinates":[-106.2941,40.297]},"properties":{"s":21.4,"pub":true}},{"type":"Feature","geometry":{"type":"Point","coordinates":[-106.2941,40.3028]},"properties":{"s":21.4,"pub":true}},{"type":"Feature","geometry":{"type":"Point","coordinates":[-106.2941,40.3086]},"properties":{"s":21.4,"pub":true}},{"type":"Feature","geometry":{"type":"Point","coordinates":[-106.2941,40.3144]},"properties":{"s":21.4,"pub":true}},{"type":"Feature","geometry":{"type":"Point","coordinates":[-106.2941,40.3202]},"properties":{"s":21.4,"pub":true}},{"type":"Feature","geometry":{"type":"Point","coordinates":[-106.2941,40.326]},"properties":{"s":21.4,"pub":true}},{"type":"Feature","geometry":{"type":"Point","coordinates":[-106.2941,40.3318]},"properties":{"s":21.4,"pub":true}},{"type":"Feature","geometry":{"type":"Point","coordinates":[-106.2941,40.3434]},"properties":{"s":21.4,"pub":true}},{"type":"Feature","geometry":{"type":"Point","coordinates":[-106.2941,40.3492]},"properties":{"s":21.4,"pub":true}},{"type":"Feature","geometry":{"type":"Point","coordinates":[-106.2941,40.355]},"properties":{"s":21.4,"pub":true}},{"type":"Feature","geometry":{"type":"Point","coordinates":[-106.2866,40.3028]},"properties":{"s":21.4,"pub":true}},{"type":"Feature","geometry":{"type":"Point","coordinates":[-106.2866,40.3086]},"properties":{"s":21.4,"pub":true}},{"type":"Feature","geometry":{"type":"Point","coordinates":[-106.2866,40.3144]},"properties":{"s":21.4,"pub":true}},{"type":"Feature","geometry":{"type":"Point","coordinates":[-106.2866,40.3202]},"properties":{"s":21.4,"pub":true}},{"type":"Feature","geometry":{"type":"Point","coordinates":[-106.2866,40.326]},"properties":{"s":21.4,"pub":true}},{"type":"Feature","geometry":{"type":"Point","coordinates":[-106.2866,40.3318]},"properties":{"s":21.4,"pub":true}},{"type":"Feature","geometry":{"type":"Point","coordinates":[-106.2866,40.3376]},"properties":{"s":21.4,"pub":true}},{"type":"Feature","geometry":{"type":"Point","coordinates":[-106.2866,40.3434]},"properties":{"s":21.4,"pub":true}},{"type":"Feature","geometry":{"type":"Point","coordinates":[-106.2866,40.3492]},"properties":{"s":21.4,"pub":true}},{"type":"Feature","geometry":{"type":"Point","coordinates":[-106.2866,40.355]},"properties":{"s":21.4,"pub":true}},{"type":"Feature","geometry":{"type":"Point","coordinates":[-106.2791,40.3086]},"properties":{"s":21.4,"pub":true}},{"type":"Feature","geometry":{"type":"Point","coordinates":[-106.2791,40.3144]},"properties":{"s":21.4,"pub":true}},{"type":"Feature","geometry":{"type":"Point","coordinates":[-106.2791,40.3202]},"properties":{"s":21.4,"pub":true}},{"type":"Feature","geometry":{"type":"Point","coordinates":[-106.2791,40.326]},"properties":{"s":21.4,"pub":true}},{"type":"Feature","geometry":{"type":"Point","coordinates":[-106.2791,40.3318]},"properties":{"s":21.4,"pub":true}},{"type":"Feature","geometry":{"type":"Point","coordinates":[-106.2791,40.3376]},"properties":{"s":21.4,"pub":true}},{"type":"Feature","geometry":{"type":"Point","coordinates":[-106.2791,40.3434]},"properties":{"s":21.4,"pub":true}},{"type":"Feature","geometry":{"type":"Point","coordinates":[-106.2791,40.3492]},"properties":{"s":21.4,"pub":true}},{"type":"Feature","geometry":{"type":"Point","coordinates":[-106.2716,40.3318]},"properties":{"s":21.4,"pub":true}},{"type":"Feature","geometry":{"type":"Point","coordinates":[-106.2716,40.3376]},"properties":{"s":21.4,"pub":true}},{"type":"Feature","geometry":{"type":"Point","coordinates":[-106.2716,40.3434]},"properties":{"s":21.4,"pub":true}},{"type":"Feature","geometry":{"type":"Point","coordinates":[-106.2716,40.3492]},"properties":{"s":21.4,"pub":true}},{"type":"Feature","geometry":{"type":"Point","coordinates":[-106.2716,40.355]},"properties":{"s":21.4,"pub":true}},{"type":"Feature","geometry":{"type":"Point","coordinates":[-106.2641,40.3434]},"properties":{"s":21.4,"pub":true}},{"type":"Feature","geometry":{"type":"Point","coordinates":[-106.2641,40.3492]},"properties":{"s":21.4,"pub":true}}]}