{"type":"FeatureCollection","features":[{"type":"Feature","geometry":{"type":"Point","coordinates":[-106.6803,40.3104]},"properties":{"s":46.2,"pub":true}},{"type":"Feature","geometry":{"type":"Point","coordinates":[-106.6803,40.3162]},"properties":{"s":46.2,"pub":true}},{"type":"Feature","geometry":{"type":"Point","coordinates":[-106.6803,40.322]},"properties":{"s":46.2,"pub":true}},{"type":"Feature","geometry":{"type":"Point","coordinates":[-106.6728,40.2988]},"properties":{"s":15.4,"pub":true}},{"type":"Feature","geometry":{"type":"Point","coordinates":[-106.6728,40.3046]},"properties":{"s":15.4,"pub":true}},{"type":"Feature","geometry":{"type":"Point","coordinates":[-106.6728,40.3104]},"properties":{"s":46.2,"pub":true}},{"type":"Feature","geometry":{"type":"Point","coordinates":[-106.6728,40.3162]},"properties":{"s":46.2,"pub":true}},{"type":"Feature","geometry":{"type":"Point","coordinates":[-106.6728,40.322]},"properties":{"s":15.4,"pub":true}},{"type":"Feature","geometry":{"type":"Point","coordinates":[-106.6653,40.3046]},"properties":{"s":15.4,"pub":true}},{"type":"Feature","geometry":{"type":"Point","coordinates":[-106.6653,40.3104]},"properties":{"s":46.2,"pub":true}},{"type":"Feature","geometry":{"type":"Point","coordinates":[-106.6653,40.3162]},"properties":{"s":46.2,"pub":true}},{"type":"Feature","geometry":{"type":"Point","coordinates":[-106.6653,40.322]},"properties":{"s":15.4,"pub":true}},{"type":"Feature","geometry":{"type":"Point","coordinates":[-106.6653,40.3278]},"properties":{"s":15.4,"pub":true}},{"type":"Feature","geometry":{"type":"Point","coordinates":[-106.6578,40.2988]},"properties":{"s":15.4,"pub":true}},{"type":"Feature","geometry":{"type":"Point","coordinates":[-106.6578,40.3046]},"properties":{"s":15.4,"pub":true}},{"type":"Feature","geometry":{"type":"Point","coordinates":[-106.6578,40.3104]},"properties":{"s":15.4,"pub":true}},{"type":"Feature","geometry":{"type":"Point","coordinates":[-106.6578,40.3162]},"properties":{"s":15.4,"pub":true}},{"type":"Feature","geometry":{"type":"Point","coordinates":[-106.6578,40.322]},"properties":{"s":15.4,"pub":true}},{"type":"Feature","geometry":{"type":"Point","coordinates":[-106.6578,40.3278]},"properties":{"s":15.4,"pub":true}},{"type":"Feature","geometry":{"type":"Point","coordinates":[-106.6578,40.3336]},"properties":{"s":15.4,"pub":true}},{"type":"Feature","geometry":{"type":"Point","coordinates":[-106.6503,40.2292]},"properties":{"s":15.4,"pub":true}},{"type":"Feature","geometry":{"type":"Point","coordinates":[-106.6503,40.293]},"properties":{"s":15.4,"pub":true}},{"type":"Feature","geometry":{"type":"Point","coordinates":[-106.6503,40.2988]},"properties":{"s":15.4,"pub":true}},{"type":"Feature","geometry":{"type":"Point","coordinates":[-106.6503,40.3046]},"properties":{"s":15.4,"pub":true}},{"type":"Feature","geometry":{"type":"Point","coordinates":[-106.6503,40.3104]},"properties":{"s":15.4,"pub":true}},{"type":"Feature","geometry":{"type":"Point","coordinates":[-106.6503,40.3162]},"properties":{"s":15.4,"pub":true}},{"type":"Feature","geometry":{"type":"Point","coordinates":[-106.6503,40.322]},"properties":{"s":15.4,"pub":true}},{"type":"Feature","geometry":{"type":"Point","coordinates":[-106.6503,40.3278]},"properties":{"s":15.4,"pub":true}},{"type":"Feature","geometry":{"type":"Point","coordinates":[-106.6503,40.3336]},"properties":{"s":15.4,"pub":true}},{"type":"Feature","geometry":{"type":"Point","coordinates":[-106.6503,40.3394]},"properties":{"s":15.4,"pub":true}},{"type":"Feature","geometry":{"type":"Point","coordinates":[-106.6503,40.3626]},"properties":{"s":15.4,"pub":true}},{"type":"Feature","geometry":{"type":"Point","coordinates":[-106.6503,40.3684]},"properties":{"s":15.4,"pub":true}},{"type":"Feature","geometry":{"type":"Point","coordinates":[-106.6428,40.2234]},"properties":{"s":15.4,"pub":true}},{"type":"Feature","geometry":{"type":"Point","coordinates":[-106.6428,40.2292]},"properties":{"s":15.4,"pub":true}},{"type":"Feature","geometry":{"type":"Point","coordinates":[-106.6428,40.293]},"properties":{"s":15.4,"pub":true}},{"type":"Feature","geometry":{"type":"Point","coordinates":[-106.6428,40.2988]},"properties":{"s":15.4,"pub":true}},{"type":"Feature","geometry":{"type":"Point","coordinates":[-106.6428,40.3046]},"properties":{"s":15.4,"pub":true}},{"type":"Feature","geometry":{"type":"Point","coordinates":[-106.6428,40.3104]},"properties":{"s":15.4,"pub":true}},{"type":"Feature","geometry":{"type":"Point","coordinates":[-106.6428,40.3162]},"properties":{"s":15.4,"pub":true}},{"type":"Feature","geometry":{"type":"Point","coordinates":[-106.6428,40.322]},"properties":{"s":15.4,"pub":true}},{"type":"Feature","geometry":{"type":"Point","coordinates":[-106.6428,40.3278]},"properties":{"s":15.4,"pub":true}},{"type":"Feature","geometry":{"type":"Point","coordinates":[-106.6428,40.3336]},"properties":{"s":15.4,"pub":true}},{"type":"Feature","geometry":{"type":"Point","coordinates":[-106.6428,40.3394]},"properties":{"s":15.4,"pub":true}},{"type":"Feature","geometry":{"type":"Point","coordinates":[-106.6428,40.3452]},"properties":{"s":15.4,"pub":true}},{"type":"Feature","geometry":{"type":"Point","coordinates":[-106.6428,40.351]},"properties":{"s":15.4,"pub":true}},{"type":"Feature","geometry":{"type":"Point","coordinates":[-106.6428,40.3568]},"properties":{"s":15.4,"pub":true}},{"type":"Feature","geometry":{"type":"Point","coordinates":[-106.6428,40.3626]},"properties":{"s":15.4,"pub":true}},{"type":"Feature","geometry":{"type":"Point","coordinates":[-106.6428,40.3684]},"properties":{"s":15.4,"pub":true}},{"type":"Feature","geometry":{"type":"Point","coordinates":[-106.6428,40.3742]},"properties":{"s":15.4,"pub":true}},{"type":"Feature","geometry":{"type":"Point","coordinates":[-106.6353,40.1828]},"properties":{"s":15.4,"pub":true}},{"type":"Feature","geometry":{"type":"Point","coordinates":[-106.6353,40.1886]},"properties":{"s":15.4,"pub":true}},{"type":"Feature","geometry":{"type":"Point","coordinates":[-106.6353,40.2118]},"properties":{"s":15.4,"pub":true}},{"type":"Feature","geometry":{"type":"Point","coordinates":[-106.6353,40.2176]},"properties":{"s":15.4,"pub":true}},{"type":"Feature","geometry":{"type":"Point","coordinates":[-106.6353,40.2234]},"properties":{"s":15.4,"pub":true}},{"type":"Feature","geometry":{"type":"Point","coordinates":[-106.6353,40.2872]},"properties":{"s":15.4,"pub":true}},{"type":"Feature","geometry":{"type":"Point","coordinates":[-106.6353,40.293]},"properties":{"s":15.4,"pub":true}},{"type":"Feature","geometry":{"type":"Point","coordinates":[-106.6353,40.2988]},"properties":{"s":15.4,"pub":true}},{"type":"Feature","geometry":{"type":"Point","coordinates":[-106.6353,40.3046]},"properties":{"s":15.4,"pub":true}},{"type":"Feature","geometry":{"type":"Point","coordinates":[-106.6353,40.3104]},"properties":{"s":15.4,"pub":true}},{"type":"Feature","geometry":{"type":"Point","coordinates":[-106.6353,40.3162]},"properties":{"s":15.4,"pub":true}},{"type":"Feature","geometry":{"type":"Point","coordinates":[-106.6353,40.322]},"properties":{"s":15.4,"pub":true}},{"type":"Feature","geometry":{"type":"Point","coordinates":[-106.6353,40.3278]},"properties":{"s":15.4,"pub":true}},{"type":"Feature","geometry":{"type":"Point","coordinates":[-106.6353,40.3336]},"properties":{"s":15.4,"pub":true}},{"type":"Feature","geometry":{"type":"Point","coordinates":[-106.6353,40.3394]},"properties":{"s":15.4,"pub":true}},{"type":"Feature","geometry":{"type":"Point","coordinates":[-106.6353,40.3452]},"properties":{"s":15.4,"pub":true}},{"type":"Feature","geometry":{"type":"Point","coordinates":[-106.6353,40.351]},"properties":{"s":15.4,"pub":true}},{"type":"Feature","geometry":{"type":"Point","coordinates":[-106.6353,40.3568]},"properties":{"s":15.4,"pub":true}},{"type":"Feature","geometry":{"type":"Point","coordinates":[-106.6353,40.3626]},"properties":{"s":15.4,"pub":true}},{"type":"Feature","geometry":{"type":"Point","coordinates":[-106.6353,40.3684]},"properties":{"s":15.4,"pub":true}},{"type":"Feature","geometry":{"type":"Point","coordinates":[-106.6353,40.3742]},"properties":{"s":15.4,"pub":true}},{"type":"Feature","geometry":{"type":"Point","coordinates":[-106.6353,40.38]},"properties":{"s":15.4,"pub":true}},{"type":"Feature","geometry":{"type":"Point","coordinates":[-106.6353,40.3858]},"properties":{"s":15.4,"pub":true}},{"type":"Feature","geometry":{"type":"Point","coordinates":[-106.6278,40.1828]},"properties":{"s":15.4,"pub":true}},{"type":"Feature","geometry":{"type":"Point","coordinates":[-106.6278,40.1886]},"properties":{"s":15.4,"pub":true}},{"type":"Feature","geometry":{"type":"Point","coordinates":[-106.6278,40.1944]},"properties":{"s":15.4,"pub":true}},{"type":"Feature","geometry":{"type":"Point","coordinates":[-106.6278,40.206]},"properties":{"s":15.4,"pub":true}},{"type":"Feature","geometry":{"type":"Point","coordinates":[-106.6278,40.2118]},"properties":{"s":15.4,"pub":true}},{"type":"Feature","geometry":{"type":"Point","coordinates":[-106.6278,40.2176]},"properties":{"s":15.4,"pub":true}},{"type":"Feature","geometry":{"type":"Point","coordinates":[-106.6278,40.2234]},"properties":{"s":15.4,"pub":true}},{"type":"Feature","geometry":{"type":"Point","coordinates":[-106.6278,40.2872]},"properties":{"s":15.4,"pub":true}},{"type":"Feature","geometry":{"type":"Point","coordinates":[-106.6278,40.293]},"properties":{"s":15.4,"pub":true}},{"type":"Feature","geometry":{"type":"Point","coordinates":[-106.6278,40.2988]},"properties":{"s":15.4,"pub":true}},{"type":"Feature","geometry":{"type":"Point","coordinates":[-106.6278,40.3046]},"properties":{"s":15.4,"pub":true}},{"type":"Feature","geometry":{"type":"Point","coordinates":[-106.6278,40.3104]},"properties":{"s":15.4,"pub":true}},{"type":"Feature","geometry":{"type":"Point","coordinates":[-106.6278,40.3162]},"properties":{"s":15.4,"pub":true}},{"type":"Feature","geometry":{"type":"Point","coordinates":[-106.6278,40.322]},"properties":{"s":15.4,"pub":true}},{"type":"Feature","geometry":{"type":"Point","coordinates":[-106.6278,40.3278]},"properties":{"s":15.4,"pub":true}},{"type":"Feature","geometry":{"type":"Point","coordinates":[-106.6278,40.3336]},"properties":{"s":15.4,"pub":true}},{"type":"Feature","geometry":{"type":"Point","coordinates":[-106.6278,40.3394]},"properties":{"s":15.4,"pub":true}},{"type":"Feature","geometry":{"type":"Point","coordinates":[-106.6278,40.3452]},"properties":{"s":15.4,"pub":true}},{"type":"Feature","geometry":{"type":"Point","coordinates":[-106.6278,40.351]},"properties":{"s":15.4,"pub":true}},{"type":"Feature","geometry":{"type":"Point","coordinates":[-106.6278,40.3568]},"properties":{"s":15.4,"pub":true}},{"type":"Feature","geometry":{"type":"Point","coordinates":[-106.6278,40.3626]},"properties":{"s":15.4,"pub":true}},{"type":"Feature","geometry":{"type":"Point","coordinates":[-106.6278,40.3684]},"properties":{"s":15.4,"pub":true}},{"type":"Feature","geometry":{"type":"Point","coordinates":[-106.6278,40.3742]},"properties":{"s":15.4,"pub":true}},{"type":"Feature","geometry":{"type":"Point","coordinates":[-106.6278,40.38]},"properties":{"s":15.4,"pub":true}},{"type":"Feature","geometry":{"type":"Point","coordinates":[-106.6278,40.3858]},"properties":{"s":15.4,"pub":true}},{"type":"Feature","geometry":{"type":"Point","coordinates":[-106.6203,40.1654]},"properties":{"s":15.4,"pub":true}},{"type":"Feature","geometry":{"type":"Point","coordinates":[-106.6203,40.1712]},"properties":{"s":15.4,"pub":true}},{"type":"Feature","geometry":{"type":"Point","coordinates":[-106.6203,40.177]},"properties":{"s":15.4,"pub":true}},{"type":"Feature","geometry":{"type":"Point","coordinates":[-106.6203,40.1828]},"properties":{"s":15.4,"pub":true}},{"type":"Feature","geometry":{"type":"Point","coordinates":[-106.6203,40.1886]},"properties":{"s":15.4,"pub":true}},{"type":"Feature","geometry":{"type":"Point","coordinates":[-106.6203,40.1944]},"properties":{"s":15.4,"pub":true}},{"type":"Feature","geometry":{"type":"Point","coordinates":[-106.6203,40.206]},"properties":{"s":15.4,"pub":true}},{"type":"Feature","geometry":{"type":"Point","coordinates":[-106.6203,40.2118]},"properties":{"s":15.4,"pub":true}},{"type":"Feature","geometry":{"type":"Point","coordinates":[-106.6203,40.2176]},"properties":{"s":15.4,"pub":true}},{"type":"Feature","geometry":{"type":"Point","coordinates":[-106.6203,40.2234]},"properties":{"s":15.4,"pub":true}},{"type":"Feature","geometry":{"type":"Point","coordinates":[-106.6203,40.2814]},"properties":{"s":15.4,"pub":true}},{"type":"Feature","geometry":{"type":"Point","coordinates":[-106.6203,40.2872]},"properties":{"s":15.4,"pub":true}},{"type":"Feature","geometry":{"type":"Point","coordinates":[-106.6203,40.293]},"properties":{"s":15.4,"pub":true}},{"type":"Feature","geometry":{"type":"Point","coordinates":[-106.6203,40.2988]},"properties":{"s":15.4,"pub":true}},{"type":"Feature","geometry":{"type":"Point","coordinates":[-106.6203,40.3046]},"properties":{"s":15.4,"pub":true}},{"type":"Feature","geometry":{"type":"Point","coordinates":[-106.6203,40.3104]},"properties":{"s":15.4,"pub":true}},{"type":"Feature","geometry":{"type":"Point","coordinates":[-106.6203,40.3162]},"properties":{"s":15.4,"pub":true}},{"type":"Feature","geometry":{"type":"Point","coordinates":[-106.6203,40.322]},"properties":{"s":15.4,"pub":true}},{"type":"Feature","geometry":{"type":"Point","coordinates":[-106.6203,40.3278]},"properties":{"s":15.4,"pub":true}},{"type":"Feature","geometry":{"type":"Point","coordinates":[-106.6203,40.3336]},"properties":{"s":15.4,"pub":true}},{"type":"Feature","geometry":{"type":"Point","coordinates":[-106.6203,40.3394]},"properties":{"s":15.4,"pub":true}},{"type":"Feature","geometry":{"type":"Point","coordinates":[-106.6203,40.3452]},"properties":{"s":15.4,"pub":true}},{"type":"Feature","geometry":{"type":"Point","coordinates":[-106.6203,40.351]},"properties":{"s":15.4,"pub":true}},{"type":"Feature","geometry":{"type":"Point","coordinates":[-106.6203,40.3568]},"properties":{"s":15.4,"pub":true}},{"type":"Feature","geometry":{"type":"Point","coordinates":[-106.6203,40.3626]},"properties":{"s":15.4,"pub":true}},{"type":"Feature","geometry":{"type":"Point","coordinates":[-106.6203,40.3684]},"properties":{"s":15.4,"pub":true}},{"type":"Feature","geometry":{"type":"Point","coordinates":[-106.6203,40.3742]},"properties":{"s":15.4,"pub":true}},{"type":"Feature","geometry":{"type":"Point","coordinates":[-106.6203,40.38]},"properties":{"s":15.4,"pub":true}},{"type":"Feature","geometry":{"type":"Point","coordinates":[-106.6203,40.3858]},"properties":{"s":15.4,"pub":true}},{"type":"Feature","geometry":{"type":"Point","coordinates":[-106.6128,40.1538]},"properties":{"s":15.4,"pub":true}},{"type":"Feature","geometry":{"type":"Point","coordinates":[-106.6128,40.1596]},"properties":{"s":15.4,"pub":true}},{"type":"Feature","geometry":{"type":"Point","coordinates":[-106.6128,40.1654]},"properties":{"s":15.4,"pub":true}},{"type":"Feature","geometry":{"type":"Point","coordinates":[-106.6128,40.1712]},"properties":{"s":15.4,"pub":true}},{"type":"Feature","geometry":{"type":"Point","coordinates":[-106.6128,40.177]},"properties":{"s":15.4,"pub":true}},{"type":"Feature","geometry":{"type":"Point","coordinates":[-106.6128,40.1828]},"properties":{"s":15.4,"pub":true}},{"type":"Feature","geometry":{"type":"Point","coordinates":[-106.6128,40.1886]},"properties":{"s":15.4,"pub":true}},{"type":"Feature","geometry":{"type":"Point","coordinates":[-106.6128,40.1944]},"properties":{"s":15.4,"pub":true}},{"type":"Feature","geometry":{"type":"Point","coordinates":[-106.6128,40.2002]},"properties":{"s":15.4,"pub":true}},{"type":"Feature","geometry":{"type":"Point","coordinates":[-106.6128,40.206]},"properties":{"s":15.4,"pub":true}},{"type":"Feature","geometry":{"type":"Point","coordinates":[-106.6128,40.2118]},"properties":{"s":15.4,"pub":true}},{"type":"Feature","geometry":{"type":"Point","coordinates":[-106.6128,40.2176]},"properties":{"s":15.4,"pub":true}},{"type":"Feature","geometry":{"type":"Point","coordinates":[-106.6128,40.2234]},"properties":{"s":15.4,"pub":true}},{"type":"Feature","geometry":{"type":"Point","coordinates":[-106.6128,40.264]},"properties":{"s":15.4,"pub":true}},{"type":"Feature","geometry":{"type":"Point","coordinates":[-106.6128,40.2698]},"properties":{"s":15.4,"pub":true}},{"type":"Feature","geometry":{"type":"Point","coordinates":[-106.6128,40.2756]},"properties":{"s":15.4,"pub":true}},{"type":"Feature","geometry":{"type":"Point","coordinates":[-106.6128,40.2814]},"properties":{"s":15.4,"pub":true}},{"type":"Feature","geometry":{"type":"Point","coordinates":[-106.6128,40.2872]},"properties":{"s":15.4,"pub":true}},{"type":"Feature","geometry":{"type":"Point","coordinates":[-106.6128,40.293]},"properties":{"s":15.4,"pub":true}},{"type":"Feature","geometry":{"type":"Point","coordinates":[-106.6128,40.2988]},"properties":{"s":46.2,"pub":true}},{"type":"Feature","geometry":{"type":"Point","coordinates":[-106.6128,40.3046]},"properties":{"s":46.2,"pub":true}},{"type":"Feature","geometry":{"type":"Point","coordinates":[-106.6128,40.3104]},"properties":{"s":46.2,"pub":true}},{"type":"Feature","geometry":{"type":"Point","coordinates":[-106.6128,40.3162]},"properties":{"s":46.2,"pub":true}},{"type":"Feature","geometry":{"type":"Point","coordinates":[-106.6128,40.322]},"properties":{"s":46.2,"pub":true}},{"type":"Feature","geometry":{"type":"Point","coordinates":[-106.6128,40.3278]},"properties":{"s":15.4,"pub":true}},{"type":"Feature","geometry":{"type":"Point","coordinates":[-106.6128,40.3336]},"properties":{"s":15.4,"pub":true}},{"type":"Feature","geometry":{"type":"Point","coordinates":[-106.6128,40.3394]},"properties":{"s":15.4,"pub":true}},{"type":"Feature","geometry":{"type":"Point","coordinates":[-106.6128,40.3452]},"properties":{"s":15.4,"pub":true}},{"type":"Feature","geometry":{"type":"Point","coordinates":[-106.6128,40.351]},"properties":{"s":15.4,"pub":true}},{"type":"Feature","geometry":{"type":"Point","coordinates":[-106.6128,40.3568]},"properties":{"s":15.4,"pub":true}},{"type":"Feature","geometry":{"type":"Point","coordinates":[-106.6128,40.3626]},"properties":{"s":15.4,"pub":true}},{"type":"Feature","geometry":{"type":"Point","coordinates":[-106.6128,40.3684]},"properties":{"s":15.4,"pub":true}},{"type":"Feature","geometry":{"type":"Point","coordinates":[-106.6128,40.3742]},"properties":{"s":15.4,"pub":true}},{"type":"Feature","geometry":{"type":"Point","coordinates":[-106.6128,40.38]},"properties":{"s":15.4,"pub":true}},{"type":"Feature","geometry":{"type":"Point","coordinates":[-106.6053,40.1538]},"properties":{"s":15.4,"pub":true}},{"type":"Feature","geometry":{"type":"Point","coordinates":[-106.6053,40.1596]},"properties":{"s":15.4,"pub":true}},{"type":"Feature","geometry":{"type":"Point","coordinates":[-106.6053,40.1654]},"properties":{"s":15.4,"pub":true}},{"type":"Feature","geometry":{"type":"Point","coordinates":[-106.6053,40.1712]},"properties":{"s":15.4,"pub":true}},{"type":"Feature","geometry":{"type":"Point","coordinates":[-106.6053,40.177]},"properties":{"s":15.4,"pub":true}},{"type":"Feature","geometry":{"type":"Point","coordinates":[-106.6053,40.1828]},"properties":{"s":15.4,"pub":true}},{"type":"Feature","geometry":{"type":"Point","coordinates":[-106.6053,40.1886]},"properties":{"s":15.4,"pub":true}},{"type":"Feature","geometry":{"type":"Point","coordinates":[-106.6053,40.1944]},"properties":{"s":15.4,"pub":true}},{"type":"Feature","geometry":{"type":"Point","coordinates":[-106.6053,40.2002]},"properties":{"s":15.4,"pub":true}},{"type":"Feature","geometry":{"type":"Point","coordinates":[-106.6053,40.206]},"properties":{"s":15.4,"pub":true}},{"type":"Feature","geometry":{"type":"Point","coordinates":[-106.6053,40.2118]},"properties":{"s":15.4,"pub":true}},{"type":"Feature","geometry":{"type":"Point","coordinates":[-106.6053,40.2176]},"properties":{"s":15.4,"pub":true}},{"type":"Feature","geometry":{"type":"Point","coordinates":[-106.6053,40.2234]},"properties":{"s":15.4,"pub":true}},{"type":"Feature","geometry":{"type":"Point","coordinates":[-106.6053,40.2292]},"properties":{"s":15.4,"pub":true}},{"type":"Feature","geometry":{"type":"Point","coordinates":[-106.6053,40.2582]},"properties":{"s":15.4,"pub":true}},{"type":"Feature","geometry":{"type":"Point","coordinates":[-106.6053,40.264]},"properties":{"s":15.4,"pub":true}},{"type":"Feature","geometry":{"type":"Point","coordinates":[-106.6053,40.2698]},"properties":{"s":15.4,"pub":true}},{"type":"Feature","geometry":{"type":"Point","coordinates":[-106.6053,40.2756]},"properties":{"s":46.2,"pub":true}},{"type":"Feature","geometry":{"type":"Point","coordinates":[-106.6053,40.2814]},"properties":{"s":46.2,"pub":true}},{"type":"Feature","geometry":{"type":"Point","coordinates":[-106.6053,40.2872]},"properties":{"s":46.2,"pub":true}},{"type":"Feature","geometry":{"type":"Point","coordinates":[-106.6053,40.293]},"properties":{"s":46.2,"pub":true}},{"type":"Feature","geometry":{"type":"Point","coordinates":[-106.6053,40.2988]},"properties":{"s":46.2,"pub":true}},{"type":"Feature","geometry":{"type":"Point","coordinates":[-106.6053,40.3046]},"properties":{"s":46.2,"pub":true}},{"type":"Feature","geometry":{"type":"Point","coordinates":[-106.6053,40.3104]},"properties":{"s":46.2,"pub":true}},{"type":"Feature","geometry":{"type":"Point","coordinates":[-106.6053,40.3162]},"properties":{"s":46.2,"pub":true}},{"type":"Feature","geometry":{"type":"Point","coordinates":[-106.6053,40.322]},"properties":{"s":15.4,"pub":true}},{"type":"Feature","geometry":{"type":"Point","coordinates":[-106.6053,40.3278]},"properties":{"s":15.4,"pub":true}},{"type":"Feature","geometry":{"type":"Point","coordinates":[-106.6053,40.3336]},"properties":{"s":15.4,"pub":true}},{"type":"Feature","geometry":{"type":"Point","coordinates":[-106.6053,40.3394]},"properties":{"s":15.4,"pub":true}},{"type":"Feature","geometry":{"type":"Point","coordinates":[-106.6053,40.3452]},"properties":{"s":15.4,"pub":true}},{"type":"Feature","geometry":{"type":"Point","coordinates":[-106.6053,40.351]},"properties":{"s":15.4,"pub":true}},{"type":"Feature","geometry":{"type":"Point","coordinates":[-106.6053,40.3568]},"properties":{"s":15.4,"pub":true}},{"type":"Feature","geometry":{"type":"Point","coordinates":[-106.6053,40.3626]},"properties":{"s":15.4,"pub":true}},{"type":"Feature","geometry":{"type":"Point","coordinates":[-106.6053,40.3684]},"properties":{"s":15.4,"pub":true}},{"type":"Feature","geometry":{"type":"Point","coordinates":[-106.6053,40.3742]},"properties":{"s":15.4,"pub":true}},{"type":"Feature","geometry":{"type":"Point","coordinates":[-106.6053,40.38]},"properties":{"s":15.4,"pub":true}},{"type":"Feature","geometry":{"type":"Point","coordinates":[-106.6053,40.3858]},"properties":{"s":15.4,"pub":true}},{"type":"Feature","geometry":{"type":"Point","coordinates":[-106.6053,40.3916]},"properties":{"s":15.4,"pub":true}},{"type":"Feature","geometry":{"type":"Point","coordinates":[-106.5978,40.1538]},"properties":{"s":15.4,"pub":true}},{"type":"Feature","geometry":{"type":"Point","coordinates":[-106.5978,40.1596]},"properties":{"s":15.4,"pub":true}},{"type":"Feature","geometry":{"type":"Point","coordinates":[-106.5978,40.1654]},"properties":{"s":15.4,"pub":true}},{"type":"Feature","geometry":{"type":"Point","coordinates":[-106.5978,40.1712]},"properties":{"s":15.4,"pub":true}},{"type":"Feature","geometry":{"type":"Point","coordinates":[-106.5978,40.177]},"properties":{"s":15.4,"pub":true}},{"type":"Feature","geometry":{"type":"Point","coordinates":[-106.5978,40.1828]},"properties":{"s":15.4,"pub":true}},{"type":"Feature","geometry":{"type":"Point","coordinates":[-106.5978,40.1886]},"properties":{"s":15.4,"pub":true}},{"type":"Feature","geometry":{"type":"Point","coordinates":[-106.5978,40.1944]},"properties":{"s":15.4,"pub":true}},{"type":"Feature","geometry":{"type":"Point","coordinates":[-106.5978,40.2002]},"properties":{"s":15.4,"pub":true}},{"type":"Feature","geometry":{"type":"Point","coordinates":[-106.5978,40.206]},"properties":{"s":15.4,"pub":true}},{"type":"Feature","geometry":{"type":"Point","coordinates":[-106.5978,40.2118]},"properties":{"s":15.4,"pub":true}},{"type":"Feature","geometry":{"type":"Point","coordinates":[-106.5978,40.2176]},"properties":{"s":15.4,"pub":true}},{"type":"Feature","geometry":{"type":"Point","coordinates":[-106.5978,40.2234]},"properties":{"s":15.4,"pub":true}},{"type":"Feature","geometry":{"type":"Point","coordinates":[-106.5978,40.2292]},"properties":{"s":15.4,"pub":true}},{"type":"Feature","geometry":{"type":"Point","coordinates":[-106.5978,40.2582]},"properties":{"s":15.4,"pub":true}},{"type":"Feature","geometry":{"type":"Point","coordinates":[-106.5978,40.264]},"properties":{"s":46.2,"pub":true}},{"type":"Feature","geometry":{"type":"Point","coordinates":[-106.5978,40.2698]},"properties":{"s":46.2,"pub":true}},{"type":"Feature","geometry":{"type":"Point","coordinates":[-106.5978,40.2756]},"properties":{"s":46.2,"pub":true}},{"type":"Feature","geometry":{"type":"Point","coordinates":[-106.5978,40.2814]},"properties":{"s":46.2,"pub":true}},{"type":"Feature","geometry":{"type":"Point","coordinates":[-106.5978,40.2872]},"properties":{"s":46.2,"pub":true}},{"type":"Feature","geometry":{"type":"Point","coordinates":[-106.5978,40.293]},"properties":{"s":46.2,"pub":true}},{"type":"Feature","geometry":{"type":"Point","coordinates":[-106.5978,40.2988]},"properties":{"s":46.2,"pub":false}},{"type":"Feature","geometry":{"type":"Point","coordinates":[-106.5978,40.3046]},"properties":{"s":46.2,"pub":false}},{"type":"Feature","geometry":{"type":"Point","coordinates":[-106.5978,40.3104]},"properties":{"s":15.4,"pub":true}},{"type":"Feature","geometry":{"type":"Point","coordinates":[-106.5978,40.3162]},"properties":{"s":15.4,"pub":true}},{"type":"Feature","geometry":{"type":"Point","coordinates":[-106.5978,40.322]},"properties":{"s":15.4,"pub":true}},{"type":"Feature","geometry":{"type":"Point","coordinates":[-106.5978,40.3278]},"properties":{"s":15.4,"pub":true}},{"type":"Feature","geometry":{"type":"Point","coordinates":[-106.5978,40.3336]},"properties":{"s":15.4,"pub":true}},{"type":"Feature","geometry":{"type":"Point","coordinates":[-106.5978,40.3394]},"properties":{"s":15.4,"pub":true}},{"type":"Feature","geometry":{"type":"Point","coordinates":[-106.5978,40.3452]},"properties":{"s":15.4,"pub":true}},{"type":"Feature","geometry":{"type":"Point","coordinates":[-106.5978,40.351]},"properties":{"s":15.4,"pub":true}},{"type":"Feature","geometry":{"type":"Point","coordinates":[-106.5978,40.3568]},"properties":{"s":15.4,"pub":true}},{"type":"Feature","geometry":{"type":"Point","coordinates":[-106.5978,40.3626]},"properties":{"s":15.4,"pub":true}},{"type":"Feature","geometry":{"type":"Point","coordinates":[-106.5978,40.3684]},"properties":{"s":15.4,"pub":true}},{"type":"Feature","geometry":{"type":"Point","coordinates":[-106.5978,40.3742]},"properties":{"s":15.4,"pub":true}},{"type":"Feature","geometry":{"type":"Point","coordinates":[-106.5978,40.38]},"properties":{"s":15.4,"pub":true}},{"type":"Feature","geometry":{"type":"Point","coordinates":[-106.5978,40.3858]},"properties":{"s":15.4,"pub":true}},{"type":"Feature","geometry":{"type":"Point","coordinates":[-106.5903,40.1538]},"properties":{"s":15.4,"pub":true}},{"type":"Feature","geometry":{"type":"Point","coordinates":[-106.5903,40.1596]},"properties":{"s":15.4,"pub":true}},{"type":"Feature","geometry":{"type":"Point","coordinates":[-106.5903,40.1654]},"properties":{"s":15.4,"pub":true}},{"type":"Feature","geometry":{"type":"Point","coordinates":[-106.5903,40.1712]},"properties":{"s":15.4,"pub":true}},{"type":"Feature","geometry":{"type":"Point","coordinates":[-106.5903,40.177]},"properties":{"s":15.4,"pub":true}},{"type":"Feature","geometry":{"type":"Point","coordinates":[-106.5903,40.1828]},"properties":{"s":15.4,"pub":true}},{"type":"Feature","geometry":{"type":"Point","coordinates":[-106.5903,40.1886]},"properties":{"s":15.4,"pub":true}},{"type":"Feature","geometry":{"type":"Point","coordinates":[-106.5903,40.1944]},"properties":{"s":15.4,"pub":true}},{"type":"Feature","geometry":{"type":"Point","coordinates":[-106.5903,40.2002]},"properties":{"s":15.4,"pub":true}},{"type":"Feature","geometry":{"type":"Point","coordinates":[-106.5903,40.206]},"properties":{"s":15.4,"pub":true}},{"type":"Feature","geometry":{"type":"Point","coordinates":[-106.5903,40.2118]},"properties":{"s":15.4,"pub":true}},{"type":"Feature","geometry":{"type":"Point","coordinates":[-106.5903,40.2176]},"properties":{"s":46.2,"pub":true}},{"type":"Feature","geometry":{"type":"Point","coordinates":[-106.5903,40.2234]},"properties":{"s":46.2,"pub":true}},{"type":"Feature","geometry":{"type":"Point","coordinates":[-106.5903,40.2292]},"properties":{"s":46.2,"pub":true}},{"type":"Feature","geometry":{"type":"Point","coordinates":[-106.5903,40.235]},"properties":{"s":15.4,"pub":true}},{"type":"Feature","geometry":{"type":"Point","coordinates":[-106.5903,40.2408]},"properties":{"s":15.4,"pub":true}},{"type":"Feature","geometry":{"type":"Point","coordinates":[-106.5903,40.2466]},"properties":{"s":15.4,"pub":true}},{"type":"Feature","geometry":{"type":"Point","coordinates":[-106.5903,40.2524]},"properties":{"s":15.4,"pub":true}},{"type":"Feature","geometry":{"type":"Point","coordinates":[-106.5903,40.2582]},"properties":{"s":15.4,"pub":true}},{"type":"Feature","geometry":{"type":"Point","coordinates":[-106.5903,40.264]},"properties":{"s":15.4,"pub":true}},{"type":"Feature","geometry":{"type":"Point","coordinates":[-106.5903,40.2698]},"properties":{"s":15.4,"pub":true}},{"type":"Feature","geometry":{"type":"Point","coordinates":[-106.5903,40.2756]},"properties":{"s":46.2,"pub":true}},{"type":"Feature","geometry":{"type":"Point","coordinates":[-106.5903,40.2814]},"properties":{"s":46.2,"pub":true}},{"type":"Feature","geometry":{"type":"Point","coordinates":[-106.5903,40.2872]},"properties":{"s":46.2,"pub":true}},{"type":"Feature","geometry":{"type":"Point","coordinates":[-106.5903,40.293]},"properties":{"s":46.2,"pub":true}},{"type":"Feature","geometry":{"type":"Point","coordinates":[-106.5903,40.2988]},"properties":{"s":46.2,"pub":true}},{"type":"Feature","geometry":{"type":"Point","coordinates":[-106.5903,40.3046]},"properties":{"s":15.4,"pub":true}},{"type":"Feature","geometry":{"type":"Point","coordinates":[-106.5903,40.3104]},"properties":{"s":15.4,"pub":true}},{"type":"Feature","geometry":{"type":"Point","coordinates":[-106.5903,40.3162]},"properties":{"s":15.4,"pub":true}},{"type":"Feature","geometry":{"type":"Point","coordinates":[-106.5903,40.322]},"properties":{"s":15.4,"pub":true}},{"type":"Feature","geometry":{"type":"Point","coordinates":[-106.5903,40.3278]},"properties":{"s":15.4,"pub":true}},{"type":"Feature","geometry":{"type":"Point","coordinates":[-106.5903,40.3336]},"properties":{"s":35.9,"pub":true}},{"type":"Feature","geometry":{"type":"Point","coordinates":[-106.5903,40.3394]},"properties":{"s":15.4,"pub":true}},{"type":"Feature","geometry":{"type":"Point","coordinates":[-106.5903,40.3452]},"properties":{"s":15.4,"pub":true}},{"type":"Feature","geometry":{"type":"Point","coordinates":[-106.5903,40.351]},"properties":{"s":15.4,"pub":true}},{"type":"Feature","geometry":{"type":"Point","coordinates":[-106.5903,40.3568]},"properties":{"s":15.4,"pub":true}},{"type":"Feature","geometry":{"type":"Point","coordinates":[-106.5903,40.3626]},"properties":{"s":15.4,"pub":true}},{"type":"Feature","geometry":{"type":"Point","coordinates":[-106.5903,40.3684]},"properties":{"s":15.4,"pub":true}},{"type":"Feature","geometry":{"type":"Point","coordinates":[-106.5903,40.3742]},"properties":{"s":15.4,"pub":true}},{"type":"Feature","geometry":{"type":"Point","coordinates":[-106.5903,40.38]},"properties":{"s":15.4,"pub":true}},{"type":"Feature","geometry":{"type":"Point","coordinates":[-106.5903,40.3858]},"properties":{"s":66.7,"pub":true}},{"type":"Feature","geometry":{"type":"Point","coordinates":[-106.5828,40.148]},"properties":{"s":15.4,"pub":true}},{"type":"Feature","geometry":{"type":"Point","coordinates":[-106.5828,40.1538]},"properties":{"s":15.4,"pub":true}},{"type":"Feature","geometry":{"type":"Point","coordinates":[-106.5828,40.1596]},"properties":{"s":15.4,"pub":true}},{"type":"Feature","geometry":{"type":"Point","coordinates":[-106.5828,40.1654]},"properties":{"s":15.4,"pub":true}},{"type":"Feature","geometry":{"type":"Point","coordinates":[-106.5828,40.1712]},"properties":{"s":15.4,"pub":true}},{"type":"Feature","geometry":{"type":"Point","coordinates":[-106.5828,40.177]},"properties":{"s":15.4,"pub":true}},{"type":"Feature","geometry":{"type":"Point","coordinates":[-106.5828,40.1828]},"properties":{"s":15.4,"pub":true}},{"type":"Feature","geometry":{"type":"Point","coordinates":[-106.5828,40.1886]},"properties":{"s":15.4,"pub":true}},{"type":"Feature","geometry":{"type":"Point","coordinates":[-106.5828,40.1944]},"properties":{"s":15.4,"pub":true}},{"type":"Feature","geometry":{"type":"Point","coordinates":[-106.5828,40.2002]},"properties":{"s":15.4,"pub":true}},{"type":"Feature","geometry":{"type":"Point","coordinates":[-106.5828,40.206]},"properties":{"s":15.4,"pub":true}},{"type":"Feature","geometry":{"type":"Point","coordinates":[-106.5828,40.2118]},"properties":{"s":46.2,"pub":true}},{"type":"Feature","geometry":{"type":"Point","coordinates":[-106.5828,40.2176]},"properties":{"s":46.2,"pub":true}},{"type":"Feature","geometry":{"type":"Point","coordinates":[-106.5828,40.2234]},"properties":{"s":46.2,"pub":true}},{"type":"Feature","geometry":{"type":"Point","coordinates":[-106.5828,40.2292]},"properties":{"s":46.2,"pub":true}},{"type":"Feature","geometry":{"type":"Point","coordinates":[-106.5828,40.235]},"properties":{"s":46.2,"pub":true}},{"type":"Feature","geometry":{"type":"Point","coordinates":[-106.5828,40.2408]},"properties":{"s":46.2,"pub":true}},{"type":"Feature","geometry":{"type":"Point","coordinates":[-106.5828,40.2466]},"properties":{"s":15.4,"pub":true}},{"type":"Feature","geometry":{"type":"Point","coordinates":[-106.5828,40.2524]},"properties":{"s":46.2,"pub":true}},{"type":"Feature","geometry":{"type":"Point","coordinates":[-106.5828,40.2582]},"properties":{"s":46.2,"pub":true}},{"type":"Feature","geometry":{"type":"Point","coordinates":[-106.5828,40.264]},"properties":{"s":66.7,"pub":true}},{"type":"Feature","geometry":{"type":"Point","coordinates":[-106.5828,40.2698]},"properties":{"s":97.4,"pub":true}},{"type":"Feature","geometry":{"type":"Point","coordinates":[-106.5828,40.2756]},"properties":{"s":97.4,"pub":true}},{"type":"Feature","geometry":{"type":"Point","coordinates":[-106.5828,40.2814]},"properties":{"s":97.4,"pub":true}},{"type":"Feature","geometry":{"type":"Point","coordinates":[-106.5828,40.2872]},"properties":{"s":46.2,"pub":true}},{"type":"Feature","geometry":{"type":"Point","coordinates":[-106.5828,40.293]},"properties":{"s":46.2,"pub":true}},{"type":"Feature","geometry":{"type":"Point","coordinates":[-106.5828,40.2988]},"properties":{"s":46.2,"pub":true}},{"type":"Feature","geometry":{"type":"Point","coordinates":[-106.5828,40.3046]},"properties":{"s":15.4,"pub":true}},{"type":"Feature","geometry":{"type":"Point","coordinates":[-106.5828,40.3104]},"properties":{"s":15.4,"pub":true}},{"type":"Feature","geometry":{"type":"Point","coordinates":[-106.5828,40.3162]},"properties":{"s":15.4,"pub":true}},{"type":"Feature","geometry":{"type":"Point","coordinates":[-106.5828,40.322]},"properties":{"s":15.4,"pub":true}},{"type":"Feature","geometry":{"type":"Point","coordinates":[-106.5828,40.3278]},"properties":{"s":15.4,"pub":true}},{"type":"Feature","geometry":{"type":"Point","coordinates":[-106.5828,40.3336]},"properties":{"s":35.9,"pub":true}},{"type":"Feature","geometry":{"type":"Point","coordinates":[-106.5828,40.3394]},"properties":{"s":15.4,"pub":true}},{"type":"Feature","geometry":{"type":"Point","coordinates":[-106.5828,40.3452]},"properties":{"s":15.4,"pub":true}},{"type":"Feature","geometry":{"type":"Point","coordinates":[-106.5828,40.351]},"properties":{"s":15.4,"pub":true}},{"type":"Feature","geometry":{"type":"Point","coordinates":[-106.5828,40.3568]},"properties":{"s":15.4,"pub":true}},{"type":"Feature","geometry":{"type":"Point","coordinates":[-106.5828,40.3626]},"properties":{"s":15.4,"pub":true}},{"type":"Feature","geometry":{"type":"Point","coordinates":[-106.5828,40.3684]},"properties":{"s":15.4,"pub":true}},{"type":"Feature","geometry":{"type":"Point","coordinates":[-106.5828,40.3742]},"properties":{"s":15.4,"pub":true}},{"type":"Feature","geometry":{"type":"Point","coordinates":[-106.5828,40.38]},"properties":{"s":15.4,"pub":true}},{"type":"Feature","geometry":{"type":"Point","coordinates":[-106.5753,40.1248]},"properties":{"s":15.4,"pub":true}},{"type":"Feature","geometry":{"type":"Point","coordinates":[-106.5753,40.1422]},"properties":{"s":15.4,"pub":true}},{"type":"Feature","geometry":{"type":"Point","coordinates":[-106.5753,40.148]},"properties":{"s":15.4,"pub":true}},{"type":"Feature","geometry":{"type":"Point","coordinates":[-106.5753,40.1538]},"properties":{"s":15.4,"pub":true}},{"type":"Feature","geometry":{"type":"Point","coordinates":[-106.5753,40.1596]},"properties":{"s":15.4,"pub":true}},{"type":"Feature","geometry":{"type":"Point","coordinates":[-106.5753,40.1654]},"properties":{"s":15.4,"pub":true}},{"type":"Feature","geometry":{"type":"Point","coordinates":[-106.5753,40.1712]},"properties":{"s":15.4,"pub":true}},{"type":"Feature","geometry":{"type":"Point","coordinates":[-106.5753,40.177]},"properties":{"s":15.4,"pub":true}},{"type":"Feature","geometry":{"type":"Point","coordinates":[-106.5753,40.1828]},"properties":{"s":15.4,"pub":true}},{"type":"Feature","geometry":{"type":"Point","coordinates":[-106.5753,40.1886]},"properties":{"s":15.4,"pub":true}},{"type":"Feature","geometry":{"type":"Point","coordinates":[-106.5753,40.1944]},"properties":{"s":15.4,"pub":true}},{"type":"Feature","geometry":{"type":"Point","coordinates":[-106.5753,40.2002]},"properties":{"s":15.4,"pub":true}},{"type":"Feature","geometry":{"type":"Point","coordinates":[-106.5753,40.206]},"properties":{"s":15.4,"pub":true}},{"type":"Feature","geometry":{"type":"Point","coordinates":[-106.5753,40.2118]},"properties":{"s":46.2,"pub":true}},{"type":"Feature","geometry":{"type":"Point","coordinates":[-106.5753,40.2176]},"properties":{"s":66.7,"pub":true}},{"type":"Feature","geometry":{"type":"Point","coordinates":[-106.5753,40.2234]},"properties":{"s":66.7,"pub":true}},{"type":"Feature","geometry":{"type":"Point","coordinates":[-106.5753,40.2292]},"properties":{"s":46.2,"pub":true}},{"type":"Feature","geometry":{"type":"Point","coordinates":[-106.5753,40.235]},"properties":{"s":46.2,"pub":true}},{"type":"Feature","geometry":{"type":"Point","coordinates":[-106.5753,40.2408]},"properties":{"s":76.9,"pub":true}},{"type":"Feature","geometry":{"type":"Point","coordinates":[-106.5753,40.2466]},"properties":{"s":76.9,"pub":true}},{"type":"Feature","geometry":{"type":"Point","coordinates":[-106.5753,40.2524]},"properties":{"s":76.9,"pub":true}},{"type":"Feature","geometry":{"type":"Point","coordinates":[-106.5753,40.2582]},"properties":{"s":76.9,"pub":true}},{"type":"Feature","geometry":{"type":"Point","coordinates":[-106.5753,40.264]},"properties":{"s":76.9,"pub":true}},{"type":"Feature","geometry":{"type":"Point","coordinates":[-106.5753,40.2698]},"properties":{"s":97.4,"pub":true}},{"type":"Feature","geometry":{"type":"Point","coordinates":[-106.5753,40.2756]},"properties":{"s":97.4,"pub":true}},{"type":"Feature","geometry":{"type":"Point","coordinates":[-106.5753,40.2814]},"properties":{"s":97.4,"pub":true}},{"type":"Feature","geometry":{"type":"Point","coordinates":[-106.5753,40.2872]},"properties":{"s":97.4,"pub":true}},{"type":"Feature","geometry":{"type":"Point","coordinates":[-106.5753,40.293]},"properties":{"s":97.4,"pub":true}},{"type":"Feature","geometry":{"type":"Point","coordinates":[-106.5753,40.2988]},"properties":{"s":46.2,"pub":true}},{"type":"Feature","geometry":{"type":"Point","coordinates":[-106.5753,40.3046]},"properties":{"s":15.4,"pub":true}},{"type":"Feature","geometry":{"type":"Point","coordinates":[-106.5753,40.3104]},"properties":{"s":15.4,"pub":true}},{"type":"Feature","geometry":{"type":"Point","coordinates":[-106.5753,40.3162]},"properties":{"s":15.4,"pub":true}},{"type":"Feature","geometry":{"type":"Point","coordinates":[-106.5753,40.322]},"properties":{"s":15.4,"pub":true}},{"type":"Feature","geometry":{"type":"Point","coordinates":[-106.5753,40.3278]},"properties":{"s":15.4,"pub":true}},{"type":"Feature","geometry":{"type":"Point","coordinates":[-106.5753,40.3336]},"properties":{"s":15.4,"pub":true}},{"type":"Feature","geometry":{"type":"Point","coordinates":[-106.5753,40.3394]},"properties":{"s":15.4,"pub":true}},{"type":"Feature","geometry":{"type":"Point","coordinates":[-106.5753,40.3452]},"properties":{"s":15.4,"pub":true}},{"type":"Feature","geometry":{"type":"Point","coordinates":[-106.5753,40.351]},"properties":{"s":15.4,"pub":true}},{"type":"Feature","geometry":{"type":"Point","coordinates":[-106.5678,40.119]},"properties":{"s":15.4,"pub":true}},{"type":"Feature","geometry":{"type":"Point","coordinates":[-106.5678,40.1248]},"properties":{"s":15.4,"pub":true}},{"type":"Feature","geometry":{"type":"Point","coordinates":[-106.5678,40.1306]},"properties":{"s":15.4,"pub":true}},{"type":"Feature","geometry":{"type":"Point","coordinates":[-106.5678,40.1364]},"properties":{"s":15.4,"pub":true}},{"type":"Feature","geometry":{"type":"Point","coordinates":[-106.5678,40.1422]},"properties":{"s":15.4,"pub":true}},{"type":"Feature","geometry":{"type":"Point","coordinates":[-106.5678,40.148]},"properties":{"s":15.4,"pub":true}},{"type":"Feature","geometry":{"type":"Point","coordinates":[-106.5678,40.1538]},"properties":{"s":15.4,"pub":true}},{"type":"Feature","geometry":{"type":"Point","coordinates":[-106.5678,40.1596]},"properties":{"s":15.4,"pub":true}},{"type":"Feature","geometry":{"type":"Point","coordinates":[-106.5678,40.1654]},"properties":{"s":15.4,"pub":true}},{"type":"Feature","geometry":{"type":"Point","coordinates":[-106.5678,40.1712]},"properties":{"s":15.4,"pub":true}},{"type":"Feature","geometry":{"type":"Point","coordinates":[-106.5678,40.177]},"properties":{"s":15.4,"pub":true}},{"type":"Feature","geometry":{"type":"Point","coordinates":[-106.5678,40.1828]},"properties":{"s":15.4,"pub":true}},{"type":"Feature","geometry":{"type":"Point","coordinates":[-106.5678,40.1886]},"properties":{"s":15.4,"pub":true}},{"type":"Feature","geometry":{"type":"Point","coordinates":[-106.5678,40.1944]},"properties":{"s":15.4,"pub":true}},{"type":"Feature","geometry":{"type":"Point","coordinates":[-106.5678,40.2002]},"properties":{"s":46.2,"pub":true}},{"type":"Feature","geometry":{"type":"Point","coordinates":[-106.5678,40.206]},"properties":{"s":66.7,"pub":true}},{"type":"Feature","geometry":{"type":"Point","coordinates":[-106.5678,40.2118]},"properties":{"s":66.7,"pub":true}},{"type":"Feature","geometry":{"type":"Point","coordinates":[-106.5678,40.2176]},"properties":{"s":66.7,"pub":true}},{"type":"Feature","geometry":{"type":"Point","coordinates":[-106.5678,40.2234]},"properties":{"s":66.7,"pub":true}},{"type":"Feature","geometry":{"type":"Point","coordinates":[-106.5678,40.2292]},"properties":{"s":76.9,"pub":true}},{"type":"Feature","geometry":{"type":"Point","coordinates":[-106.5678,40.235]},"properties":{"s":76.9,"pub":true}},{"type":"Feature","geometry":{"type":"Point","coordinates":[-106.5678,40.2408]},"properties":{"s":76.9,"pub":true}},{"type":"Feature","geometry":{"type":"Point","coordinates":[-106.5678,40.2466]},"properties":{"s":76.9,"pub":true}},{"type":"Feature","geometry":{"type":"Point","coordinates":[-106.5678,40.2524]},"properties":{"s":76.9,"pub":true}},{"type":"Feature","geometry":{"type":"Point","coordinates":[-106.5678,40.2582]},"properties":{"s":46.2,"pub":true}},{"type":"Feature","geometry":{"type":"Point","coordinates":[-106.5678,40.264]},"properties":{"s":46.2,"pub":true}},{"type":"Feature","geometry":{"type":"Point","coordinates":[-106.5678,40.2698]},"properties":{"s":46.2,"pub":true}},{"type":"Feature","geometry":{"type":"Point","coordinates":[-106.5678,40.2756]},"properties":{"s":76.9,"pub":true}},{"type":"Feature","geometry":{"type":"Point","coordinates":[-106.5678,40.2814]},"properties":{"s":76.9,"pub":true}},{"type":"Feature","geometry":{"type":"Point","coordinates":[-106.5678,40.2872]},"properties":{"s":76.9,"pub":true}},{"type":"Feature","geometry":{"type":"Point","coordinates":[-106.5678,40.293]},"properties":{"s":76.9,"pub":true}},{"type":"Feature","geometry":{"type":"Point","coordinates":[-106.5678,40.2988]},"properties":{"s":46.2,"pub":true}},{"type":"Feature","geometry":{"type":"Point","coordinates":[-106.5678,40.3046]},"properties":{"s":15.4,"pub":true}},{"type":"Feature","geometry":{"type":"Point","coordinates":[-106.5678,40.3104]},"properties":{"s":15.4,"pub":true}},{"type":"Feature","geometry":{"type":"Point","coordinates":[-106.5678,40.3162]},"properties":{"s":15.4,"pub":true}},{"type":"Feature","geometry":{"type":"Point","coordinates":[-106.5678,40.322]},"properties":{"s":15.4,"pub":true}},{"type":"Feature","geometry":{"type":"Point","coordinates":[-106.5678,40.3278]},"properties":{"s":15.4,"pub":false}},{"type":"Feature","geometry":{"type":"Point","coordinates":[-106.5678,40.3336]},"properties":{"s":15.4,"pub":true}},{"type":"Feature","geometry":{"type":"Point","coordinates":[-106.5678,40.3394]},"properties":{"s":15.4,"pub":true}},{"type":"Feature","geometry":{"type":"Point","coordinates":[-106.5678,40.3452]},"properties":{"s":15.4,"pub":true}},{"type":"Feature","geometry":{"type":"Point","coordinates":[-106.5603,40.0784]},"properties":{"s":15.4,"pub":true}},{"type":"Feature","geometry":{"type":"Point","coordinates":[-106.5603,40.0842]},"properties":{"s":15.4,"pub":true}},{"type":"Feature","geometry":{"type":"Point","coordinates":[-106.5603,40.09]},"properties":{"s":15.4,"pub":true}},{"type":"Feature","geometry":{"type":"Point","coordinates":[-106.5603,40.0958]},"properties":{"s":15.4,"pub":true}},{"type":"Feature","geometry":{"type":"Point","coordinates":[-106.5603,40.1074]},"properties":{"s":15.4,"pub":true}},{"type":"Feature","geometry":{"type":"Point","coordinates":[-106.5603,40.1132]},"properties":{"s":15.4,"pub":true}},{"type":"Feature","geometry":{"type":"Point","coordinates":[-106.5603,40.119]},"properties":{"s":15.4,"pub":true}},{"type":"Feature","geometry":{"type":"Point","coordinates":[-106.5603,40.1248]},"properties":{"s":15.4,"pub":true}},{"type":"Feature","geometry":{"type":"Point","coordinates":[-106.5603,40.1306]},"properties":{"s":15.4,"pub":true}},{"type":"Feature","geometry":{"type":"Point","coordinates":[-106.5603,40.1364]},"properties":{"s":15.4,"pub":true}},{"type":"Feature","geometry":{"type":"Point","coordinates":[-106.5603,40.1422]},"properties":{"s":15.4,"pub":true}},{"type":"Feature","geometry":{"type":"Point","coordinates":[-106.5603,40.148]},"properties":{"s":15.4,"pub":true}},{"type":"Feature","geometry":{"type":"Point","coordinates":[-106.5603,40.1538]},"properties":{"s":15.4,"pub":true}},{"type":"Feature","geometry":{"type":"Point","coordinates":[-106.5603,40.1596]},"properties":{"s":15.4,"pub":true}},{"type":"Feature","geometry":{"type":"Point","coordinates":[-106.5603,40.1654]},"properties":{"s":15.4,"pub":true}},{"type":"Feature","geometry":{"type":"Point","coordinates":[-106.5603,40.1712]},"properties":{"s":15.4,"pub":true}},{"type":"Feature","geometry":{"type":"Point","coordinates":[-106.5603,40.177]},"properties":{"s":15.4,"pub":true}},{"type":"Feature","geometry":{"type":"Point","coordinates":[-106.5603,40.1828]},"properties":{"s":15.4,"pub":true}},{"type":"Feature","geometry":{"type":"Point","coordinates":[-106.5603,40.1886]},"properties":{"s":15.4,"pub":true}},{"type":"Feature","geometry":{"type":"Point","coordinates":[-106.5603,40.1944]},"properties":{"s":15.4,"pub":true}},{"type":"Feature","geometry":{"type":"Point","coordinates":[-106.5603,40.2002]},"properties":{"s":66.7,"pub":true}},{"type":"Feature","geometry":{"type":"Point","coordinates":[-106.5603,40.206]},"properties":{"s":66.7,"pub":true}},{"type":"Feature","geometry":{"type":"Point","coordinates":[-106.5603,40.2118]},"properties":{"s":66.7,"pub":true}},{"type":"Feature","geometry":{"type":"Point","coordinates":[-106.5603,40.2176]},"properties":{"s":66.7,"pub":true}},{"type":"Feature","geometry":{"type":"Point","coordinates":[-106.5603,40.2234]},"properties":{"s":97.4,"pub":true}},{"type":"Feature","geometry":{"type":"Point","coordinates":[-106.5603,40.2292]},"properties":{"s":97.4,"pub":true}},{"type":"Feature","geometry":{"type":"Point","coordinates":[-106.5603,40.235]},"properties":{"s":76.9,"pub":true}},{"type":"Feature","geometry":{"type":"Point","coordinates":[-106.5603,40.2408]},"properties":{"s":76.9,"pub":true}},{"type":"Feature","geometry":{"type":"Point","coordinates":[-106.5603,40.2466]},"properties":{"s":46.2,"pub":true}},{"type":"Feature","geometry":{"type":"Point","coordinates":[-106.5603,40.2524]},"properties":{"s":46.2,"pub":true}},{"type":"Feature","geometry":{"type":"Point","coordinates":[-106.5603,40.2582]},"properties":{"s":46.2,"pub":true}},{"type":"Feature","geometry":{"type":"Point","coordinates":[-106.5603,40.264]},"properties":{"s":46.2,"pub":true}},{"type":"Feature","geometry":{"type":"Point","coordinates":[-106.5603,40.2698]},"properties":{"s":46.2,"pub":true}},{"type":"Feature","geometry":{"type":"Point","coordinates":[-106.5603,40.2756]},"properties":{"s":46.2,"pub":true}},{"type":"Feature","geometry":{"type":"Point","coordinates":[-106.5603,40.2814]},"properties":{"s":46.2,"pub":true}},{"type":"Feature","geometry":{"type":"Point","coordinates":[-106.5603,40.2872]},"properties":{"s":46.2,"pub":true}},{"type":"Feature","geometry":{"type":"Point","coordinates":[-106.5603,40.293]},"properties":{"s":46.2,"pub":true}},{"type":"Feature","geometry":{"type":"Point","coordinates":[-106.5603,40.2988]},"properties":{"s":46.2,"pub":true}},{"type":"Feature","geometry":{"type":"Point","coordinates":[-106.5603,40.3046]},"properties":{"s":15.4,"pub":true}},{"type":"Feature","geometry":{"type":"Point","coordinates":[-106.5603,40.3104]},"properties":{"s":15.4,"pub":true}},{"type":"Feature","geometry":{"type":"Point","coordinates":[-106.5603,40.3162]},"properties":{"s":15.4,"pub":true}},{"type":"Feature","geometry":{"type":"Point","coordinates":[-106.5528,40.0726]},"properties":{"s":15.4,"pub":true}},{"type":"Feature","geometry":{"type":"Point","coordinates":[-106.5528,40.0784]},"properties":{"s":15.4,"pub":true}},{"type":"Feature","geometry":{"type":"Point","coordinates":[-106.5528,40.0842]},"properties":{"s":15.4,"pub":true}},{"type":"Feature","geometry":{"type":"Point","coordinates":[-106.5528,40.09]},"properties":{"s":15.4,"pub":true}},{"type":"Feature","geometry":{"type":"Point","coordinates":[-106.5528,40.0958]},"properties":{"s":15.4,"pub":true}},{"type":"Feature","geometry":{"type":"Point","coordinates":[-106.5528,40.1016]},"properties":{"s":15.4,"pub":true}},{"type":"Feature","geometry":{"type":"Point","coordinates":[-106.5528,40.1074]},"properties":{"s":15.4,"pub":true}},{"type":"Feature","geometry":{"type":"Point","coordinates":[-106.5528,40.1132]},"properties":{"s":15.4,"pub":true}},{"type":"Feature","geometry":{"type":"Point","coordinates":[-106.5528,40.119]},"properties":{"s":15.4,"pub":true}},{"type":"Feature","geometry":{"type":"Point","coordinates":[-106.5528,40.1248]},"properties":{"s":15.4,"pub":true}},{"type":"Feature","geometry":{"type":"Point","coordinates":[-106.5528,40.1306]},"properties":{"s":15.4,"pub":true}},{"type":"Feature","geometry":{"type":"Point","coordinates":[-106.5528,40.1364]},"properties":{"s":15.4,"pub":true}},{"type":"Feature","geometry":{"type":"Point","coordinates":[-106.5528,40.1422]},"properties":{"s":15.4,"pub":true}},{"type":"Feature","geometry":{"type":"Point","coordinates":[-106.5528,40.148]},"properties":{"s":15.4,"pub":true}},{"type":"Feature","geometry":{"type":"Point","coordinates":[-106.5528,40.1538]},"properties":{"s":15.4,"pub":true}},{"type":"Feature","geometry":{"type":"Point","coordinates":[-106.5528,40.1596]},"properties":{"s":15.4,"pub":false}},{"type":"Feature","geometry":{"type":"Point","coordinates":[-106.5528,40.1654]},"properties":{"s":15.4,"pub":false}},{"type":"Feature","geometry":{"type":"Point","coordinates":[-106.5528,40.1712]},"properties":{"s":15.4,"pub":true}},{"type":"Feature","geometry":{"type":"Point","coordinates":[-106.5528,40.177]},"properties":{"s":15.4,"pub":true}},{"type":"Feature","geometry":{"type":"Point","coordinates":[-106.5528,40.1828]},"properties":{"s":15.4,"pub":true}},{"type":"Feature","geometry":{"type":"Point","coordinates":[-106.5528,40.1886]},"properties":{"s":15.4,"pub":true}},{"type":"Feature","geometry":{"type":"Point","coordinates":[-106.5528,40.1944]},"properties":{"s":15.4,"pub":true}},{"type":"Feature","geometry":{"type":"Point","coordinates":[-106.5528,40.2002]},"properties":{"s":66.7,"pub":true}},{"type":"Feature","geometry":{"type":"Point","coordinates":[-106.5528,40.206]},"properties":{"s":66.7,"pub":true}},{"type":"Feature","geometry":{"type":"Point","coordinates":[-106.5528,40.2118]},"properties":{"s":66.7,"pub":true}},{"type":"Feature","geometry":{"type":"Point","coordinates":[-106.5528,40.2176]},"properties":{"s":97.4,"pub":true}},{"type":"Feature","geometry":{"type":"Point","coordinates":[-106.5528,40.2234]},"properties":{"s":97.4,"pub":true}},{"type":"Feature","geometry":{"type":"Point","coordinates":[-106.5528,40.2292]},"properties":{"s":97.4,"pub":true}},{"type":"Feature","geometry":{"type":"Point","coordinates":[-106.5528,40.235]},"properties":{"s":76.9,"pub":true}},{"type":"Feature","geometry":{"type":"Point","coordinates":[-106.5528,40.2408]},"properties":{"s":46.2,"pub":true}},{"type":"Feature","geometry":{"type":"Point","coordinates":[-106.5528,40.2466]},"properties":{"s":46.2,"pub":true}},{"type":"Feature","geometry":{"type":"Point","coordinates":[-106.5528,40.2524]},"properties":{"s":46.2,"pub":true}},{"type":"Feature","geometry":{"type":"Point","coordinates":[-106.5528,40.2582]},"properties":{"s":46.2,"pub":true}},{"type":"Feature","geometry":{"type":"Point","coordinates":[-106.5528,40.264]},"properties":{"s":46.2,"pub":true}},{"type":"Feature","geometry":{"type":"Point","coordinates":[-106.5528,40.2698]},"properties":{"s":46.2,"pub":true}},{"type":"Feature","geometry":{"type":"Point","coordinates":[-106.5528,40.2756]},"properties":{"s":46.2,"pub":true}},{"type":"Feature","geometry":{"type":"Point","coordinates":[-106.5528,40.2814]},"properties":{"s":48.7,"pub":true}},{"type":"Feature","geometry":{"type":"Point","coordinates":[-106.5528,40.2872]},"properties":{"s":48.7,"pub":true}},{"type":"Feature","geometry":{"type":"Point","coordinates":[-106.5528,40.293]},"properties":{"s":48.7,"pub":true}},{"type":"Feature","geometry":{"type":"Point","coordinates":[-106.5528,40.2988]},"properties":{"s":48.7,"pub":true}},{"type":"Feature","geometry":{"type":"Point","coordinates":[-106.5453,40.0726]},"properties":{"s":15.4,"pub":true}},{"type":"Feature","geometry":{"type":"Point","coordinates":[-106.5453,40.0784]},"properties":{"s":15.4,"pub":true}},{"type":"Feature","geometry":{"type":"Point","coordinates":[-106.5453,40.0842]},"properties":{"s":15.4,"pub":true}},{"type":"Feature","geometry":{"type":"Point","coordinates":[-106.5453,40.09]},"properties":{"s":15.4,"pub":true}},{"type":"Feature","geometry":{"type":"Point","coordinates":[-106.5453,40.0958]},"properties":{"s":15.4,"pub":true}},{"type":"Feature","geometry":{"type":"Point","coordinates":[-106.5453,40.1016]},"properties":{"s":15.4,"pub":true}},{"type":"Feature","geometry":{"type":"Point","coordinates":[-106.5453,40.1074]},"properties":{"s":15.4,"pub":true}},{"type":"Feature","geometry":{"type":"Point","coordinates":[-106.5453,40.1132]},"properties":{"s":15.4,"pub":true}},{"type":"Feature","geometry":{"type":"Point","coordinates":[-106.5453,40.119]},"properties":{"s":15.4,"pub":true}},{"type":"Feature","geometry":{"type":"Point","coordinates":[-106.5453,40.1248]},"properties":{"s":15.4,"pub":true}},{"type":"Feature","geometry":{"type":"Point","coordinates":[-106.5453,40.1306]},"properties":{"s":15.4,"pub":true}},{"type":"Feature","geometry":{"type":"Point","coordinates":[-106.5453,40.1364]},"properties":{"s":15.4,"pub":true}},{"type":"Feature","geometry":{"type":"Point","coordinates":[-106.5453,40.1422]},"properties":{"s":15.4,"pub":true}},{"type":"Feature","geometry":{"type":"Point","coordinates":[-106.5453,40.148]},"properties":{"s":15.4,"pub":true}},{"type":"Feature","geometry":{"type":"Point","coordinates":[-106.5453,40.1538]},"properties":{"s":15.4,"pub":true}},{"type":"Feature","geometry":{"type":"Point","coordinates":[-106.5453,40.1596]},"properties":{"s":15.4,"pub":false}},{"type":"Feature","geometry":{"type":"Point","coordinates":[-106.5453,40.1654]},"properties":{"s":15.4,"pub":false}},{"type":"Feature","geometry":{"type":"Point","coordinates":[-106.5453,40.1712]},"properties":{"s":15.4,"pub":true}},{"type":"Feature","geometry":{"type":"Point","coordinates":[-106.5453,40.177]},"properties":{"s":15.4,"pub":true}},{"type":"Feature","geometry":{"type":"Point","coordinates":[-106.5453,40.1828]},"properties":{"s":15.4,"pub":true}},{"type":"Feature","geometry":{"type":"Point","coordinates":[-106.5453,40.1886]},"properties":{"s":15.4,"pub":true}},{"type":"Feature","geometry":{"type":"Point","coordinates":[-106.5453,40.1944]},"properties":{"s":15.4,"pub":false}},{"type":"Feature","geometry":{"type":"Point","coordinates":[-106.5453,40.2002]},"properties":{"s":15.4,"pub":true}},{"type":"Feature","geometry":{"type":"Point","coordinates":[-106.5453,40.206]},"properties":{"s":66.7,"pub":true}},{"type":"Feature","geometry":{"type":"Point","coordinates":[-106.5453,40.2118]},"properties":{"s":66.7,"pub":true}},{"type":"Feature","geometry":{"type":"Point","coordinates":[-106.5453,40.2176]},"properties":{"s":97.4,"pub":true}},{"type":"Feature","geometry":{"type":"Point","coordinates":[-106.5453,40.2234]},"properties":{"s":97.4,"pub":true}},{"type":"Feature","geometry":{"type":"Point","coordinates":[-106.5453,40.2292]},"properties":{"s":76.9,"pub":true}},{"type":"Feature","geometry":{"type":"Point","coordinates":[-106.5453,40.235]},"properties":{"s":46.2,"pub":true}},{"type":"Feature","geometry":{"type":"Point","coordinates":[-106.5453,40.2408]},"properties":{"s":46.2,"pub":true}},{"type":"Feature","geometry":{"type":"Point","coordinates":[-106.5453,40.2466]},"properties":{"s":46.2,"pub":true}},{"type":"Feature","geometry":{"type":"Point","coordinates":[-106.5453,40.2524]},"properties":{"s":48.7,"pub":true}},{"type":"Feature","geometry":{"type":"Point","coordinates":[-106.5453,40.2582]},"properties":{"s":48.7,"pub":true}},{"type":"Feature","geometry":{"type":"Point","coordinates":[-106.5453,40.264]},"properties":{"s":48.7,"pub":true}},{"type":"Feature","geometry":{"type":"Point","coordinates":[-106.5453,40.2698]},"properties":{"s":48.7,"pub":true}},{"type":"Feature","geometry":{"type":"Point","coordinates":[-106.5453,40.2756]},"properties":{"s":48.7,"pub":true}},{"type":"Feature","geometry":{"type":"Point","coordinates":[-106.5453,40.2814]},"properties":{"s":48.7,"pub":true}},{"type":"Feature","geometry":{"type":"Point","coordinates":[-106.5453,40.2872]},"properties":{"s":48.7,"pub":true}},{"type":"Feature","geometry":{"type":"Point","coordinates":[-106.5453,40.293]},"properties":{"s":33.3,"pub":true}},{"type":"Feature","geometry":{"type":"Point","coordinates":[-106.5378,40.0726]},"properties":{"s":15.4,"pub":true}},{"type":"Feature","geometry":{"type":"Point","coordinates":[-106.5378,40.0784]},"properties":{"s":15.4,"pub":true}},{"type":"Feature","geometry":{"type":"Point","coordinates":[-106.5378,40.0842]},"properties":{"s":15.4,"pub":true}},{"type":"Feature","geometry":{"type":"Point","coordinates":[-106.5378,40.09]},"properties":{"s":15.4,"pub":true}},{"type":"Feature","geometry":{"type":"Point","coordinates":[-106.5378,40.0958]},"properties":{"s":15.4,"pub":true}},{"type":"Feature","geometry":{"type":"Point","coordinates":[-106.5378,40.1016]},"properties":{"s":15.4,"pub":false}},{"type":"Feature","geometry":{"type":"Point","coordinates":[-106.5378,40.1074]},"properties":{"s":15.4,"pub":false}},{"type":"Feature","geometry":{"type":"Point","coordinates":[-106.5378,40.1132]},"properties":{"s":15.4,"pub":false}},{"type":"Feature","geometry":{"type":"Point","coordinates":[-106.5378,40.119]},"properties":{"s":15.4,"pub":false}},{"type":"Feature","geometry":{"type":"Point","coordinates":[-106.5378,40.1248]},"properties":{"s":15.4,"pub":true}},{"type":"Feature","geometry":{"type":"Point","coordinates":[-106.5378,40.1306]},"properties":{"s":15.4,"pub":true}},{"type":"Feature","geometry":{"type":"Point","coordinates":[-106.5378,40.1364]},"properties":{"s":15.4,"pub":true}},{"type":"Feature","geometry":{"type":"Point","coordinates":[-106.5378,40.1422]},"properties":{"s":15.4,"pub":true}},{"type":"Feature","geometry":{"type":"Point","coordinates":[-106.5378,40.148]},"properties":{"s":15.4,"pub":true}},{"type":"Feature","geometry":{"type":"Point","coordinates":[-106.5378,40.1538]},"properties":{"s":15.4,"pub":true}},{"type":"Feature","geometry":{"type":"Point","coordinates":[-106.5378,40.1596]},"properties":{"s":15.4,"pub":false}},{"type":"Feature","geometry":{"type":"Point","coordinates":[-106.5378,40.1654]},"properties":{"s":15.4,"pub":true}},{"type":"Feature","geometry":{"type":"Point","coordinates":[-106.5378,40.1712]},"properties":{"s":15.4,"pub":true}},{"type":"Feature","geometry":{"type":"Point","coordinates":[-106.5378,40.177]},"properties":{"s":15.4,"pub":true}},{"type":"Feature","geometry":{"type":"Point","coordinates":[-106.5378,40.1828]},"properties":{"s":15.4,"pub":false}},{"type":"Feature","geometry":{"type":"Point","coordinates":[-106.5378,40.1886]},"properties":{"s":15.4,"pub":false}},{"type":"Feature","geometry":{"type":"Point","coordinates":[-106.5378,40.1944]},"properties":{"s":15.4,"pub":false}},{"type":"Feature","geometry":{"type":"Point","coordinates":[-106.5378,40.2002]},"properties":{"s":15.4,"pub":false}},{"type":"Feature","geometry":{"type":"Point","coordinates":[-106.5378,40.206]},"properties":{"s":15.4,"pub":false}},{"type":"Feature","geometry":{"type":"Point","coordinates":[-106.5378,40.2118]},"properties":{"s":35.9,"pub":false}},{"type":"Feature","geometry":{"type":"Point","coordinates":[-106.5378,40.2176]},"properties":{"s":46.2,"pub":false}},{"type":"Feature","geometry":{"type":"Point","coordinates":[-106.5378,40.2234]},"properties":{"s":79.5,"pub":false}},{"type":"Feature","geometry":{"type":"Point","coordinates":[-106.5378,40.2292]},"properties":{"s":48.7,"pub":false}},{"type":"Feature","geometry":{"type":"Point","coordinates":[-106.5378,40.235]},"properties":{"s":48.7,"pub":false}},{"type":"Feature","geometry":{"type":"Point","coordinates":[-106.5378,40.2408]},"properties":{"s":48.7,"pub":true}},{"type":"Feature","geometry":{"type":"Point","coordinates":[-106.5378,40.2466]},"properties":{"s":48.7,"pub":true}},{"type":"Feature","geometry":{"type":"Point","coordinates":[-106.5378,40.2524]},"properties":{"s":48.7,"pub":true}},{"type":"Feature","geometry":{"type":"Point","coordinates":[-106.5378,40.2582]},"properties":{"s":48.7,"pub":true}},{"type":"Feature","geometry":{"type":"Point","coordinates":[-106.5378,40.264]},"properties":{"s":100.0,"pub":true}},{"type":"Feature","geometry":{"type":"Point","coordinates":[-106.5378,40.2698]},"properties":{"s":48.7,"pub":true}},{"type":"Feature","geometry":{"type":"Point","coordinates":[-106.5378,40.2756]},"properties":{"s":48.7,"pub":true}},{"type":"Feature","geometry":{"type":"Point","coordinates":[-106.5378,40.2814]},"properties":{"s":48.7,"pub":false}},{"type":"Feature","geometry":{"type":"Point","coordinates":[-106.5378,40.2872]},"properties":{"s":48.7,"pub":false}},{"type":"Feature","geometry":{"type":"Point","coordinates":[-106.5378,40.293]},"properties":{"s":17.9,"pub":false}},{"type":"Feature","geometry":{"type":"Point","coordinates":[-106.5303,40.061]},"properties":{"s":15.4,"pub":true}},{"type":"Feature","geometry":{"type":"Point","coordinates":[-106.5303,40.0668]},"properties":{"s":15.4,"pub":true}},{"type":"Feature","geometry":{"type":"Point","coordinates":[-106.5303,40.0726]},"properties":{"s":15.4,"pub":true}},{"type":"Feature","geometry":{"type":"Point","coordinates":[-106.5303,40.0784]},"properties":{"s":15.4,"pub":true}},{"type":"Feature","geometry":{"type":"Point","coordinates":[-106.5303,40.0842]},"properties":{"s":15.4,"pub":true}},{"type":"Feature","geometry":{"type":"Point","coordinates":[-106.5303,40.09]},"properties":{"s":15.4,"pub":true}},{"type":"Feature","geometry":{"type":"Point","coordinates":[-106.5303,40.0958]},"properties":{"s":15.4,"pub":true}},{"type":"Feature","geometry":{"type":"Point","coordinates":[-106.5303,40.1016]},"properties":{"s":15.4,"pub":false}},{"type":"Feature","geometry":{"type":"Point","coordinates":[-106.5303,40.1074]},"properties":{"s":15.4,"pub":false}},{"type":"Feature","geometry":{"type":"Point","coordinates":[-106.5303,40.1132]},"properties":{"s":15.4,"pub":false}},{"type":"Feature","geometry":{"type":"Point","coordinates":[-106.5303,40.119]},"properties":{"s":15.4,"pub":false}},{"type":"Feature","geometry":{"type":"Point","coordinates":[-106.5303,40.1306]},"properties":{"s":15.4,"pub":false}},{"type":"Feature","geometry":{"type":"Point","coordinates":[-106.5303,40.1364]},"properties":{"s":15.4,"pub":false}},{"type":"Feature","geometry":{"type":"Point","coordinates":[-106.5303,40.1422]},"properties":{"s":15.4,"pub":true}},{"type":"Feature","geometry":{"type":"Point","coordinates":[-106.5303,40.148]},"properties":{"s":15.4,"pub":false}},{"type":"Feature","geometry":{"type":"Point","coordinates":[-106.5303,40.1596]},"properties":{"s":15.4,"pub":false}},{"type":"Feature","geometry":{"type":"Point","coordinates":[-106.5303,40.1654]},"properties":{"s":15.4,"pub":true}},{"type":"Feature","geometry":{"type":"Point","coordinates":[-106.5303,40.1712]},"properties":{"s":15.4,"pub":true}},{"type":"Feature","geometry":{"type":"Point","coordinates":[-106.5303,40.177]},"properties":{"s":15.4,"pub":true}},{"type":"Feature","geometry":{"type":"Point","coordinates":[-106.5303,40.1828]},"properties":{"s":15.4,"pub":false}},{"type":"Feature","geometry":{"type":"Point","coordinates":[-106.5303,40.1886]},"properties":{"s":15.4,"pub":false}},{"type":"Feature","geometry":{"type":"Point","coordinates":[-106.5303,40.1944]},"properties":{"s":15.4,"pub":false}},{"type":"Feature","geometry":{"type":"Point","coordinates":[-106.5303,40.2002]},"properties":{"s":15.4,"pub":false}},{"type":"Feature","geometry":{"type":"Point","coordinates":[-106.5303,40.206]},"properties":{"s":17.9,"pub":false}},{"type":"Feature","geometry":{"type":"Point","coordinates":[-106.5303,40.2118]},"properties":{"s":17.9,"pub":false}},{"type":"Feature","geometry":{"type":"Point","coordinates":[-106.5303,40.2176]},"properties":{"s":48.7,"pub":false}},{"type":"Feature","geometry":{"type":"Point","coordinates":[-106.5303,40.2234]},"properties":{"s":48.7,"pub":false}},{"type":"Feature","geometry":{"type":"Point","coordinates":[-106.5303,40.2292]},"properties":{"s":48.7,"pub":false}},{"type":"Feature","geometry":{"type":"Point","coordinates":[-106.5303,40.235]},"properties":{"s":48.7,"pub":false}},{"type":"Feature","geometry":{"type":"Point","coordinates":[-106.5303,40.2408]},"properties":{"s":48.7,"pub":true}},{"type":"Feature","geometry":{"type":"Point","coordinates":[-106.5303,40.2466]},"properties":{"s":48.7,"pub":true}},{"type":"Feature","geometry":{"type":"Point","coordinates":[-106.5303,40.2524]},"properties":{"s":48.7,"pub":true}},{"type":"Feature","geometry":{"type":"Point","coordinates":[-106.5303,40.2582]},"properties":{"s":48.7,"pub":true}},{"type":"Feature","geometry":{"type":"Point","coordinates":[-106.5303,40.264]},"properties":{"s":100.0,"pub":true}},{"type":"Feature","geometry":{"type":"Point","coordinates":[-106.5303,40.2698]},"properties":{"s":69.2,"pub":true}},{"type":"Feature","geometry":{"type":"Point","coordinates":[-106.5303,40.2756]},"properties":{"s":17.9,"pub":true}},{"type":"Feature","geometry":{"type":"Point","coordinates":[-106.5303,40.2814]},"properties":{"s":17.9,"pub":false}},{"type":"Feature","geometry":{"type":"Point","coordinates":[-106.5303,40.2872]},"properties":{"s":17.9,"pub":true}},{"type":"Feature","geometry":{"type":"Point","coordinates":[-106.5303,40.293]},"properties":{"s":17.9,"pub":true}},{"type":"Feature","geometry":{"type":"Point","coordinates":[-106.5303,40.2988]},"properties":{"s":17.9,"pub":false}},{"type":"Feature","geometry":{"type":"Point","coordinates":[-106.5228,40.0552]},"properties":{"s":15.4,"pub":false}},{"type":"Feature","geometry":{"type":"Point","coordinates":[-106.5228,40.061]},"properties":{"s":15.4,"pub":false}},{"type":"Feature","geometry":{"type":"Point","coordinates":[-106.5228,40.0668]},"properties":{"s":15.4,"pub":false}},{"type":"Feature","geometry":{"type":"Point","coordinates":[-106.5228,40.0726]},"properties":{"s":15.4,"pub":true}},{"type":"Feature","geometry":{"type":"Point","coordinates":[-106.5228,40.0784]},"properties":{"s":15.4,"pub":true}},{"type":"Feature","geometry":{"type":"Point","coordinates":[-106.5228,40.0842]},"properties":{"s":15.4,"pub":true}},{"type":"Feature","geometry":{"type":"Point","coordinates":[-106.5228,40.09]},"properties":{"s":15.4,"pub":true}},{"type":"Feature","geometry":{"type":"Point","coordinates":[-106.5228,40.0958]},"properties":{"s":15.4,"pub":true}},{"type":"Feature","geometry":{"type":"Point","coordinates":[-106.5228,40.1016]},"properties":{"s":15.4,"pub":false}},{"type":"Feature","geometry":{"type":"Point","coordinates":[-106.5228,40.1712]},"properties":{"s":15.4,"pub":true}},{"type":"Feature","geometry":{"type":"Point","coordinates":[-106.5228,40.177]},"properties":{"s":15.4,"pub":true}},{"type":"Feature","geometry":{"type":"Point","coordinates":[-106.5228,40.1828]},"properties":{"s":15.4,"pub":false}},{"type":"Feature","geometry":{"type":"Point","coordinates":[-106.5228,40.1886]},"properties":{"s":15.4,"pub":false}},{"type":"Feature","geometry":{"type":"Point","coordinates":[-106.5228,40.1944]},"properties":{"s":17.9,"pub":false}},{"type":"Feature","geometry":{"type":"Point","coordinates":[-106.5228,40.2002]},"properties":{"s":17.9,"pub":false}},{"type":"Feature","geometry":{"type":"Point","coordinates":[-106.5228,40.206]},"properties":{"s":17.9,"pub":false}},{"type":"Feature","geometry":{"type":"Point","coordinates":[-106.5228,40.2118]},"properties":{"s":17.9,"pub":false}},{"type":"Feature","geometry":{"type":"Point","coordinates":[-106.5228,40.2176]},"properties":{"s":48.7,"pub":false}},{"type":"Feature","geometry":{"type":"Point","coordinates":[-106.5228,40.2234]},"properties":{"s":48.7,"pub":false}},{"type":"Feature","geometry":{"type":"Point","coordinates":[-106.5228,40.2292]},"properties":{"s":48.7,"pub":false}},{"type":"Feature","geometry":{"type":"Point","coordinates":[-106.5228,40.235]},"properties":{"s":48.7,"pub":false}},{"type":"Feature","geometry":{"type":"Point","coordinates":[-106.5228,40.2408]},"properties":{"s":48.7,"pub":false}},{"type":"Feature","geometry":{"type":"Point","coordinates":[-106.5228,40.2466]},"properties":{"s":48.7,"pub":true}},{"type":"Feature","geometry":{"type":"Point","coordinates":[-106.5228,40.2524]},"properties":{"s":48.7,"pub":true}},{"type":"Feature","geometry":{"type":"Point","coordinates":[-106.5228,40.2582]},"properties":{"s":48.7,"pub":true}},{"type":"Feature","geometry":{"type":"Point","coordinates":[-106.5228,40.264]},"properties":{"s":48.7,"pub":true}},{"type":"Feature","geometry":{"type":"Point","coordinates":[-106.5228,40.2698]},"properties":{"s":38.5,"pub":true}},{"type":"Feature","geometry":{"type":"Point","coordinates":[-106.5228,40.2756]},"properties":{"s":38.5,"pub":true}},{"type":"Feature","geometry":{"type":"Point","coordinates":[-106.5228,40.2814]},"properties":{"s":38.5,"pub":true}},{"type":"Feature","geometry":{"type":"Point","coordinates":[-106.5228,40.2872]},"properties":{"s":38.5,"pub":true}},{"type":"Feature","geometry":{"type":"Point","coordinates":[-106.5228,40.293]},"properties":{"s":17.9,"pub":true}},{"type":"Feature","geometry":{"type":"Point","coordinates":[-106.5228,40.2988]},"properties":{"s":17.9,"pub":false}},{"type":"Feature","geometry":{"type":"Point","coordinates":[-106.5153,40.0552]},"properties":{"s":15.4,"pub":false}},{"type":"Feature","geometry":{"type":"Point","coordinates":[-106.5153,40.061]},"properties":{"s":15.4,"pub":false}},{"type":"Feature","geometry":{"type":"Point","coordinates":[-106.5153,40.0668]},"properties":{"s":15.4,"pub":false}},{"type":"Feature","geometry":{"type":"Point","coordinates":[-106.5153,40.0726]},"properties":{"s":15.4,"pub":false}},{"type":"Feature","geometry":{"type":"Point","coordinates":[-106.5153,40.0784]},"properties":{"s":15.4,"pub":false}},{"type":"Feature","geometry":{"type":"Point","coordinates":[-106.5153,40.0842]},"properties":{"s":15.4,"pub":false}},{"type":"Feature","geometry":{"type":"Point","coordinates":[-106.5153,40.09]},"properties":{"s":15.4,"pub":true}},{"type":"Feature","geometry":{"type":"Point","coordinates":[-106.5153,40.0958]},"properties":{"s":15.4,"pub":true}},{"type":"Feature","geometry":{"type":"Point","coordinates":[-106.5153,40.1016]},"properties":{"s":15.4,"pub":true}},{"type":"Feature","geometry":{"type":"Point","coordinates":[-106.5153,40.177]},"properties":{"s":17.9,"pub":false}},{"type":"Feature","geometry":{"type":"Point","coordinates":[-106.5153,40.1828]},"properties":{"s":17.9,"pub":false}},{"type":"Feature","geometry":{"type":"Point","coordinates":[-106.5153,40.1886]},"properties":{"s":17.9,"pub":false}},{"type":"Feature","geometry":{"type":"Point","coordinates":[-106.5153,40.1944]},"properties":{"s":17.9,"pub":false}},{"type":"Feature","geometry":{"type":"Point","coordinates":[-106.5153,40.2002]},"properties":{"s":17.9,"pub":false}},{"type":"Feature","geometry":{"type":"Point","coordinates":[-106.5153,40.206]},"properties":{"s":17.9,"pub":false}},{"type":"Feature","geometry":{"type":"Point","coordinates":[-106.5153,40.2118]},"properties":{"s":17.9,"pub":false}},{"type":"Feature","geometry":{"type":"Point","coordinates":[-106.5153,40.2176]},"properties":{"s":17.9,"pub":false}},{"type":"Feature","geometry":{"type":"Point","coordinates":[-106.5153,40.2234]},"properties":{"s":48.7,"pub":false}},{"type":"Feature","geometry":{"type":"Point","coordinates":[-106.5153,40.2292]},"properties":{"s":48.7,"pub":false}},{"type":"Feature","geometry":{"type":"Point","coordinates":[-106.5153,40.235]},"properties":{"s":48.7,"pub":false}},{"type":"Feature","geometry":{"type":"Point","coordinates":[-106.5153,40.2408]},"properties":{"s":48.7,"pub":true}},{"type":"Feature","geometry":{"type":"Point","coordinates":[-106.5153,40.2466]},"properties":{"s":48.7,"pub":true}},{"type":"Feature","geometry":{"type":"Point","coordinates":[-106.5153,40.2524]},"properties":{"s":48.7,"pub":true}},{"type":"Feature","geometry":{"type":"Point","coordinates":[-106.5153,40.2582]},"properties":{"s":17.9,"pub":true}},{"type":"Feature","geometry":{"type":"Point","coordinates":[-106.5153,40.264]},"properties":{"s":48.7,"pub":true}},{"type":"Feature","geometry":{"type":"Point","coordinates":[-106.5153,40.2698]},"properties":{"s":69.2,"pub":true}},{"type":"Feature","geometry":{"type":"Point","coordinates":[-106.5153,40.2756]},"properties":{"s":38.5,"pub":true}},{"type":"Feature","geometry":{"type":"Point","coordinates":[-106.5153,40.2814]},"properties":{"s":38.5,"pub":true}},{"type":"Feature","geometry":{"type":"Point","coordinates":[-106.5153,40.2872]},"properties":{"s":69.2,"pub":true}},{"type":"Feature","geometry":{"type":"Point","coordinates":[-106.5153,40.293]},"properties":{"s":69.2,"pub":true}},{"type":"Feature","geometry":{"type":"Point","coordinates":[-106.5153,40.2988]},"properties":{"s":17.9,"pub":true}},{"type":"Feature","geometry":{"type":"Point","coordinates":[-106.5078,40.032]},"properties":{"s":15.4,"pub":true}},{"type":"Feature","geometry":{"type":"Point","coordinates":[-106.5078,40.0378]},"properties":{"s":15.4,"pub":true}},{"type":"Feature","geometry":{"type":"Point","coordinates":[-106.5078,40.0436]},"properties":{"s":15.4,"pub":true}},{"type":"Feature","geometry":{"type":"Point","coordinates":[-106.5078,40.0494]},"properties":{"s":15.4,"pub":true}},{"type":"Feature","geometry":{"type":"Point","coordinates":[-106.5078,40.0552]},"properties":{"s":15.4,"pub":false}},{"type":"Feature","geometry":{"type":"Point","coordinates":[-106.5078,40.061]},"properties":{"s":15.4,"pub":false}},{"type":"Feature","geometry":{"type":"Point","coordinates":[-106.5078,40.0668]},"properties":{"s":15.4,"pub":false}},{"type":"Feature","geometry":{"type":"Point","coordinates":[-106.5078,40.0726]},"properties":{"s":15.4,"pub":false}},{"type":"Feature","geometry":{"type":"Point","coordinates":[-106.5078,40.0784]},"properties":{"s":15.4,"pub":false}},{"type":"Feature","geometry":{"type":"Point","coordinates":[-106.5078,40.0842]},"properties":{"s":15.4,"pub":false}},{"type":"Feature","geometry":{"type":"Point","coordinates":[-106.5078,40.09]},"properties":{"s":15.4,"pub":true}},{"type":"Feature","geometry":{"type":"Point","coordinates":[-106.5078,40.0958]},"properties":{"s":15.4,"pub":true}},{"type":"Feature","geometry":{"type":"Point","coordinates":[-106.5078,40.1016]},"properties":{"s":15.4,"pub":true}},{"type":"Feature","geometry":{"type":"Point","coordinates":[-106.5078,40.1828]},"properties":{"s":17.9,"pub":false}},{"type":"Feature","geometry":{"type":"Point","coordinates":[-106.5078,40.1886]},"properties":{"s":17.9,"pub":false}},{"type":"Feature","geometry":{"type":"Point","coordinates":[-106.5078,40.1944]},"properties":{"s":17.9,"pub":false}},{"type":"Feature","geometry":{"type":"Point","coordinates":[-106.5078,40.2002]},"properties":{"s":17.9,"pub":false}},{"type":"Feature","geometry":{"type":"Point","coordinates":[-106.5078,40.206]},"properties":{"s":17.9,"pub":false}},{"type":"Feature","geometry":{"type":"Point","coordinates":[-106.5078,40.2118]},"properties":{"s":17.9,"pub":false}},{"type":"Feature","geometry":{"type":"Point","coordinates":[-106.5078,40.2176]},"properties":{"s":17.9,"pub":false}},{"type":"Feature","geometry":{"type":"Point","coordinates":[-106.5078,40.2234]},"properties":{"s":48.7,"pub":false}},{"type":"Feature","geometry":{"type":"Point","coordinates":[-106.5078,40.2292]},"properties":{"s":48.7,"pub":false}},{"type":"Feature","geometry":{"type":"Point","coordinates":[-106.5078,40.235]},"properties":{"s":48.7,"pub":false}},{"type":"Feature","geometry":{"type":"Point","coordinates":[-106.5078,40.2408]},"properties":{"s":17.9,"pub":true}},{"type":"Feature","geometry":{"type":"Point","coordinates":[-106.5078,40.2466]},"properties":{"s":17.9,"pub":true}},{"type":"Feature","geometry":{"type":"Point","coordinates":[-106.5078,40.2524]},"properties":{"s":17.9,"pub":true}},{"type":"Feature","geometry":{"type":"Point","coordinates":[-106.5078,40.2582]},"properties":{"s":17.9,"pub":true}},{"type":"Feature","geometry":{"type":"Point","coordinates":[-106.5078,40.264]},"properties":{"s":48.7,"pub":true}},{"type":"Feature","geometry":{"type":"Point","coordinates":[-106.5078,40.2698]},"properties":{"s":69.2,"pub":true}},{"type":"Feature","geometry":{"type":"Point","coordinates":[-106.5078,40.2756]},"properties":{"s":69.2,"pub":true}},{"type":"Feature","geometry":{"type":"Point","coordinates":[-106.5078,40.2814]},"properties":{"s":69.2,"pub":true}},{"type":"Feature","geometry":{"type":"Point","coordinates":[-106.5078,40.2872]},"properties":{"s":69.2,"pub":true}},{"type":"Feature","geometry":{"type":"Point","coordinates":[-106.5078,40.293]},"properties":{"s":38.5,"pub":true}},{"type":"Feature","geometry":{"type":"Point","coordinates":[-106.5078,40.2988]},"properties":{"s":17.9,"pub":true}},{"type":"Feature","geometry":{"type":"Point","coordinates":[-106.5003,40.0146]},"properties":{"s":15.4,"pub":false}},{"type":"Feature","geometry":{"type":"Point","coordinates":[-106.5003,40.0204]},"properties":{"s":15.4,"pub":false}},{"type":"Feature","geometry":{"type":"Point","coordinates":[-106.5003,40.0262]},"properties":{"s":15.4,"pub":false}},{"type":"Feature","geometry":{"type":"Point","coordinates":[-106.5003,40.032]},"properties":{"s":15.4,"pub":true}},{"type":"Feature","geometry":{"type":"Point","coordinates":[-106.5003,40.0378]},"properties":{"s":15.4,"pub":true}},{"type":"Feature","geometry":{"type":"Point","coordinates":[-106.5003,40.0436]},"properties":{"s":15.4,"pub":true}},{"type":"Feature","geometry":{"type":"Point","coordinates":[-106.5003,40.0494]},"properties":{"s":15.4,"pub":true}},{"type":"Feature","geometry":{"type":"Point","coordinates":[-106.5003,40.0552]},"properties":{"s":15.4,"pub":false}},{"type":"Feature","geometry":{"type":"Point","coordinates":[-106.5003,40.061]},"properties":{"s":15.4,"pub":false}},{"type":"Feature","geometry":{"type":"Point","coordinates":[-106.5003,40.0668]},"properties":{"s":15.4,"pub":false}},{"type":"Feature","geometry":{"type":"Point","coordinates":[-106.5003,40.0726]},"properties":{"s":15.4,"pub":false}},{"type":"Feature","geometry":{"type":"Point","coordinates":[-106.5003,40.0784]},"properties":{"s":15.4,"pub":false}},{"type":"Feature","geometry":{"type":"Point","coordinates":[-106.5003,40.0842]},"properties":{"s":15.4,"pub":false}},{"type":"Feature","geometry":{"type":"Point","coordinates":[-106.5003,40.09]},"properties":{"s":15.4,"pub":false}},{"type":"Feature","geometry":{"type":"Point","coordinates":[-106.5003,40.0958]},"properties":{"s":15.4,"pub":false}},{"type":"Feature","geometry":{"type":"Point","coordinates":[-106.5003,40.1016]},"properties":{"s":15.4,"pub":true}},{"type":"Feature","geometry":{"type":"Point","coordinates":[-106.5003,40.1074]},"properties":{"s":15.4,"pub":false}},{"type":"Feature","geometry":{"type":"Point","coordinates":[-106.5003,40.1886]},"properties":{"s":17.9,"pub":false}},{"type":"Feature","geometry":{"type":"Point","coordinates":[-106.5003,40.1944]},"properties":{"s":17.9,"pub":false}},{"type":"Feature","geometry":{"type":"Point","coordinates":[-106.5003,40.2002]},"properties":{"s":17.9,"pub":false}},{"type":"Feature","geometry":{"type":"Point","coordinates":[-106.5003,40.206]},"properties":{"s":17.9,"pub":false}},{"type":"Feature","geometry":{"type":"Point","coordinates":[-106.5003,40.2118]},"properties":{"s":17.9,"pub":false}},{"type":"Feature","geometry":{"type":"Point","coordinates":[-106.5003,40.2176]},"properties":{"s":17.9,"pub":false}},{"type":"Feature","geometry":{"type":"Point","coordinates":[-106.5003,40.2234]},"properties":{"s":17.9,"pub":false}},{"type":"Feature","geometry":{"type":"Point","coordinates":[-106.5003,40.2292]},"properties":{"s":17.9,"pub":false}},{"type":"Feature","geometry":{"type":"Point","coordinates":[-106.5003,40.235]},"properties":{"s":17.9,"pub":false}},{"type":"Feature","geometry":{"type":"Point","coordinates":[-106.5003,40.2408]},"properties":{"s":17.9,"pub":false}},{"type":"Feature","geometry":{"type":"Point","coordinates":[-106.5003,40.2466]},"properties":{"s":17.9,"pub":false}},{"type":"Feature","geometry":{"type":"Point","coordinates":[-106.5003,40.2524]},"properties":{"s":17.9,"pub":true}},{"type":"Feature","geometry":{"type":"Point","coordinates":[-106.5003,40.2582]},"properties":{"s":17.9,"pub":true}},{"type":"Feature","geometry":{"type":"Point","coordinates":[-106.5003,40.264]},"properties":{"s":48.7,"pub":true}},{"type":"Feature","geometry":{"type":"Point","coordinates":[-106.5003,40.2698]},"properties":{"s":69.2,"pub":true}},{"type":"Feature","geometry":{"type":"Point","coordinates":[-106.5003,40.2756]},"properties":{"s":69.2,"pub":true}},{"type":"Feature","geometry":{"type":"Point","coordinates":[-106.5003,40.2814]},"properties":{"s":69.2,"pub":true}},{"type":"Feature","geometry":{"type":"Point","coordinates":[-106.5003,40.2872]},"properties":{"s":38.5,"pub":true}},{"type":"Feature","geometry":{"type":"Point","coordinates":[-106.5003,40.293]},"properties":{"s":17.9,"pub":true}},{"type":"Feature","geometry":{"type":"Point","coordinates":[-106.4928,40.0088]},"properties":{"s":15.4,"pub":true}},{"type":"Feature","geometry":{"type":"Point","coordinates":[-106.4928,40.0146]},"properties":{"s":15.4,"pub":true}},{"type":"Feature","geometry":{"type":"Point","coordinates":[-106.4928,40.0204]},"properties":{"s":15.4,"pub":false}},{"type":"Feature","geometry":{"type":"Point","coordinates":[-106.4928,40.0262]},"properties":{"s":15.4,"pub":false}},{"type":"Feature","geometry":{"type":"Point","coordinates":[-106.4928,40.032]},"properties":{"s":15.4,"pub":false}},{"type":"Feature","geometry":{"type":"Point","coordinates":[-106.4928,40.0378]},"properties":{"s":15.4,"pub":false}},{"type":"Feature","geometry":{"type":"Point","coordinates":[-106.4928,40.0436]},"properties":{"s":15.4,"pub":false}},{"type":"Feature","geometry":{"type":"Point","coordinates":[-106.4928,40.0494]},"properties":{"s":15.4,"pub":false}},{"type":"Feature","geometry":{"type":"Point","coordinates":[-106.4928,40.0552]},"properties":{"s":15.4,"pub":false}},{"type":"Feature","geometry":{"type":"Point","coordinates":[-106.4928,40.061]},"properties":{"s":15.4,"pub":false}},{"type":"Feature","geometry":{"type":"Point","coordinates":[-106.4928,40.0668]},"properties":{"s":35.9,"pub":false}},{"type":"Feature","geometry":{"type":"Point","coordinates":[-106.4928,40.0726]},"properties":{"s":15.4,"pub":false}},{"type":"Feature","geometry":{"type":"Point","coordinates":[-106.4928,40.0784]},"properties":{"s":15.4,"pub":false}},{"type":"Feature","geometry":{"type":"Point","coordinates":[-106.4928,40.0842]},"properties":{"s":15.4,"pub":false}},{"type":"Feature","geometry":{"type":"Point","coordinates":[-106.4928,40.09]},"properties":{"s":15.4,"pub":false}},{"type":"Feature","geometry":{"type":"Point","coordinates":[-106.4928,40.0958]},"properties":{"s":15.4,"pub":false}},{"type":"Feature","geometry":{"type":"Point","coordinates":[-106.4928,40.1016]},"properties":{"s":15.4,"pub":false}},{"type":"Feature","geometry":{"type":"Point","coordinates":[-106.4928,40.1074]},"properties":{"s":15.4,"pub":false}},{"type":"Feature","geometry":{"type":"Point","coordinates":[-106.4928,40.2176]},"properties":{"s":17.9,"pub":false}},{"type":"Feature","geometry":{"type":"Point","coordinates":[-106.4928,40.2234]},"properties":{"s":17.9,"pub":false}},{"type":"Feature","geometry":{"type":"Point","coordinates":[-106.4928,40.2292]},"properties":{"s":17.9,"pub":false}},{"type":"Feature","geometry":{"type":"Point","coordinates":[-106.4928,40.235]},"properties":{"s":17.9,"pub":false}},{"type":"Feature","geometry":{"type":"Point","coordinates":[-106.4928,40.2408]},"properties":{"s":17.9,"pub":false}},{"type":"Feature","geometry":{"type":"Point","coordinates":[-106.4928,40.2466]},"properties":{"s":17.9,"pub":false}},{"type":"Feature","geometry":{"type":"Point","coordinates":[-106.4928,40.2524]},"properties":{"s":17.9,"pub":false}},{"type":"Feature","geometry":{"type":"Point","coordinates":[-106.4928,40.2582]},"properties":{"s":17.9,"pub":true}},{"type":"Feature","geometry":{"type":"Point","coordinates":[-106.4928,40.264]},"properties":{"s":17.9,"pub":true}},{"type":"Feature","geometry":{"type":"Point","coordinates":[-106.4928,40.2698]},"properties":{"s":69.2,"pub":true}},{"type":"Feature","geometry":{"type":"Point","coordinates":[-106.4928,40.2756]},"properties":{"s":69.2,"pub":true}},{"type":"Feature","geometry":{"type":"Point","coordinates":[-106.4928,40.2814]},"properties":{"s":17.9,"pub":true}},{"type":"Feature","geometry":{"type":"Point","coordinates":[-106.4928,40.2872]},"properties":{"s":17.9,"pub":true}},{"type":"Feature","geometry":{"type":"Point","coordinates":[-106.4853,40.0146]},"properties":{"s":15.4,"pub":true}},{"type":"Feature","geometry":{"type":"Point","coordinates":[-106.4853,40.0204]},"properties":{"s":15.4,"pub":false}},{"type":"Feature","geometry":{"type":"Point","coordinates":[-106.4853,40.0262]},"properties":{"s":15.4,"pub":false}},{"type":"Feature","geometry":{"type":"Point","coordinates":[-106.4853,40.032]},"properties":{"s":15.4,"pub":false}},{"type":"Feature","geometry":{"type":"Point","coordinates":[-106.4853,40.0378]},"properties":{"s":15.4,"pub":false}},{"type":"Feature","geometry":{"type":"Point","coordinates":[-106.4853,40.0436]},"properties":{"s":15.4,"pub":false}},{"type":"Feature","geometry":{"type":"Point","coordinates":[-106.4853,40.0494]},"properties":{"s":15.4,"pub":false}},{"type":"Feature","geometry":{"type":"Point","coordinates":[-106.4853,40.0552]},"properties":{"s":15.4,"pub":false}},{"type":"Feature","geometry":{"type":"Point","coordinates":[-106.4853,40.061]},"properties":{"s":38.5,"pub":false}},{"type":"Feature","geometry":{"type":"Point","coordinates":[-106.4853,40.0668]},"properties":{"s":17.9,"pub":false}},{"type":"Feature","geometry":{"type":"Point","coordinates":[-106.4853,40.0726]},"properties":{"s":17.9,"pub":false}},{"type":"Feature","geometry":{"type":"Point","coordinates":[-106.4853,40.0784]},"properties":{"s":15.4,"pub":false}},{"type":"Feature","geometry":{"type":"Point","coordinates":[-106.4853,40.0842]},"properties":{"s":15.4,"pub":false}},{"type":"Feature","geometry":{"type":"Point","coordinates":[-106.4853,40.09]},"properties":{"s":15.4,"pub":false}},{"type":"Feature","geometry":{"type":"Point","coordinates":[-106.4853,40.0958]},"properties":{"s":15.4,"pub":false}},{"type":"Feature","geometry":{"type":"Point","coordinates":[-106.4853,40.1016]},"properties":{"s":15.4,"pub":false}},{"type":"Feature","geometry":{"type":"Point","coordinates":[-106.4853,40.1074]},"properties":{"s":15.4,"pub":false}},{"type":"Feature","geometry":{"type":"Point","coordinates":[-106.4853,40.1132]},"properties":{"s":15.4,"pub":false}},{"type":"Feature","geometry":{"type":"Point","coordinates":[-106.4853,40.2466]},"properties":{"s":17.9,"pub":false}},{"type":"Feature","geometry":{"type":"Point","coordinates":[-106.4853,40.264]},"properties":{"s":17.9,"pub":true}},{"type":"Feature","geometry":{"type":"Point","coordinates":[-106.4853,40.2698]},"properties":{"s":17.9,"pub":true}},{"type":"Feature","geometry":{"type":"Point","coordinates":[-106.4853,40.2756]},"properties":{"s":17.9,"pub":true}},{"type":"Feature","geometry":{"type":"Point","coordinates":[-106.4853,40.2814]},"properties":{"s":17.9,"pub":true}},{"type":"Feature","geometry":{"type":"Point","coordinates":[-106.4778,40.0204]},"properties":{"s":15.4,"pub":false}},{"type":"Feature","geometry":{"type":"Point","coordinates":[-106.4778,40.0262]},"properties":{"s":15.4,"pub":false}},{"type":"Feature","geometry":{"type":"Point","coordinates":[-106.4778,40.032]},"properties":{"s":15.4,"pub":false}},{"type":"Feature","geometry":{"type":"Point","coordinates":[-106.4778,40.0378]},"properties":{"s":15.4,"pub":false}},{"type":"Feature","geometry":{"type":"Point","coordinates":[-106.4778,40.0436]},"properties":{"s":15.4,"pub":false}},{"type":"Feature","geometry":{"type":"Point","coordinates":[-106.4778,40.0494]},"properties":{"s":15.4,"pub":false}},{"type":"Feature","geometry":{"type":"Point","coordinates":[-106.4778,40.0552]},"properties":{"s":15.4,"pub":false}},{"type":"Feature","geometry":{"type":"Point","coordinates":[-106.4778,40.061]},"properties":{"s":17.9,"pub":false}},{"type":"Feature","geometry":{"type":"Point","coordinates":[-106.4778,40.0668]},"properties":{"s":17.9,"pub":false}},{"type":"Feature","geometry":{"type":"Point","coordinates":[-106.4778,40.0726]},"properties":{"s":17.9,"pub":false}},{"type":"Feature","geometry":{"type":"Point","coordinates":[-106.4778,40.0784]},"properties":{"s":17.9,"pub":false}},{"type":"Feature","geometry":{"type":"Point","coordinates":[-106.4778,40.0842]},"properties":{"s":17.9,"pub":false}},{"type":"Feature","geometry":{"type":"Point","coordinates":[-106.4778,40.09]},"properties":{"s":15.4,"pub":false}},{"type":"Feature","geometry":{"type":"Point","coordinates":[-106.4778,40.0958]},"properties":{"s":15.4,"pub":false}},{"type":"Feature","geometry":{"type":"Point","coordinates":[-106.4778,40.1016]},"properties":{"s":15.4,"pub":false}},{"type":"Feature","geometry":{"type":"Point","coordinates":[-106.4778,40.1074]},"properties":{"s":15.4,"pub":false}},{"type":"Feature","geometry":{"type":"Point","coordinates":[-106.4778,40.1132]},"properties":{"s":15.4,"pub":false}},{"type":"Feature","geometry":{"type":"Point","coordinates":[-106.4778,40.119]},"properties":{"s":17.9,"pub":false}},{"type":"Feature","geometry":{"type":"Point","coordinates":[-106.4703,40.0204]},"properties":{"s":15.4,"pub":true}},{"type":"Feature","geometry":{"type":"Point","coordinates":[-106.4703,40.0262]},"properties":{"s":15.4,"pub":false}},{"type":"Feature","geometry":{"type":"Point","coordinates":[-106.4703,40.032]},"properties":{"s":17.9,"pub":false}},{"type":"Feature","geometry":{"type":"Point","coordinates":[-106.4703,40.0378]},"properties":{"s":17.9,"pub":false}},{"type":"Feature","geometry":{"type":"Point","coordinates":[-106.4703,40.0436]},"properties":{"s":17.9,"pub":false}},{"type":"Feature","geometry":{"type":"Point","coordinates":[-106.4703,40.0494]},"properties":{"s":17.9,"pub":false}},{"type":"Feature","geometry":{"type":"Point","coordinates":[-106.4703,40.0552]},"properties":{"s":17.9,"pub":false}},{"type":"Feature","geometry":{"type":"Point","coordinates":[-106.4703,40.061]},"properties":{"s":17.9,"pub":false}},{"type":"Feature","geometry":{"type":"Point","coordinates":[-106.4703,40.0668]},"properties":{"s":17.9,"pub":false}},{"type":"Feature","geometry":{"type":"Point","coordinates":[-106.4703,40.0726]},"properties":{"s":17.9,"pub":false}},{"type":"Feature","geometry":{"type":"Point","coordinates":[-106.4703,40.0784]},"properties":{"s":17.9,"pub":false}},{"type":"Feature","geometry":{"type":"Point","coordinates":[-106.4703,40.0842]},"properties":{"s":17.9,"pub":false}},{"type":"Feature","geometry":{"type":"Point","coordinates":[-106.4703,40.09]},"properties":{"s":15.4,"pub":false}},{"type":"Feature","geometry":{"type":"Point","coordinates":[-106.4703,40.0958]},"properties":{"s":15.4,"pub":false}},{"type":"Feature","geometry":{"type":"Point","coordinates":[-106.4703,40.1016]},"properties":{"s":15.4,"pub":false}},{"type":"Feature","geometry":{"type":"Point","coordinates":[-106.4703,40.1074]},"properties":{"s":15.4,"pub":false}},{"type":"Feature","geometry":{"type":"Point","coordinates":[-106.4703,40.1132]},"properties":{"s":15.4,"pub":false}},{"type":"Feature","geometry":{"type":"Point","coordinates":[-106.4628,40.0262]},"properties":{"s":17.9,"pub":true}},{"type":"Feature","geometry":{"type":"Point","coordinates":[-106.4628,40.032]},"properties":{"s":17.9,"pub":false}},{"type":"Feature","geometry":{"type":"Point","coordinates":[-106.4628,40.0378]},"properties":{"s":17.9,"pub":false}},{"type":"Feature","geometry":{"type":"Point","coordinates":[-106.4628,40.0436]},"properties":{"s":17.9,"pub":false}},{"type":"Feature","geometry":{"type":"Point","coordinates":[-106.4628,40.0494]},"properties":{"s":17.9,"pub":false}},{"type":"Feature","geometry":{"type":"Point","coordinates":[-106.4628,40.0552]},"properties":{"s":17.9,"pub":false}},{"type":"Feature","geometry":{"type":"Point","coordinates":[-106.4628,40.061]},"properties":{"s":23.1,"pub":false}},{"type":"Feature","geometry":{"type":"Point","coordinates":[-106.4628,40.0668]},"properties":{"s":23.1,"pub":false}},{"type":"Feature","geometry":{"type":"Point","coordinates":[-106.4628,40.0726]},"properties":{"s":23.1,"pub":false}},{"type":"Feature","geometry":{"type":"Point","coordinates":[-106.4628,40.0784]},"properties":{"s":23.1,"pub":false}},{"type":"Feature","geometry":{"type":"Point","coordinates":[-106.4628,40.0842]},"properties":{"s":17.9,"pub":false}},{"type":"Feature","geometry":{"type":"Point","coordinates":[-106.4628,40.09]},"properties":{"s":17.9,"pub":false}},{"type":"Feature","geometry":{"type":"Point","coordinates":[-106.4628,40.0958]},"properties":{"s":17.9,"pub":false}},{"type":"Feature","geometry":{"type":"Point","coordinates":[-106.4628,40.1016]},"properties":{"s":17.9,"pub":false}},{"type":"Feature","geometry":{"type":"Point","coordinates":[-106.4628,40.1074]},"properties":{"s":17.9,"pub":false}},{"type":"Feature","geometry":{"type":"Point","coordinates":[-106.4628,40.1132]},"properties":{"s":17.9,"pub":false}},{"type":"Feature","geometry":{"type":"Point","coordinates":[-106.4553,40.0262]},"properties":{"s":15.4,"pub":true}},{"type":"Feature","geometry":{"type":"Point","coordinates":[-106.4553,40.032]},"properties":{"s":17.9,"pub":false}},{"type":"Feature","geometry":{"type":"Point","coordinates":[-106.4553,40.0378]},"properties":{"s":17.9,"pub":false}},{"type":"Feature","geometry":{"type":"Point","coordinates":[-106.4553,40.0436]},"properties":{"s":23.1,"pub":false}},{"type":"Feature","geometry":{"type":"Point","coordinates":[-106.4553,40.0494]},"properties":{"s":23.1,"pub":false}},{"type":"Feature","geometry":{"type":"Point","coordinates":[-106.4553,40.0552]},"properties":{"s":23.1,"pub":false}},{"type":"Feature","geometry":{"type":"Point","coordinates":[-106.4553,40.061]},"properties":{"s":23.1,"pub":false}},{"type":"Feature","geometry":{"type":"Point","coordinates":[-106.4553,40.0668]},"properties":{"s":23.1,"pub":false}},{"type":"Feature","geometry":{"type":"Point","coordinates":[-106.4553,40.0726]},"properties":{"s":23.1,"pub":false}},{"type":"Feature","geometry":{"type":"Point","coordinates":[-106.4553,40.0784]},"properties":{"s":23.1,"pub":false}},{"type":"Feature","geometry":{"type":"Point","coordinates":[-106.4553,40.0842]},"properties":{"s":17.9,"pub":false}},{"type":"Feature","geometry":{"type":"Point","coordinates":[-106.4553,40.09]},"properties":{"s":17.9,"pub":false}},{"type":"Feature","geometry":{"type":"Point","coordinates":[-106.4553,40.0958]},"properties":{"s":17.9,"pub":false}},{"type":"Feature","geometry":{"type":"Point","coordinates":[-106.4553,40.1016]},"properties":{"s":17.9,"pub":false}},{"type":"Feature","geometry":{"type":"Point","coordinates":[-106.4478,40.032]},"properties":{"s":17.9,"pub":false}},{"type":"Feature","geometry":{"type":"Point","coordinates":[-106.4478,40.0378]},"properties":{"s":17.9,"pub":false}},{"type":"Feature","geometry":{"type":"Point","coordinates":[-106.4478,40.0436]},"properties":{"s":23.1,"pub":false}},{"type":"Feature","geometry":{"type":"Point","coordinates":[-106.4478,40.0494]},"properties":{"s":23.1,"pub":false}},{"type":"Feature","geometry":{"type":"Point","coordinates":[-106.4478,40.0552]},"properties":{"s":23.1,"pub":false}},{"type":"Feature","geometry":{"type":"Point","coordinates":[-106.4478,40.061]},"properties":{"s":23.1,"pub":false}},{"type":"Feature","geometry":{"type":"Point","coordinates":[-106.4478,40.0668]},"properties":{"s":23.1,"pub":false}},{"type":"Feature","geometry":{"type":"Point","coordinates":[-106.4478,40.0726]},"properties":{"s":23.1,"pub":false}},{"type":"Feature","geometry":{"type":"Point","coordinates":[-106.4478,40.09]},"properties":{"s":17.9,"pub":false}},{"type":"Feature","geometry":{"type":"Point","coordinates":[-106.4478,40.0958]},"properties":{"s":17.9,"pub":false}},{"type":"Feature","geometry":{"type":"Point","coordinates":[-106.4403,40.0378]},"properties":{"s":17.9,"pub":true}},{"type":"Feature","geometry":{"type":"Point","coordinates":[-106.4403,40.0436]},"properties":{"s":17.9,"pub":false}},{"type":"Feature","geometry":{"type":"Point","coordinates":[-106.4403,40.0494]},"properties":{"s":23.1,"pub":false}},{"type":"Feature","geometry":{"type":"Point","coordinates":[-106.4403,40.0552]},"properties":{"s":23.1,"pub":false}}]}