{"type":"FeatureCollection","features":[{"type":"Feature","geometry":{"type":"Point","coordinates":[-106.5853,39.8763]},"properties":{"s":100.0,"pub":true}},{"type":"Feature","geometry":{"type":"Point","coordinates":[-106.5853,39.8821]},"properties":{"s":100.0,"pub":true}},{"type":"Feature","geometry":{"type":"Point","coordinates":[-106.5778,39.8705]},"properties":{"s":70.4,"pub":true}},{"type":"Feature","geometry":{"type":"Point","coordinates":[-106.5778,39.8763]},"properties":{"s":100.0,"pub":true}},{"type":"Feature","geometry":{"type":"Point","coordinates":[-106.5778,39.8821]},"properties":{"s":100.0,"pub":true}},{"type":"Feature","geometry":{"type":"Point","coordinates":[-106.5703,39.8705]},"properties":{"s":96.3,"pub":true}},{"type":"Feature","geometry":{"type":"Point","coordinates":[-106.5703,39.8763]},"properties":{"s":100.0,"pub":true}},{"type":"Feature","geometry":{"type":"Point","coordinates":[-106.5703,39.8821]},"properties":{"s":100.0,"pub":true}},{"type":"Feature","geometry":{"type":"Point","coordinates":[-106.5628,39.8647]},"properties":{"s":66.7,"pub":true}},{"type":"Feature","geometry":{"type":"Point","coordinates":[-106.5628,39.8705]},"properties":{"s":96.3,"pub":true}},{"type":"Feature","geometry":{"type":"Point","coordinates":[-106.5628,39.8763]},"properties":{"s":96.3,"pub":true}},{"type":"Feature","geometry":{"type":"Point","coordinates":[-106.5628,39.8821]},"properties":{"s":100.0,"pub":true}},{"type":"Feature","geometry":{"type":"Point","coordinates":[-106.5553,39.8647]},"properties":{"s":96.3,"pub":true}},{"type":"Feature","geometry":{"type":"Point","coordinates":[-106.5553,39.8705]},"properties":{"s":96.3,"pub":true}},{"type":"Feature","geometry":{"type":"Point","coordinates":[-106.5553,39.8763]},"properties":{"s":96.3,"pub":true}},{"type":"Feature","geometry":{"type":"Point","coordinates":[-106.5553,39.8821]},"properties":{"s":96.3,"pub":true}},{"type":"Feature","geometry":{"type":"Point","coordinates":[-106.5553,39.8879]},"properties":{"s":77.8,"pub":true}},{"type":"Feature","geometry":{"type":"Point","coordinates":[-106.5478,39.8647]},"properties":{"s":96.3,"pub":true}},{"type":"Feature","geometry":{"type":"Point","coordinates":[-106.5478,39.8705]},"properties":{"s":96.3,"pub":true}},{"type":"Feature","geometry":{"type":"Point","coordinates":[-106.5478,39.8763]},"properties":{"s":96.3,"pub":true}},{"type":"Feature","geometry":{"type":"Point","coordinates":[-106.5478,39.8821]},"properties":{"s":96.3,"pub":true}},{"type":"Feature","geometry":{"type":"Point","coordinates":[-106.5478,39.8879]},"properties":{"s":77.8,"pub":true}},{"type":"Feature","geometry":{"type":"Point","coordinates":[-106.5478,39.8937]},"properties":{"s":77.8,"pub":true}},{"type":"Feature","geometry":{"type":"Point","coordinates":[-106.5403,39.8531]},"properties":{"s":66.7,"pub":true}},{"type":"Feature","geometry":{"type":"Point","coordinates":[-106.5403,39.8589]},"properties":{"s":66.7,"pub":true}},{"type":"Feature","geometry":{"type":"Point","coordinates":[-106.5403,39.8647]},"properties":{"s":96.3,"pub":true}},{"type":"Feature","geometry":{"type":"Point","coordinates":[-106.5403,39.8705]},"properties":{"s":96.3,"pub":true}},{"type":"Feature","geometry":{"type":"Point","coordinates":[-106.5403,39.8763]},"properties":{"s":96.3,"pub":true}},{"type":"Feature","geometry":{"type":"Point","coordinates":[-106.5403,39.8821]},"properties":{"s":96.3,"pub":true}},{"type":"Feature","geometry":{"type":"Point","coordinates":[-106.5403,39.8879]},"properties":{"s":66.7,"pub":true}},{"type":"Feature","geometry":{"type":"Point","coordinates":[-106.5403,39.8937]},"properties":{"s":77.8,"pub":true}},{"type":"Feature","geometry":{"type":"Point","coordinates":[-106.5403,39.8995]},"properties":{"s":77.8,"pub":false}},{"type":"Feature","geometry":{"type":"Point","coordinates":[-106.5328,39.8531]},"properties":{"s":66.7,"pub":true}},{"type":"Feature","geometry":{"type":"Point","coordinates":[-106.5328,39.8589]},"properties":{"s":96.3,"pub":true}},{"type":"Feature","geometry":{"type":"Point","coordinates":[-106.5328,39.8647]},"properties":{"s":96.3,"pub":true}},{"type":"Feature","geometry":{"type":"Point","coordinates":[-106.5328,39.8705]},"properties":{"s":96.3,"pub":true}},{"type":"Feature","geometry":{"type":"Point","coordinates":[-106.5328,39.8763]},"properties":{"s":96.3,"pub":true}},{"type":"Feature","geometry":{"type":"Point","coordinates":[-106.5328,39.8821]},"properties":{"s":66.7,"pub":true}},{"type":"Feature","geometry":{"type":"Point","coordinates":[-106.5328,39.8879]},"properties":{"s":66.7,"pub":true}},{"type":"Feature","geometry":{"type":"Point","coordinates":[-106.5328,39.8937]},"properties":{"s":77.8,"pub":true}},{"type":"Feature","geometry":{"type":"Point","coordinates":[-106.5328,39.8995]},"properties":{"s":77.8,"pub":false}},{"type":"Feature","geometry":{"type":"Point","coordinates":[-106.5328,39.9053]},"properties":{"s":77.8,"pub":false}},{"type":"Feature","geometry":{"type":"Point","coordinates":[-106.5253,39.8473]},"properties":{"s":66.7,"pub":true}},{"type":"Feature","geometry":{"type":"Point","coordinates":[-106.5253,39.8531]},"properties":{"s":96.3,"pub":true}},{"type":"Feature","geometry":{"type":"Point","coordinates":[-106.5253,39.8589]},"properties":{"s":96.3,"pub":true}},{"type":"Feature","geometry":{"type":"Point","coordinates":[-106.5253,39.8647]},"properties":{"s":96.3,"pub":true}},{"type":"Feature","geometry":{"type":"Point","coordinates":[-106.5253,39.8705]},"properties":{"s":96.3,"pub":true}},{"type":"Feature","geometry":{"type":"Point","coordinates":[-106.5253,39.8763]},"properties":{"s":96.3,"pub":true}},{"type":"Feature","geometry":{"type":"Point","coordinates":[-106.5253,39.8821]},"properties":{"s":66.7,"pub":true}},{"type":"Feature","geometry":{"type":"Point","coordinates":[-106.5253,39.8879]},"properties":{"s":66.7,"pub":true}},{"type":"Feature","geometry":{"type":"Point","coordinates":[-106.5253,39.8937]},"properties":{"s":66.7,"pub":true}},{"type":"Feature","geometry":{"type":"Point","coordinates":[-106.5253,39.8995]},"properties":{"s":77.8,"pub":true}},{"type":"Feature","geometry":{"type":"Point","coordinates":[-106.5253,39.9053]},"properties":{"s":77.8,"pub":false}},{"type":"Feature","geometry":{"type":"Point","coordinates":[-106.5253,39.9111]},"properties":{"s":77.8,"pub":false}},{"type":"Feature","geometry":{"type":"Point","coordinates":[-106.5178,39.8415]},"properties":{"s":66.7,"pub":true}},{"type":"Feature","geometry":{"type":"Point","coordinates":[-106.5178,39.8473]},"properties":{"s":66.7,"pub":true}},{"type":"Feature","geometry":{"type":"Point","coordinates":[-106.5178,39.8531]},"properties":{"s":96.3,"pub":true}},{"type":"Feature","geometry":{"type":"Point","coordinates":[-106.5178,39.8589]},"properties":{"s":96.3,"pub":true}},{"type":"Feature","geometry":{"type":"Point","coordinates":[-106.5178,39.8647]},"properties":{"s":96.3,"pub":true}},{"type":"Feature","geometry":{"type":"Point","coordinates":[-106.5178,39.8705]},"properties":{"s":96.3,"pub":true}},{"type":"Feature","geometry":{"type":"Point","coordinates":[-106.5178,39.8763]},"properties":{"s":66.7,"pub":true}},{"type":"Feature","geometry":{"type":"Point","coordinates":[-106.5178,39.8821]},"properties":{"s":66.7,"pub":true}},{"type":"Feature","geometry":{"type":"Point","coordinates":[-106.5178,39.8879]},"properties":{"s":66.7,"pub":true}},{"type":"Feature","geometry":{"type":"Point","coordinates":[-106.5178,39.8937]},"properties":{"s":77.8,"pub":true}},{"type":"Feature","geometry":{"type":"Point","coordinates":[-106.5178,39.8995]},"properties":{"s":77.8,"pub":true}},{"type":"Feature","geometry":{"type":"Point","coordinates":[-106.5178,39.9053]},"properties":{"s":77.8,"pub":true}},{"type":"Feature","geometry":{"type":"Point","coordinates":[-106.5178,39.9111]},"properties":{"s":77.8,"pub":true}},{"type":"Feature","geometry":{"type":"Point","coordinates":[-106.5178,39.9169]},"properties":{"s":77.8,"pub":true}},{"type":"Feature","geometry":{"type":"Point","coordinates":[-106.5103,39.8357]},"properties":{"s":66.7,"pub":true}},{"type":"Feature","geometry":{"type":"Point","coordinates":[-106.5103,39.8415]},"properties":{"s":66.7,"pub":true}},{"type":"Feature","geometry":{"type":"Point","coordinates":[-106.5103,39.8473]},"properties":{"s":66.7,"pub":true}},{"type":"Feature","geometry":{"type":"Point","coordinates":[-106.5103,39.8531]},"properties":{"s":96.3,"pub":true}},{"type":"Feature","geometry":{"type":"Point","coordinates":[-106.5103,39.8589]},"properties":{"s":96.3,"pub":true}},{"type":"Feature","geometry":{"type":"Point","coordinates":[-106.5103,39.8647]},"properties":{"s":66.7,"pub":true}},{"type":"Feature","geometry":{"type":"Point","coordinates":[-106.5103,39.8705]},"properties":{"s":66.7,"pub":true}},{"type":"Feature","geometry":{"type":"Point","coordinates":[-106.5103,39.8763]},"properties":{"s":70.4,"pub":true}},{"type":"Feature","geometry":{"type":"Point","coordinates":[-106.5103,39.8821]},"properties":{"s":70.4,"pub":true}},{"type":"Feature","geometry":{"type":"Point","coordinates":[-106.5103,39.8879]},"properties":{"s":70.4,"pub":true}},{"type":"Feature","geometry":{"type":"Point","coordinates":[-106.5103,39.8937]},"properties":{"s":70.4,"pub":true}},{"type":"Feature","geometry":{"type":"Point","coordinates":[-106.5103,39.8995]},"properties":{"s":77.8,"pub":false}},{"type":"Feature","geometry":{"type":"Point","coordinates":[-106.5103,39.9053]},"properties":{"s":77.8,"pub":false}},{"type":"Feature","geometry":{"type":"Point","coordinates":[-106.5103,39.9111]},"properties":{"s":77.8,"pub":false}},{"type":"Feature","geometry":{"type":"Point","coordinates":[-106.5103,39.9169]},"properties":{"s":77.8,"pub":false}},{"type":"Feature","geometry":{"type":"Point","coordinates":[-106.5103,39.9227]},"properties":{"s":70.4,"pub":true}},{"type":"Feature","geometry":{"type":"Point","coordinates":[-106.5028,39.8241]},"properties":{"s":66.7,"pub":true}},{"type":"Feature","geometry":{"type":"Point","coordinates":[-106.5028,39.8299]},"properties":{"s":66.7,"pub":true}},{"type":"Feature","geometry":{"type":"Point","coordinates":[-106.5028,39.8357]},"properties":{"s":66.7,"pub":true}},{"type":"Feature","geometry":{"type":"Point","coordinates":[-106.5028,39.8415]},"properties":{"s":66.7,"pub":true}},{"type":"Feature","geometry":{"type":"Point","coordinates":[-106.5028,39.8473]},"properties":{"s":96.3,"pub":true}},{"type":"Feature","geometry":{"type":"Point","coordinates":[-106.5028,39.8531]},"properties":{"s":66.7,"pub":true}},{"type":"Feature","geometry":{"type":"Point","coordinates":[-106.5028,39.8589]},"properties":{"s":66.7,"pub":true}},{"type":"Feature","geometry":{"type":"Point","coordinates":[-106.5028,39.8647]},"properties":{"s":66.7,"pub":true}},{"type":"Feature","geometry":{"type":"Point","coordinates":[-106.5028,39.8705]},"properties":{"s":70.4,"pub":true}},{"type":"Feature","geometry":{"type":"Point","coordinates":[-106.5028,39.8763]},"properties":{"s":70.4,"pub":true}},{"type":"Feature","geometry":{"type":"Point","coordinates":[-106.5028,39.8821]},"properties":{"s":70.4,"pub":true}},{"type":"Feature","geometry":{"type":"Point","coordinates":[-106.5028,39.8879]},"properties":{"s":70.4,"pub":true}},{"type":"Feature","geometry":{"type":"Point","coordinates":[-106.5028,39.8937]},"properties":{"s":70.4,"pub":true}},{"type":"Feature","geometry":{"type":"Point","coordinates":[-106.5028,39.8995]},"properties":{"s":77.8,"pub":false}},{"type":"Feature","geometry":{"type":"Point","coordinates":[-106.5028,39.9053]},"properties":{"s":77.8,"pub":false}},{"type":"Feature","geometry":{"type":"Point","coordinates":[-106.5028,39.9111]},"properties":{"s":77.8,"pub":false}},{"type":"Feature","geometry":{"type":"Point","coordinates":[-106.5028,39.9169]},"properties":{"s":77.8,"pub":false}},{"type":"Feature","geometry":{"type":"Point","coordinates":[-106.5028,39.9227]},"properties":{"s":70.4,"pub":false}},{"type":"Feature","geometry":{"type":"Point","coordinates":[-106.4953,39.8183]},"properties":{"s":66.7,"pub":true}},{"type":"Feature","geometry":{"type":"Point","coordinates":[-106.4953,39.8241]},"properties":{"s":66.7,"pub":true}},{"type":"Feature","geometry":{"type":"Point","coordinates":[-106.4953,39.8299]},"properties":{"s":66.7,"pub":true}},{"type":"Feature","geometry":{"type":"Point","coordinates":[-106.4953,39.8357]},"properties":{"s":66.7,"pub":true}},{"type":"Feature","geometry":{"type":"Point","coordinates":[-106.4953,39.8415]},"properties":{"s":96.3,"pub":true}},{"type":"Feature","geometry":{"type":"Point","coordinates":[-106.4953,39.8473]},"properties":{"s":96.3,"pub":true}},{"type":"Feature","geometry":{"type":"Point","coordinates":[-106.4953,39.8531]},"properties":{"s":96.3,"pub":true}},{"type":"Feature","geometry":{"type":"Point","coordinates":[-106.4953,39.8589]},"properties":{"s":66.7,"pub":true}},{"type":"Feature","geometry":{"type":"Point","coordinates":[-106.4953,39.8647]},"properties":{"s":66.7,"pub":true}},{"type":"Feature","geometry":{"type":"Point","coordinates":[-106.4953,39.8705]},"properties":{"s":70.4,"pub":true}},{"type":"Feature","geometry":{"type":"Point","coordinates":[-106.4953,39.8763]},"properties":{"s":70.4,"pub":true}},{"type":"Feature","geometry":{"type":"Point","coordinates":[-106.4953,39.8821]},"properties":{"s":70.4,"pub":true}},{"type":"Feature","geometry":{"type":"Point","coordinates":[-106.4953,39.8879]},"properties":{"s":77.8,"pub":true}},{"type":"Feature","geometry":{"type":"Point","coordinates":[-106.4953,39.8937]},"properties":{"s":77.8,"pub":true}},{"type":"Feature","geometry":{"type":"Point","coordinates":[-106.4953,39.8995]},"properties":{"s":77.8,"pub":false}},{"type":"Feature","geometry":{"type":"Point","coordinates":[-106.4953,39.9053]},"properties":{"s":77.8,"pub":false}},{"type":"Feature","geometry":{"type":"Point","coordinates":[-106.4953,39.9111]},"properties":{"s":77.8,"pub":false}},{"type":"Feature","geometry":{"type":"Point","coordinates":[-106.4953,39.9169]},"properties":{"s":77.8,"pub":false}},{"type":"Feature","geometry":{"type":"Point","coordinates":[-106.4953,39.9227]},"properties":{"s":70.4,"pub":false}},{"type":"Feature","geometry":{"type":"Point","coordinates":[-106.4878,39.8125]},"properties":{"s":66.7,"pub":true}},{"type":"Feature","geometry":{"type":"Point","coordinates":[-106.4878,39.8183]},"properties":{"s":96.3,"pub":true}},{"type":"Feature","geometry":{"type":"Point","coordinates":[-106.4878,39.8241]},"properties":{"s":96.3,"pub":true}},{"type":"Feature","geometry":{"type":"Point","coordinates":[-106.4878,39.8299]},"properties":{"s":96.3,"pub":true}},{"type":"Feature","geometry":{"type":"Point","coordinates":[-106.4878,39.8357]},"properties":{"s":96.3,"pub":true}},{"type":"Feature","geometry":{"type":"Point","coordinates":[-106.4878,39.8415]},"properties":{"s":96.3,"pub":true}},{"type":"Feature","geometry":{"type":"Point","coordinates":[-106.4878,39.8473]},"properties":{"s":96.3,"pub":true}},{"type":"Feature","geometry":{"type":"Point","coordinates":[-106.4878,39.8531]},"properties":{"s":96.3,"pub":true}},{"type":"Feature","geometry":{"type":"Point","coordinates":[-106.4878,39.8589]},"properties":{"s":96.3,"pub":true}},{"type":"Feature","geometry":{"type":"Point","coordinates":[-106.4878,39.8647]},"properties":{"s":96.3,"pub":true}},{"type":"Feature","geometry":{"type":"Point","coordinates":[-106.4878,39.8705]},"properties":{"s":70.4,"pub":false}},{"type":"Feature","geometry":{"type":"Point","coordinates":[-106.4878,39.8763]},"properties":{"s":70.4,"pub":false}},{"type":"Feature","geometry":{"type":"Point","coordinates":[-106.4878,39.8821]},"properties":{"s":70.4,"pub":true}},{"type":"Feature","geometry":{"type":"Point","coordinates":[-106.4878,39.8879]},"properties":{"s":70.4,"pub":true}},{"type":"Feature","geometry":{"type":"Point","coordinates":[-106.4878,39.8937]},"properties":{"s":77.8,"pub":true}},{"type":"Feature","geometry":{"type":"Point","coordinates":[-106.4878,39.8995]},"properties":{"s":77.8,"pub":false}},{"type":"Feature","geometry":{"type":"Point","coordinates":[-106.4878,39.9053]},"properties":{"s":77.8,"pub":false}},{"type":"Feature","geometry":{"type":"Point","coordinates":[-106.4878,39.9111]},"properties":{"s":77.8,"pub":false}},{"type":"Feature","geometry":{"type":"Point","coordinates":[-106.4878,39.9169]},"properties":{"s":70.4,"pub":false}},{"type":"Feature","geometry":{"type":"Point","coordinates":[-106.4878,39.9227]},"properties":{"s":70.4,"pub":false}},{"type":"Feature","geometry":{"type":"Point","coordinates":[-106.4803,39.8067]},"properties":{"s":66.7,"pub":true}},{"type":"Feature","geometry":{"type":"Point","coordinates":[-106.4803,39.8125]},"properties":{"s":96.3,"pub":true}},{"type":"Feature","geometry":{"type":"Point","coordinates":[-106.4803,39.8183]},"properties":{"s":96.3,"pub":true}},{"type":"Feature","geometry":{"type":"Point","coordinates":[-106.4803,39.8241]},"properties":{"s":96.3,"pub":true}},{"type":"Feature","geometry":{"type":"Point","coordinates":[-106.4803,39.8299]},"properties":{"s":96.3,"pub":true}},{"type":"Feature","geometry":{"type":"Point","coordinates":[-106.4803,39.8357]},"properties":{"s":96.3,"pub":true}},{"type":"Feature","geometry":{"type":"Point","coordinates":[-106.4803,39.8415]},"properties":{"s":96.3,"pub":true}},{"type":"Feature","geometry":{"type":"Point","coordinates":[-106.4803,39.8473]},"properties":{"s":96.3,"pub":true}},{"type":"Feature","geometry":{"type":"Point","coordinates":[-106.4803,39.8531]},"properties":{"s":96.3,"pub":true}},{"type":"Feature","geometry":{"type":"Point","coordinates":[-106.4803,39.8589]},"properties":{"s":96.3,"pub":true}},{"type":"Feature","geometry":{"type":"Point","coordinates":[-106.4803,39.8647]},"properties":{"s":96.3,"pub":false}},{"type":"Feature","geometry":{"type":"Point","coordinates":[-106.4803,39.8705]},"properties":{"s":100.0,"pub":false}},{"type":"Feature","geometry":{"type":"Point","coordinates":[-106.4803,39.8763]},"properties":{"s":70.4,"pub":false}},{"type":"Feature","geometry":{"type":"Point","coordinates":[-106.4803,39.8821]},"properties":{"s":70.4,"pub":true}},{"type":"Feature","geometry":{"type":"Point","coordinates":[-106.4803,39.8879]},"properties":{"s":70.4,"pub":true}},{"type":"Feature","geometry":{"type":"Point","coordinates":[-106.4803,39.8937]},"properties":{"s":70.4,"pub":true}},{"type":"Feature","geometry":{"type":"Point","coordinates":[-106.4803,39.8995]},"properties":{"s":77.8,"pub":false}},{"type":"Feature","geometry":{"type":"Point","coordinates":[-106.4803,39.9053]},"properties":{"s":77.8,"pub":false}},{"type":"Feature","geometry":{"type":"Point","coordinates":[-106.4803,39.9111]},"properties":{"s":70.4,"pub":false}},{"type":"Feature","geometry":{"type":"Point","coordinates":[-106.4803,39.9169]},"properties":{"s":70.4,"pub":false}},{"type":"Feature","geometry":{"type":"Point","coordinates":[-106.4728,39.8009]},"properties":{"s":96.3,"pub":true}},{"type":"Feature","geometry":{"type":"Point","coordinates":[-106.4728,39.8067]},"properties":{"s":96.3,"pub":true}},{"type":"Feature","geometry":{"type":"Point","coordinates":[-106.4728,39.8125]},"properties":{"s":96.3,"pub":true}},{"type":"Feature","geometry":{"type":"Point","coordinates":[-106.4728,39.8183]},"properties":{"s":96.3,"pub":true}},{"type":"Feature","geometry":{"type":"Point","coordinates":[-106.4728,39.8241]},"properties":{"s":96.3,"pub":true}},{"type":"Feature","geometry":{"type":"Point","coordinates":[-106.4728,39.8299]},"properties":{"s":96.3,"pub":true}},{"type":"Feature","geometry":{"type":"Point","coordinates":[-106.4728,39.8357]},"properties":{"s":96.3,"pub":true}},{"type":"Feature","geometry":{"type":"Point","coordinates":[-106.4728,39.8415]},"properties":{"s":96.3,"pub":true}},{"type":"Feature","geometry":{"type":"Point","coordinates":[-106.4728,39.8473]},"properties":{"s":96.3,"pub":true}},{"type":"Feature","geometry":{"type":"Point","coordinates":[-106.4728,39.8531]},"properties":{"s":96.3,"pub":true}},{"type":"Feature","geometry":{"type":"Point","coordinates":[-106.4728,39.8589]},"properties":{"s":96.3,"pub":false}},{"type":"Feature","geometry":{"type":"Point","coordinates":[-106.4728,39.8647]},"properties":{"s":96.3,"pub":false}},{"type":"Feature","geometry":{"type":"Point","coordinates":[-106.4728,39.8705]},"properties":{"s":100.0,"pub":false}},{"type":"Feature","geometry":{"type":"Point","coordinates":[-106.4728,39.8763]},"properties":{"s":100.0,"pub":false}},{"type":"Feature","geometry":{"type":"Point","coordinates":[-106.4728,39.8821]},"properties":{"s":70.4,"pub":false}},{"type":"Feature","geometry":{"type":"Point","coordinates":[-106.4728,39.8879]},"properties":{"s":70.4,"pub":false}},{"type":"Feature","geometry":{"type":"Point","coordinates":[-106.4728,39.8937]},"properties":{"s":70.4,"pub":false}},{"type":"Feature","geometry":{"type":"Point","coordinates":[-106.4728,39.8995]},"properties":{"s":70.4,"pub":false}},{"type":"Feature","geometry":{"type":"Point","coordinates":[-106.4728,39.9053]},"properties":{"s":70.4,"pub":false}},{"type":"Feature","geometry":{"type":"Point","coordinates":[-106.4728,39.9111]},"properties":{"s":70.4,"pub":false}},{"type":"Feature","geometry":{"type":"Point","coordinates":[-106.4653,39.8009]},"properties":{"s":96.3,"pub":true}},{"type":"Feature","geometry":{"type":"Point","coordinates":[-106.4653,39.8067]},"properties":{"s":96.3,"pub":true}},{"type":"Feature","geometry":{"type":"Point","coordinates":[-106.4653,39.8125]},"properties":{"s":96.3,"pub":true}},{"type":"Feature","geometry":{"type":"Point","coordinates":[-106.4653,39.8183]},"properties":{"s":96.3,"pub":true}},{"type":"Feature","geometry":{"type":"Point","coordinates":[-106.4653,39.8241]},"properties":{"s":96.3,"pub":true}},{"type":"Feature","geometry":{"type":"Point","coordinates":[-106.4653,39.8299]},"properties":{"s":96.3,"pub":true}},{"type":"Feature","geometry":{"type":"Point","coordinates":[-106.4653,39.8357]},"properties":{"s":96.3,"pub":true}},{"type":"Feature","geometry":{"type":"Point","coordinates":[-106.4653,39.8415]},"properties":{"s":96.3,"pub":true}},{"type":"Feature","geometry":{"type":"Point","coordinates":[-106.4653,39.8473]},"properties":{"s":96.3,"pub":true}},{"type":"Feature","geometry":{"type":"Point","coordinates":[-106.4653,39.8531]},"properties":{"s":96.3,"pub":true}},{"type":"Feature","geometry":{"type":"Point","coordinates":[-106.4653,39.8589]},"properties":{"s":96.3,"pub":false}},{"type":"Feature","geometry":{"type":"Point","coordinates":[-106.4653,39.8647]},"properties":{"s":100.0,"pub":false}},{"type":"Feature","geometry":{"type":"Point","coordinates":[-106.4653,39.8705]},"properties":{"s":100.0,"pub":false}},{"type":"Feature","geometry":{"type":"Point","coordinates":[-106.4653,39.8763]},"properties":{"s":100.0,"pub":false}},{"type":"Feature","geometry":{"type":"Point","coordinates":[-106.4653,39.8821]},"properties":{"s":70.4,"pub":false}},{"type":"Feature","geometry":{"type":"Point","coordinates":[-106.4653,39.8879]},"properties":{"s":70.4,"pub":false}},{"type":"Feature","geometry":{"type":"Point","coordinates":[-106.4653,39.8937]},"properties":{"s":70.4,"pub":false}},{"type":"Feature","geometry":{"type":"Point","coordinates":[-106.4653,39.8995]},"properties":{"s":70.4,"pub":false}},{"type":"Feature","geometry":{"type":"Point","coordinates":[-106.4653,39.9053]},"properties":{"s":70.4,"pub":false}},{"type":"Feature","geometry":{"type":"Point","coordinates":[-106.4653,39.9517]},"properties":{"s":70.4,"pub":false}},{"type":"Feature","geometry":{"type":"Point","coordinates":[-106.4653,39.9575]},"properties":{"s":70.4,"pub":false}},{"type":"Feature","geometry":{"type":"Point","coordinates":[-106.4653,39.9633]},"properties":{"s":70.4,"pub":false}},{"type":"Feature","geometry":{"type":"Point","coordinates":[-106.4578,39.8009]},"properties":{"s":96.3,"pub":true}},{"type":"Feature","geometry":{"type":"Point","coordinates":[-106.4578,39.8067]},"properties":{"s":96.3,"pub":true}},{"type":"Feature","geometry":{"type":"Point","coordinates":[-106.4578,39.8125]},"properties":{"s":96.3,"pub":true}},{"type":"Feature","geometry":{"type":"Point","coordinates":[-106.4578,39.8183]},"properties":{"s":96.3,"pub":true}},{"type":"Feature","geometry":{"type":"Point","coordinates":[-106.4578,39.8241]},"properties":{"s":96.3,"pub":true}},{"type":"Feature","geometry":{"type":"Point","coordinates":[-106.4578,39.8299]},"properties":{"s":96.3,"pub":true}},{"type":"Feature","geometry":{"type":"Point","coordinates":[-106.4578,39.8357]},"properties":{"s":96.3,"pub":true}},{"type":"Feature","geometry":{"type":"Point","coordinates":[-106.4578,39.8415]},"properties":{"s":96.3,"pub":true}},{"type":"Feature","geometry":{"type":"Point","coordinates":[-106.4578,39.8473]},"properties":{"s":96.3,"pub":true}},{"type":"Feature","geometry":{"type":"Point","coordinates":[-106.4578,39.8531]},"properties":{"s":96.3,"pub":true}},{"type":"Feature","geometry":{"type":"Point","coordinates":[-106.4578,39.8589]},"properties":{"s":96.3,"pub":false}},{"type":"Feature","geometry":{"type":"Point","coordinates":[-106.4578,39.8647]},"properties":{"s":100.0,"pub":false}},{"type":"Feature","geometry":{"type":"Point","coordinates":[-106.4578,39.8705]},"properties":{"s":70.4,"pub":true}},{"type":"Feature","geometry":{"type":"Point","coordinates":[-106.4578,39.8763]},"properties":{"s":70.4,"pub":true}},{"type":"Feature","geometry":{"type":"Point","coordinates":[-106.4578,39.8821]},"properties":{"s":70.4,"pub":true}},{"type":"Feature","geometry":{"type":"Point","coordinates":[-106.4578,39.8879]},"properties":{"s":70.4,"pub":false}},{"type":"Feature","geometry":{"type":"Point","coordinates":[-106.4578,39.8937]},"properties":{"s":70.4,"pub":false}},{"type":"Feature","geometry":{"type":"Point","coordinates":[-106.4578,39.8995]},"properties":{"s":70.4,"pub":false}},{"type":"Feature","geometry":{"type":"Point","coordinates":[-106.4578,39.9459]},"properties":{"s":70.4,"pub":true}},{"type":"Feature","geometry":{"type":"Point","coordinates":[-106.4578,39.9517]},"properties":{"s":70.4,"pub":false}},{"type":"Feature","geometry":{"type":"Point","coordinates":[-106.4578,39.9575]},"properties":{"s":70.4,"pub":false}},{"type":"Feature","geometry":{"type":"Point","coordinates":[-106.4503,39.8067]},"properties":{"s":96.3,"pub":true}},{"type":"Feature","geometry":{"type":"Point","coordinates":[-106.4503,39.8125]},"properties":{"s":96.3,"pub":true}},{"type":"Feature","geometry":{"type":"Point","coordinates":[-106.4503,39.8183]},"properties":{"s":96.3,"pub":true}},{"type":"Feature","geometry":{"type":"Point","coordinates":[-106.4503,39.8241]},"properties":{"s":96.3,"pub":true}},{"type":"Feature","geometry":{"type":"Point","coordinates":[-106.4503,39.8299]},"properties":{"s":96.3,"pub":true}},{"type":"Feature","geometry":{"type":"Point","coordinates":[-106.4503,39.8357]},"properties":{"s":96.3,"pub":true}},{"type":"Feature","geometry":{"type":"Point","coordinates":[-106.4503,39.8415]},"properties":{"s":96.3,"pub":true}},{"type":"Feature","geometry":{"type":"Point","coordinates":[-106.4503,39.8473]},"properties":{"s":96.3,"pub":false}},{"type":"Feature","geometry":{"type":"Point","coordinates":[-106.4503,39.8531]},"properties":{"s":66.7,"pub":false}},{"type":"Feature","geometry":{"type":"Point","coordinates":[-106.4503,39.8589]},"properties":{"s":66.7,"pub":false}},{"type":"Feature","geometry":{"type":"Point","coordinates":[-106.4503,39.8647]},"properties":{"s":70.4,"pub":false}},{"type":"Feature","geometry":{"type":"Point","coordinates":[-106.4503,39.8705]},"properties":{"s":70.4,"pub":true}},{"type":"Feature","geometry":{"type":"Point","coordinates":[-106.4503,39.8763]},"properties":{"s":70.4,"pub":true}},{"type":"Feature","geometry":{"type":"Point","coordinates":[-106.4503,39.8821]},"properties":{"s":70.4,"pub":true}},{"type":"Feature","geometry":{"type":"Point","coordinates":[-106.4503,39.8879]},"properties":{"s":70.4,"pub":false}},{"type":"Feature","geometry":{"type":"Point","coordinates":[-106.4503,39.9285]},"properties":{"s":70.4,"pub":true}},{"type":"Feature","geometry":{"type":"Point","coordinates":[-106.4503,39.9343]},"properties":{"s":70.4,"pub":true}},{"type":"Feature","geometry":{"type":"Point","coordinates":[-106.4503,39.9401]},"properties":{"s":70.4,"pub":true}},{"type":"Feature","geometry":{"type":"Point","coordinates":[-106.4503,39.9459]},"properties":{"s":70.4,"pub":true}},{"type":"Feature","geometry":{"type":"Point","coordinates":[-106.4503,39.9517]},"properties":{"s":70.4,"pub":true}},{"type":"Feature","geometry":{"type":"Point","coordinates":[-106.4428,39.8125]},"properties":{"s":96.3,"pub":true}},{"type":"Feature","geometry":{"type":"Point","coordinates":[-106.4428,39.8183]},"properties":{"s":96.3,"pub":true}},{"type":"Feature","geometry":{"type":"Point","coordinates":[-106.4428,39.8241]},"properties":{"s":96.3,"pub":true}},{"type":"Feature","geometry":{"type":"Point","coordinates":[-106.4428,39.8299]},"properties":{"s":96.3,"pub":true}},{"type":"Feature","geometry":{"type":"Point","coordinates":[-106.4428,39.8357]},"properties":{"s":96.3,"pub":true}},{"type":"Feature","geometry":{"type":"Point","coordinates":[-106.4428,39.8415]},"properties":{"s":66.7,"pub":false}},{"type":"Feature","geometry":{"type":"Point","coordinates":[-106.4428,39.8473]},"properties":{"s":66.7,"pub":true}},{"type":"Feature","geometry":{"type":"Point","coordinates":[-106.4428,39.8531]},"properties":{"s":66.7,"pub":true}},{"type":"Feature","geometry":{"type":"Point","coordinates":[-106.4428,39.8589]},"properties":{"s":66.7,"pub":true}},{"type":"Feature","geometry":{"type":"Point","coordinates":[-106.4428,39.8647]},"properties":{"s":70.4,"pub":true}},{"type":"Feature","geometry":{"type":"Point","coordinates":[-106.4428,39.8705]},"properties":{"s":70.4,"pub":true}},{"type":"Feature","geometry":{"type":"Point","coordinates":[-106.4428,39.8763]},"properties":{"s":70.4,"pub":true}},{"type":"Feature","geometry":{"type":"Point","coordinates":[-106.4428,39.8821]},"properties":{"s":70.4,"pub":true}},{"type":"Feature","geometry":{"type":"Point","coordinates":[-106.4428,39.9285]},"properties":{"s":70.4,"pub":true}},{"type":"Feature","geometry":{"type":"Point","coordinates":[-106.4428,39.9343]},"properties":{"s":70.4,"pub":true}},{"type":"Feature","geometry":{"type":"Point","coordinates":[-106.4428,39.9401]},"properties":{"s":70.4,"pub":true}},{"type":"Feature","geometry":{"type":"Point","coordinates":[-106.4428,39.9459]},"properties":{"s":70.4,"pub":true}},{"type":"Feature","geometry":{"type":"Point","coordinates":[-106.4428,39.9517]},"properties":{"s":70.4,"pub":true}},{"type":"Feature","geometry":{"type":"Point","coordinates":[-106.4353,39.8183]},"properties":{"s":96.3,"pub":true}},{"type":"Feature","geometry":{"type":"Point","coordinates":[-106.4353,39.8241]},"properties":{"s":96.3,"pub":true}},{"type":"Feature","geometry":{"type":"Point","coordinates":[-106.4353,39.8299]},"properties":{"s":96.3,"pub":true}},{"type":"Feature","geometry":{"type":"Point","coordinates":[-106.4353,39.8357]},"properties":{"s":66.7,"pub":true}},{"type":"Feature","geometry":{"type":"Point","coordinates":[-106.4353,39.8415]},"properties":{"s":66.7,"pub":true}},{"type":"Feature","geometry":{"type":"Point","coordinates":[-106.4353,39.8473]},"properties":{"s":66.7,"pub":true}},{"type":"Feature","geometry":{"type":"Point","coordinates":[-106.4353,39.8531]},"properties":{"s":66.7,"pub":true}},{"type":"Feature","geometry":{"type":"Point","coordinates":[-106.4353,39.8589]},"properties":{"s":66.7,"pub":true}},{"type":"Feature","geometry":{"type":"Point","coordinates":[-106.4353,39.8647]},"properties":{"s":70.4,"pub":true}},{"type":"Feature","geometry":{"type":"Point","coordinates":[-106.4353,39.8705]},"properties":{"s":70.4,"pub":true}},{"type":"Feature","geometry":{"type":"Point","coordinates":[-106.4353,39.8763]},"properties":{"s":70.4,"pub":true}},{"type":"Feature","geometry":{"type":"Point","coordinates":[-106.4278,39.8183]},"properties":{"s":96.3,"pub":true}},{"type":"Feature","geometry":{"type":"Point","coordinates":[-106.4278,39.8241]},"properties":{"s":96.3,"pub":true}},{"type":"Feature","geometry":{"type":"Point","coordinates":[-106.4278,39.8299]},"properties":{"s":66.7,"pub":true}},{"type":"Feature","geometry":{"type":"Point","coordinates":[-106.4278,39.8357]},"properties":{"s":66.7,"pub":true}},{"type":"Feature","geometry":{"type":"Point","coordinates":[-106.4278,39.8415]},"properties":{"s":66.7,"pub":true}},{"type":"Feature","geometry":{"type":"Point","coordinates":[-106.4278,39.8473]},"properties":{"s":66.7,"pub":true}},{"type":"Feature","geometry":{"type":"Point","coordinates":[-106.4278,39.8531]},"properties":{"s":66.7,"pub":true}},{"type":"Feature","geometry":{"type":"Point","coordinates":[-106.4278,39.8589]},"properties":{"s":66.7,"pub":true}},{"type":"Feature","geometry":{"type":"Point","coordinates":[-106.4203,39.8183]},"properties":{"s":96.3,"pub":true}},{"type":"Feature","geometry":{"type":"Point","coordinates":[-106.4203,39.8241]},"properties":{"s":96.3,"pub":true}},{"type":"Feature","geometry":{"type":"Point","coordinates":[-106.4203,39.8299]},"properties":{"s":66.7,"pub":true}},{"type":"Feature","geometry":{"type":"Point","coordinates":[-106.4203,39.8357]},"properties":{"s":66.7,"pub":true}},{"type":"Feature","geometry":{"type":"Point","coordinates":[-106.4128,39.8241]},"properties":{"s":66.7,"pub":true}}]}