{"type":"FeatureCollection","features":[{"type":"Feature","geometry":{"type":"Point","coordinates":[-106.3588,39.7626]},"properties":{"s":45.0,"pub":true}},{"type":"Feature","geometry":{"type":"Point","coordinates":[-106.3588,39.7684]},"properties":{"s":45.0,"pub":true}},{"type":"Feature","geometry":{"type":"Point","coordinates":[-106.3588,39.7742]},"properties":{"s":45.0,"pub":true}},{"type":"Feature","geometry":{"type":"Point","coordinates":[-106.3588,39.78]},"properties":{"s":45.0,"pub":true}},{"type":"Feature","geometry":{"type":"Point","coordinates":[-106.3588,39.7858]},"properties":{"s":45.0,"pub":true}},{"type":"Feature","geometry":{"type":"Point","coordinates":[-106.3513,39.7626]},"properties":{"s":45.0,"pub":true}},{"type":"Feature","geometry":{"type":"Point","coordinates":[-106.3513,39.7684]},"properties":{"s":45.0,"pub":true}},{"type":"Feature","geometry":{"type":"Point","coordinates":[-106.3513,39.7742]},"properties":{"s":45.0,"pub":true}},{"type":"Feature","geometry":{"type":"Point","coordinates":[-106.3513,39.78]},"properties":{"s":45.0,"pub":true}},{"type":"Feature","geometry":{"type":"Point","coordinates":[-106.3513,39.7858]},"properties":{"s":45.0,"pub":true}},{"type":"Feature","geometry":{"type":"Point","coordinates":[-106.3513,39.7916]},"properties":{"s":45.0,"pub":true}},{"type":"Feature","geometry":{"type":"Point","coordinates":[-106.3438,39.7626]},"properties":{"s":45.0,"pub":true}},{"type":"Feature","geometry":{"type":"Point","coordinates":[-106.3438,39.7684]},"properties":{"s":45.0,"pub":true}},{"type":"Feature","geometry":{"type":"Point","coordinates":[-106.3438,39.7742]},"properties":{"s":45.0,"pub":true}},{"type":"Feature","geometry":{"type":"Point","coordinates":[-106.3438,39.78]},"properties":{"s":45.0,"pub":true}},{"type":"Feature","geometry":{"type":"Point","coordinates":[-106.3438,39.7858]},"properties":{"s":45.0,"pub":true}},{"type":"Feature","geometry":{"type":"Point","coordinates":[-106.3438,39.7916]},"properties":{"s":45.0,"pub":true}},{"type":"Feature","geometry":{"type":"Point","coordinates":[-106.3438,39.7974]},"properties":{"s":45.0,"pub":true}},{"type":"Feature","geometry":{"type":"Point","coordinates":[-106.3438,39.8032]},"properties":{"s":45.0,"pub":true}},{"type":"Feature","geometry":{"type":"Point","coordinates":[-106.3363,39.7568]},"properties":{"s":45.0,"pub":true}},{"type":"Feature","geometry":{"type":"Point","coordinates":[-106.3363,39.7626]},"properties":{"s":45.0,"pub":true}},{"type":"Feature","geometry":{"type":"Point","coordinates":[-106.3363,39.7684]},"properties":{"s":45.0,"pub":true}},{"type":"Feature","geometry":{"type":"Point","coordinates":[-106.3363,39.7742]},"properties":{"s":45.0,"pub":true}},{"type":"Feature","geometry":{"type":"Point","coordinates":[-106.3363,39.78]},"properties":{"s":45.0,"pub":true}},{"type":"Feature","geometry":{"type":"Point","coordinates":[-106.3363,39.7858]},"properties":{"s":45.0,"pub":true}},{"type":"Feature","geometry":{"type":"Point","coordinates":[-106.3363,39.7916]},"properties":{"s":45.0,"pub":true}},{"type":"Feature","geometry":{"type":"Point","coordinates":[-106.3363,39.7974]},"properties":{"s":45.0,"pub":true}},{"type":"Feature","geometry":{"type":"Point","coordinates":[-106.3363,39.8032]},"properties":{"s":45.0,"pub":true}},{"type":"Feature","geometry":{"type":"Point","coordinates":[-106.3363,39.809]},"properties":{"s":45.0,"pub":true}},{"type":"Feature","geometry":{"type":"Point","coordinates":[-106.3288,39.751]},"properties":{"s":45.0,"pub":true}},{"type":"Feature","geometry":{"type":"Point","coordinates":[-106.3288,39.7568]},"properties":{"s":45.0,"pub":true}},{"type":"Feature","geometry":{"type":"Point","coordinates":[-106.3288,39.7626]},"properties":{"s":45.0,"pub":true}},{"type":"Feature","geometry":{"type":"Point","coordinates":[-106.3288,39.7684]},"properties":{"s":45.0,"pub":true}},{"type":"Feature","geometry":{"type":"Point","coordinates":[-106.3288,39.7742]},"properties":{"s":45.0,"pub":true}},{"type":"Feature","geometry":{"type":"Point","coordinates":[-106.3288,39.78]},"properties":{"s":45.0,"pub":true}},{"type":"Feature","geometry":{"type":"Point","coordinates":[-106.3288,39.7858]},"properties":{"s":45.0,"pub":true}},{"type":"Feature","geometry":{"type":"Point","coordinates":[-106.3288,39.7916]},"properties":{"s":45.0,"pub":true}},{"type":"Feature","geometry":{"type":"Point","coordinates":[-106.3288,39.7974]},"properties":{"s":45.0,"pub":true}},{"type":"Feature","geometry":{"type":"Point","coordinates":[-106.3288,39.8032]},"properties":{"s":45.0,"pub":true}},{"type":"Feature","geometry":{"type":"Point","coordinates":[-106.3288,39.809]},"properties":{"s":45.0,"pub":true}},{"type":"Feature","geometry":{"type":"Point","coordinates":[-106.3213,39.751]},"properties":{"s":45.0,"pub":true}},{"type":"Feature","geometry":{"type":"Point","coordinates":[-106.3213,39.7568]},"properties":{"s":45.0,"pub":true}},{"type":"Feature","geometry":{"type":"Point","coordinates":[-106.3213,39.7626]},"properties":{"s":45.0,"pub":true}},{"type":"Feature","geometry":{"type":"Point","coordinates":[-106.3213,39.7684]},"properties":{"s":45.0,"pub":true}},{"type":"Feature","geometry":{"type":"Point","coordinates":[-106.3213,39.7742]},"properties":{"s":45.0,"pub":true}},{"type":"Feature","geometry":{"type":"Point","coordinates":[-106.3213,39.78]},"properties":{"s":45.0,"pub":true}},{"type":"Feature","geometry":{"type":"Point","coordinates":[-106.3213,39.7858]},"properties":{"s":45.0,"pub":true}},{"type":"Feature","geometry":{"type":"Point","coordinates":[-106.3213,39.7916]},"properties":{"s":45.0,"pub":true}},{"type":"Feature","geometry":{"type":"Point","coordinates":[-106.3213,39.7974]},"properties":{"s":45.0,"pub":true}},{"type":"Feature","geometry":{"type":"Point","coordinates":[-106.3213,39.8032]},"properties":{"s":45.0,"pub":true}},{"type":"Feature","geometry":{"type":"Point","coordinates":[-106.3213,39.809]},"properties":{"s":45.0,"pub":true}},{"type":"Feature","geometry":{"type":"Point","coordinates":[-106.3138,39.751]},"properties":{"s":45.0,"pub":true}},{"type":"Feature","geometry":{"type":"Point","coordinates":[-106.3138,39.7568]},"properties":{"s":45.0,"pub":true}},{"type":"Feature","geometry":{"type":"Point","coordinates":[-106.3138,39.7626]},"properties":{"s":45.0,"pub":true}},{"type":"Feature","geometry":{"type":"Point","coordinates":[-106.3138,39.7684]},"properties":{"s":45.0,"pub":true}},{"type":"Feature","geometry":{"type":"Point","coordinates":[-106.3138,39.7742]},"properties":{"s":45.0,"pub":true}},{"type":"Feature","geometry":{"type":"Point","coordinates":[-106.3138,39.78]},"properties":{"s":45.0,"pub":true}},{"type":"Feature","geometry":{"type":"Point","coordinates":[-106.3138,39.7858]},"properties":{"s":45.0,"pub":true}},{"type":"Feature","geometry":{"type":"Point","coordinates":[-106.3138,39.7916]},"properties":{"s":45.0,"pub":true}},{"type":"Feature","geometry":{"type":"Point","coordinates":[-106.3138,39.7974]},"properties":{"s":45.0,"pub":true}},{"type":"Feature","geometry":{"type":"Point","coordinates":[-106.3138,39.8032]},"properties":{"s":45.0,"pub":true}},{"type":"Feature","geometry":{"type":"Point","coordinates":[-106.3138,39.809]},"properties":{"s":45.0,"pub":true}},{"type":"Feature","geometry":{"type":"Point","coordinates":[-106.3063,39.7452]},"properties":{"s":45.0,"pub":true}},{"type":"Feature","geometry":{"type":"Point","coordinates":[-106.3063,39.751]},"properties":{"s":45.0,"pub":true}},{"type":"Feature","geometry":{"type":"Point","coordinates":[-106.3063,39.7568]},"properties":{"s":45.0,"pub":true}},{"type":"Feature","geometry":{"type":"Point","coordinates":[-106.3063,39.7626]},"properties":{"s":45.0,"pub":true}},{"type":"Feature","geometry":{"type":"Point","coordinates":[-106.3063,39.7684]},"properties":{"s":45.0,"pub":true}},{"type":"Feature","geometry":{"type":"Point","coordinates":[-106.3063,39.7742]},"properties":{"s":45.0,"pub":true}},{"type":"Feature","geometry":{"type":"Point","coordinates":[-106.3063,39.78]},"properties":{"s":45.0,"pub":true}},{"type":"Feature","geometry":{"type":"Point","coordinates":[-106.3063,39.7858]},"properties":{"s":45.0,"pub":true}},{"type":"Feature","geometry":{"type":"Point","coordinates":[-106.3063,39.7916]},"properties":{"s":45.0,"pub":true}},{"type":"Feature","geometry":{"type":"Point","coordinates":[-106.3063,39.7974]},"properties":{"s":45.0,"pub":true}},{"type":"Feature","geometry":{"type":"Point","coordinates":[-106.3063,39.8032]},"properties":{"s":45.0,"pub":true}},{"type":"Feature","geometry":{"type":"Point","coordinates":[-106.2988,39.7394]},"properties":{"s":45.0,"pub":true}},{"type":"Feature","geometry":{"type":"Point","coordinates":[-106.2988,39.7452]},"properties":{"s":45.0,"pub":true}},{"type":"Feature","geometry":{"type":"Point","coordinates":[-106.2988,39.751]},"properties":{"s":45.0,"pub":true}},{"type":"Feature","geometry":{"type":"Point","coordinates":[-106.2988,39.7568]},"properties":{"s":45.0,"pub":true}},{"type":"Feature","geometry":{"type":"Point","coordinates":[-106.2988,39.7626]},"properties":{"s":45.0,"pub":true}},{"type":"Feature","geometry":{"type":"Point","coordinates":[-106.2988,39.7684]},"properties":{"s":45.0,"pub":true}},{"type":"Feature","geometry":{"type":"Point","coordinates":[-106.2988,39.7742]},"properties":{"s":45.0,"pub":true}},{"type":"Feature","geometry":{"type":"Point","coordinates":[-106.2988,39.78]},"properties":{"s":45.0,"pub":true}},{"type":"Feature","geometry":{"type":"Point","coordinates":[-106.2988,39.7858]},"properties":{"s":45.0,"pub":true}},{"type":"Feature","geometry":{"type":"Point","coordinates":[-106.2988,39.7916]},"properties":{"s":45.0,"pub":true}},{"type":"Feature","geometry":{"type":"Point","coordinates":[-106.2988,39.7974]},"properties":{"s":45.0,"pub":true}},{"type":"Feature","geometry":{"type":"Point","coordinates":[-106.2988,39.8032]},"properties":{"s":45.0,"pub":true}},{"type":"Feature","geometry":{"type":"Point","coordinates":[-106.2988,39.809]},"properties":{"s":45.0,"pub":true}},{"type":"Feature","geometry":{"type":"Point","coordinates":[-106.2913,39.7394]},"properties":{"s":45.0,"pub":true}},{"type":"Feature","geometry":{"type":"Point","coordinates":[-106.2913,39.7452]},"properties":{"s":45.0,"pub":true}},{"type":"Feature","geometry":{"type":"Point","coordinates":[-106.2913,39.751]},"properties":{"s":45.0,"pub":true}},{"type":"Feature","geometry":{"type":"Point","coordinates":[-106.2913,39.7568]},"properties":{"s":45.0,"pub":true}},{"type":"Feature","geometry":{"type":"Point","coordinates":[-106.2913,39.7626]},"properties":{"s":45.0,"pub":true}},{"type":"Feature","geometry":{"type":"Point","coordinates":[-106.2913,39.7684]},"properties":{"s":45.0,"pub":true}},{"type":"Feature","geometry":{"type":"Point","coordinates":[-106.2913,39.7742]},"properties":{"s":45.0,"pub":true}},{"type":"Feature","geometry":{"type":"Point","coordinates":[-106.2913,39.78]},"properties":{"s":47.5,"pub":true}},{"type":"Feature","geometry":{"type":"Point","coordinates":[-106.2913,39.7858]},"properties":{"s":47.5,"pub":true}},{"type":"Feature","geometry":{"type":"Point","coordinates":[-106.2913,39.7916]},"properties":{"s":47.5,"pub":true}},{"type":"Feature","geometry":{"type":"Point","coordinates":[-106.2913,39.7974]},"properties":{"s":45.0,"pub":true}},{"type":"Feature","geometry":{"type":"Point","coordinates":[-106.2913,39.8032]},"properties":{"s":45.0,"pub":true}},{"type":"Feature","geometry":{"type":"Point","coordinates":[-106.2913,39.809]},"properties":{"s":45.0,"pub":true}},{"type":"Feature","geometry":{"type":"Point","coordinates":[-106.2838,39.7452]},"properties":{"s":45.0,"pub":true}},{"type":"Feature","geometry":{"type":"Point","coordinates":[-106.2838,39.751]},"properties":{"s":45.0,"pub":true}},{"type":"Feature","geometry":{"type":"Point","coordinates":[-106.2838,39.7568]},"properties":{"s":45.0,"pub":true}},{"type":"Feature","geometry":{"type":"Point","coordinates":[-106.2838,39.7626]},"properties":{"s":45.0,"pub":true}},{"type":"Feature","geometry":{"type":"Point","coordinates":[-106.2838,39.7684]},"properties":{"s":45.0,"pub":true}},{"type":"Feature","geometry":{"type":"Point","coordinates":[-106.2838,39.7742]},"properties":{"s":45.0,"pub":true}},{"type":"Feature","geometry":{"type":"Point","coordinates":[-106.2838,39.78]},"properties":{"s":47.5,"pub":true}},{"type":"Feature","geometry":{"type":"Point","coordinates":[-106.2838,39.7858]},"properties":{"s":47.5,"pub":true}},{"type":"Feature","geometry":{"type":"Point","coordinates":[-106.2838,39.7916]},"properties":{"s":47.5,"pub":true}},{"type":"Feature","geometry":{"type":"Point","coordinates":[-106.2838,39.7974]},"properties":{"s":47.5,"pub":true}},{"type":"Feature","geometry":{"type":"Point","coordinates":[-106.2838,39.8032]},"properties":{"s":45.0,"pub":true}},{"type":"Feature","geometry":{"type":"Point","coordinates":[-106.2763,39.7452]},"properties":{"s":45.0,"pub":true}},{"type":"Feature","geometry":{"type":"Point","coordinates":[-106.2763,39.751]},"properties":{"s":45.0,"pub":true}},{"type":"Feature","geometry":{"type":"Point","coordinates":[-106.2763,39.7568]},"properties":{"s":45.0,"pub":true}},{"type":"Feature","geometry":{"type":"Point","coordinates":[-106.2763,39.7626]},"properties":{"s":45.0,"pub":true}},{"type":"Feature","geometry":{"type":"Point","coordinates":[-106.2763,39.7684]},"properties":{"s":45.0,"pub":true}},{"type":"Feature","geometry":{"type":"Point","coordinates":[-106.2763,39.7742]},"properties":{"s":45.0,"pub":true}},{"type":"Feature","geometry":{"type":"Point","coordinates":[-106.2763,39.78]},"properties":{"s":45.0,"pub":true}},{"type":"Feature","geometry":{"type":"Point","coordinates":[-106.2763,39.7858]},"properties":{"s":47.5,"pub":true}},{"type":"Feature","geometry":{"type":"Point","coordinates":[-106.2763,39.7916]},"properties":{"s":47.5,"pub":true}},{"type":"Feature","geometry":{"type":"Point","coordinates":[-106.2763,39.7974]},"properties":{"s":47.5,"pub":true}},{"type":"Feature","geometry":{"type":"Point","coordinates":[-106.2763,39.8032]},"properties":{"s":47.5,"pub":true}},{"type":"Feature","geometry":{"type":"Point","coordinates":[-106.2688,39.7452]},"properties":{"s":45.0,"pub":true}},{"type":"Feature","geometry":{"type":"Point","coordinates":[-106.2688,39.751]},"properties":{"s":45.0,"pub":true}},{"type":"Feature","geometry":{"type":"Point","coordinates":[-106.2688,39.7568]},"properties":{"s":45.0,"pub":true}},{"type":"Feature","geometry":{"type":"Point","coordinates":[-106.2688,39.7626]},"properties":{"s":45.0,"pub":true}},{"type":"Feature","geometry":{"type":"Point","coordinates":[-106.2688,39.7684]},"properties":{"s":45.0,"pub":true}},{"type":"Feature","geometry":{"type":"Point","coordinates":[-106.2688,39.7742]},"properties":{"s":45.0,"pub":true}},{"type":"Feature","geometry":{"type":"Point","coordinates":[-106.2688,39.78]},"properties":{"s":45.0,"pub":true}},{"type":"Feature","geometry":{"type":"Point","coordinates":[-106.2688,39.7858]},"properties":{"s":45.0,"pub":true}},{"type":"Feature","geometry":{"type":"Point","coordinates":[-106.2688,39.7916]},"properties":{"s":47.5,"pub":true}},{"type":"Feature","geometry":{"type":"Point","coordinates":[-106.2688,39.7974]},"properties":{"s":47.5,"pub":true}},{"type":"Feature","geometry":{"type":"Point","coordinates":[-106.2688,39.8032]},"properties":{"s":47.5,"pub":true}},{"type":"Feature","geometry":{"type":"Point","coordinates":[-106.2613,39.6872]},"properties":{"s":45.0,"pub":true}},{"type":"Feature","geometry":{"type":"Point","coordinates":[-106.2613,39.693]},"properties":{"s":45.0,"pub":true}},{"type":"Feature","geometry":{"type":"Point","coordinates":[-106.2613,39.6988]},"properties":{"s":45.0,"pub":true}},{"type":"Feature","geometry":{"type":"Point","coordinates":[-106.2613,39.7394]},"properties":{"s":45.0,"pub":true}},{"type":"Feature","geometry":{"type":"Point","coordinates":[-106.2613,39.7452]},"properties":{"s":45.0,"pub":true}},{"type":"Feature","geometry":{"type":"Point","coordinates":[-106.2613,39.751]},"properties":{"s":45.0,"pub":true}},{"type":"Feature","geometry":{"type":"Point","coordinates":[-106.2613,39.7568]},"properties":{"s":45.0,"pub":true}},{"type":"Feature","geometry":{"type":"Point","coordinates":[-106.2613,39.7626]},"properties":{"s":45.0,"pub":true}},{"type":"Feature","geometry":{"type":"Point","coordinates":[-106.2613,39.7684]},"properties":{"s":45.0,"pub":true}},{"type":"Feature","geometry":{"type":"Point","coordinates":[-106.2613,39.7742]},"properties":{"s":45.0,"pub":true}},{"type":"Feature","geometry":{"type":"Point","coordinates":[-106.2613,39.78]},"properties":{"s":45.0,"pub":true}},{"type":"Feature","geometry":{"type":"Point","coordinates":[-106.2613,39.7858]},"properties":{"s":45.0,"pub":true}},{"type":"Feature","geometry":{"type":"Point","coordinates":[-106.2613,39.7916]},"properties":{"s":45.0,"pub":true}},{"type":"Feature","geometry":{"type":"Point","coordinates":[-106.2613,39.7974]},"properties":{"s":45.0,"pub":true}},{"type":"Feature","geometry":{"type":"Point","coordinates":[-106.2613,39.8032]},"properties":{"s":47.5,"pub":true}},{"type":"Feature","geometry":{"type":"Point","coordinates":[-106.2538,39.6814]},"properties":{"s":45.0,"pub":true}},{"type":"Feature","geometry":{"type":"Point","coordinates":[-106.2538,39.6872]},"properties":{"s":45.0,"pub":true}},{"type":"Feature","geometry":{"type":"Point","coordinates":[-106.2538,39.693]},"properties":{"s":45.0,"pub":true}},{"type":"Feature","geometry":{"type":"Point","coordinates":[-106.2538,39.6988]},"properties":{"s":45.0,"pub":true}},{"type":"Feature","geometry":{"type":"Point","coordinates":[-106.2538,39.7394]},"properties":{"s":45.0,"pub":true}},{"type":"Feature","geometry":{"type":"Point","coordinates":[-106.2538,39.7452]},"properties":{"s":45.0,"pub":true}},{"type":"Feature","geometry":{"type":"Point","coordinates":[-106.2538,39.751]},"properties":{"s":45.0,"pub":true}},{"type":"Feature","geometry":{"type":"Point","coordinates":[-106.2538,39.7568]},"properties":{"s":45.0,"pub":true}},{"type":"Feature","geometry":{"type":"Point","coordinates":[-106.2538,39.7626]},"properties":{"s":45.0,"pub":true}},{"type":"Feature","geometry":{"type":"Point","coordinates":[-106.2538,39.7684]},"properties":{"s":45.0,"pub":true}},{"type":"Feature","geometry":{"type":"Point","coordinates":[-106.2538,39.7742]},"properties":{"s":45.0,"pub":true}},{"type":"Feature","geometry":{"type":"Point","coordinates":[-106.2538,39.78]},"properties":{"s":45.0,"pub":true}},{"type":"Feature","geometry":{"type":"Point","coordinates":[-106.2538,39.7858]},"properties":{"s":45.0,"pub":true}},{"type":"Feature","geometry":{"type":"Point","coordinates":[-106.2538,39.7916]},"properties":{"s":45.0,"pub":true}},{"type":"Feature","geometry":{"type":"Point","coordinates":[-106.2538,39.7974]},"properties":{"s":45.0,"pub":true}},{"type":"Feature","geometry":{"type":"Point","coordinates":[-106.2538,39.8032]},"properties":{"s":47.5,"pub":true}},{"type":"Feature","geometry":{"type":"Point","coordinates":[-106.2463,39.6814]},"properties":{"s":45.0,"pub":true}},{"type":"Feature","geometry":{"type":"Point","coordinates":[-106.2463,39.6872]},"properties":{"s":45.0,"pub":true}},{"type":"Feature","geometry":{"type":"Point","coordinates":[-106.2463,39.693]},"properties":{"s":45.0,"pub":true}},{"type":"Feature","geometry":{"type":"Point","coordinates":[-106.2463,39.6988]},"properties":{"s":45.0,"pub":true}},{"type":"Feature","geometry":{"type":"Point","coordinates":[-106.2463,39.7046]},"properties":{"s":45.0,"pub":true}},{"type":"Feature","geometry":{"type":"Point","coordinates":[-106.2463,39.7394]},"properties":{"s":45.0,"pub":true}},{"type":"Feature","geometry":{"type":"Point","coordinates":[-106.2463,39.7452]},"properties":{"s":45.0,"pub":true}},{"type":"Feature","geometry":{"type":"Point","coordinates":[-106.2463,39.751]},"properties":{"s":45.0,"pub":true}},{"type":"Feature","geometry":{"type":"Point","coordinates":[-106.2463,39.7568]},"properties":{"s":45.0,"pub":true}},{"type":"Feature","geometry":{"type":"Point","coordinates":[-106.2463,39.7626]},"properties":{"s":45.0,"pub":true}},{"type":"Feature","geometry":{"type":"Point","coordinates":[-106.2463,39.7684]},"properties":{"s":45.0,"pub":true}},{"type":"Feature","geometry":{"type":"Point","coordinates":[-106.2463,39.7742]},"properties":{"s":45.0,"pub":true}},{"type":"Feature","geometry":{"type":"Point","coordinates":[-106.2463,39.78]},"properties":{"s":45.0,"pub":true}},{"type":"Feature","geometry":{"type":"Point","coordinates":[-106.2463,39.7858]},"properties":{"s":45.0,"pub":true}},{"type":"Feature","geometry":{"type":"Point","coordinates":[-106.2463,39.7916]},"properties":{"s":45.0,"pub":true}},{"type":"Feature","geometry":{"type":"Point","coordinates":[-106.2463,39.7974]},"properties":{"s":45.0,"pub":true}},{"type":"Feature","geometry":{"type":"Point","coordinates":[-106.2388,39.6698]},"properties":{"s":45.0,"pub":true}},{"type":"Feature","geometry":{"type":"Point","coordinates":[-106.2388,39.6814]},"properties":{"s":45.0,"pub":true}},{"type":"Feature","geometry":{"type":"Point","coordinates":[-106.2388,39.6872]},"properties":{"s":45.0,"pub":true}},{"type":"Feature","geometry":{"type":"Point","coordinates":[-106.2388,39.693]},"properties":{"s":45.0,"pub":true}},{"type":"Feature","geometry":{"type":"Point","coordinates":[-106.2388,39.6988]},"properties":{"s":45.0,"pub":true}},{"type":"Feature","geometry":{"type":"Point","coordinates":[-106.2388,39.7046]},"properties":{"s":45.0,"pub":true}},{"type":"Feature","geometry":{"type":"Point","coordinates":[-106.2388,39.7104]},"properties":{"s":45.0,"pub":true}},{"type":"Feature","geometry":{"type":"Point","coordinates":[-106.2388,39.7452]},"properties":{"s":45.0,"pub":true}},{"type":"Feature","geometry":{"type":"Point","coordinates":[-106.2388,39.751]},"properties":{"s":45.0,"pub":true}},{"type":"Feature","geometry":{"type":"Point","coordinates":[-106.2388,39.7568]},"properties":{"s":45.0,"pub":true}},{"type":"Feature","geometry":{"type":"Point","coordinates":[-106.2388,39.7626]},"properties":{"s":45.0,"pub":true}},{"type":"Feature","geometry":{"type":"Point","coordinates":[-106.2388,39.7684]},"properties":{"s":45.0,"pub":true}},{"type":"Feature","geometry":{"type":"Point","coordinates":[-106.2388,39.7742]},"properties":{"s":45.0,"pub":true}},{"type":"Feature","geometry":{"type":"Point","coordinates":[-106.2388,39.78]},"properties":{"s":45.0,"pub":true}},{"type":"Feature","geometry":{"type":"Point","coordinates":[-106.2388,39.7858]},"properties":{"s":45.0,"pub":true}},{"type":"Feature","geometry":{"type":"Point","coordinates":[-106.2388,39.7916]},"properties":{"s":47.5,"pub":true}},{"type":"Feature","geometry":{"type":"Point","coordinates":[-106.2388,39.7974]},"properties":{"s":47.5,"pub":true}},{"type":"Feature","geometry":{"type":"Point","coordinates":[-106.2313,39.664]},"properties":{"s":45.0,"pub":true}},{"type":"Feature","geometry":{"type":"Point","coordinates":[-106.2313,39.6698]},"properties":{"s":45.0,"pub":true}},{"type":"Feature","geometry":{"type":"Point","coordinates":[-106.2313,39.6756]},"properties":{"s":45.0,"pub":true}},{"type":"Feature","geometry":{"type":"Point","coordinates":[-106.2313,39.6814]},"properties":{"s":45.0,"pub":true}},{"type":"Feature","geometry":{"type":"Point","coordinates":[-106.2313,39.6872]},"properties":{"s":45.0,"pub":true}},{"type":"Feature","geometry":{"type":"Point","coordinates":[-106.2313,39.693]},"properties":{"s":45.0,"pub":true}},{"type":"Feature","geometry":{"type":"Point","coordinates":[-106.2313,39.6988]},"properties":{"s":45.0,"pub":true}},{"type":"Feature","geometry":{"type":"Point","coordinates":[-106.2313,39.7046]},"properties":{"s":45.0,"pub":true}},{"type":"Feature","geometry":{"type":"Point","coordinates":[-106.2313,39.7104]},"properties":{"s":45.0,"pub":true}},{"type":"Feature","geometry":{"type":"Point","coordinates":[-106.2313,39.7162]},"properties":{"s":45.0,"pub":true}},{"type":"Feature","geometry":{"type":"Point","coordinates":[-106.2313,39.722]},"properties":{"s":45.0,"pub":true}},{"type":"Feature","geometry":{"type":"Point","coordinates":[-106.2313,39.7278]},"properties":{"s":45.0,"pub":true}},{"type":"Feature","geometry":{"type":"Point","coordinates":[-106.2313,39.7452]},"properties":{"s":45.0,"pub":true}},{"type":"Feature","geometry":{"type":"Point","coordinates":[-106.2313,39.751]},"properties":{"s":47.5,"pub":true}},{"type":"Feature","geometry":{"type":"Point","coordinates":[-106.2313,39.7568]},"properties":{"s":47.5,"pub":true}},{"type":"Feature","geometry":{"type":"Point","coordinates":[-106.2313,39.7626]},"properties":{"s":45.0,"pub":true}},{"type":"Feature","geometry":{"type":"Point","coordinates":[-106.2313,39.7684]},"properties":{"s":45.0,"pub":true}},{"type":"Feature","geometry":{"type":"Point","coordinates":[-106.2313,39.7742]},"properties":{"s":45.0,"pub":true}},{"type":"Feature","geometry":{"type":"Point","coordinates":[-106.2313,39.78]},"properties":{"s":45.0,"pub":true}},{"type":"Feature","geometry":{"type":"Point","coordinates":[-106.2313,39.7858]},"properties":{"s":45.0,"pub":true}},{"type":"Feature","geometry":{"type":"Point","coordinates":[-106.2313,39.7916]},"properties":{"s":47.5,"pub":true}},{"type":"Feature","geometry":{"type":"Point","coordinates":[-106.2238,39.664]},"properties":{"s":45.0,"pub":true}},{"type":"Feature","geometry":{"type":"Point","coordinates":[-106.2238,39.6698]},"properties":{"s":45.0,"pub":true}},{"type":"Feature","geometry":{"type":"Point","coordinates":[-106.2238,39.6756]},"properties":{"s":45.0,"pub":true}},{"type":"Feature","geometry":{"type":"Point","coordinates":[-106.2238,39.6814]},"properties":{"s":45.0,"pub":true}},{"type":"Feature","geometry":{"type":"Point","coordinates":[-106.2238,39.6872]},"properties":{"s":45.0,"pub":true}},{"type":"Feature","geometry":{"type":"Point","coordinates":[-106.2238,39.693]},"properties":{"s":45.0,"pub":true}},{"type":"Feature","geometry":{"type":"Point","coordinates":[-106.2238,39.6988]},"properties":{"s":45.0,"pub":true}},{"type":"Feature","geometry":{"type":"Point","coordinates":[-106.2238,39.7046]},"properties":{"s":45.0,"pub":true}},{"type":"Feature","geometry":{"type":"Point","coordinates":[-106.2238,39.7104]},"properties":{"s":45.0,"pub":true}},{"type":"Feature","geometry":{"type":"Point","coordinates":[-106.2238,39.7162]},"properties":{"s":45.0,"pub":true}},{"type":"Feature","geometry":{"type":"Point","coordinates":[-106.2238,39.722]},"properties":{"s":45.0,"pub":true}},{"type":"Feature","geometry":{"type":"Point","coordinates":[-106.2238,39.7278]},"properties":{"s":45.0,"pub":true}},{"type":"Feature","geometry":{"type":"Point","coordinates":[-106.2238,39.7336]},"properties":{"s":45.0,"pub":true}},{"type":"Feature","geometry":{"type":"Point","coordinates":[-106.2238,39.7394]},"properties":{"s":45.0,"pub":true}},{"type":"Feature","geometry":{"type":"Point","coordinates":[-106.2238,39.7452]},"properties":{"s":45.0,"pub":true}},{"type":"Feature","geometry":{"type":"Point","coordinates":[-106.2238,39.751]},"properties":{"s":47.5,"pub":true}},{"type":"Feature","geometry":{"type":"Point","coordinates":[-106.2238,39.7568]},"properties":{"s":47.5,"pub":true}},{"type":"Feature","geometry":{"type":"Point","coordinates":[-106.2238,39.7626]},"properties":{"s":45.0,"pub":true}},{"type":"Feature","geometry":{"type":"Point","coordinates":[-106.2238,39.7684]},"properties":{"s":45.0,"pub":true}},{"type":"Feature","geometry":{"type":"Point","coordinates":[-106.2238,39.7742]},"properties":{"s":45.0,"pub":true}},{"type":"Feature","geometry":{"type":"Point","coordinates":[-106.2238,39.78]},"properties":{"s":45.0,"pub":true}},{"type":"Feature","geometry":{"type":"Point","coordinates":[-106.2238,39.7858]},"properties":{"s":45.0,"pub":true}},{"type":"Feature","geometry":{"type":"Point","coordinates":[-106.2238,39.7916]},"properties":{"s":47.5,"pub":false}},{"type":"Feature","geometry":{"type":"Point","coordinates":[-106.2163,39.6582]},"properties":{"s":45.0,"pub":true}},{"type":"Feature","geometry":{"type":"Point","coordinates":[-106.2163,39.664]},"properties":{"s":45.0,"pub":true}},{"type":"Feature","geometry":{"type":"Point","coordinates":[-106.2163,39.6698]},"properties":{"s":45.0,"pub":true}},{"type":"Feature","geometry":{"type":"Point","coordinates":[-106.2163,39.6756]},"properties":{"s":45.0,"pub":true}},{"type":"Feature","geometry":{"type":"Point","coordinates":[-106.2163,39.6814]},"properties":{"s":45.0,"pub":true}},{"type":"Feature","geometry":{"type":"Point","coordinates":[-106.2163,39.6872]},"properties":{"s":45.0,"pub":true}},{"type":"Feature","geometry":{"type":"Point","coordinates":[-106.2163,39.693]},"properties":{"s":45.0,"pub":true}},{"type":"Feature","geometry":{"type":"Point","coordinates":[-106.2163,39.6988]},"properties":{"s":45.0,"pub":true}},{"type":"Feature","geometry":{"type":"Point","coordinates":[-106.2163,39.7046]},"properties":{"s":45.0,"pub":true}},{"type":"Feature","geometry":{"type":"Point","coordinates":[-106.2163,39.7104]},"properties":{"s":45.0,"pub":true}},{"type":"Feature","geometry":{"type":"Point","coordinates":[-106.2163,39.7162]},"properties":{"s":45.0,"pub":true}},{"type":"Feature","geometry":{"type":"Point","coordinates":[-106.2163,39.722]},"properties":{"s":45.0,"pub":true}},{"type":"Feature","geometry":{"type":"Point","coordinates":[-106.2163,39.7278]},"properties":{"s":45.0,"pub":true}},{"type":"Feature","geometry":{"type":"Point","coordinates":[-106.2163,39.7336]},"properties":{"s":45.0,"pub":true}},{"type":"Feature","geometry":{"type":"Point","coordinates":[-106.2163,39.7394]},"properties":{"s":45.0,"pub":true}},{"type":"Feature","geometry":{"type":"Point","coordinates":[-106.2163,39.7452]},"properties":{"s":45.0,"pub":true}},{"type":"Feature","geometry":{"type":"Point","coordinates":[-106.2163,39.751]},"properties":{"s":67.5,"pub":true}},{"type":"Feature","geometry":{"type":"Point","coordinates":[-106.2163,39.7568]},"properties":{"s":47.5,"pub":true}},{"type":"Feature","geometry":{"type":"Point","coordinates":[-106.2163,39.7626]},"properties":{"s":45.0,"pub":true}},{"type":"Feature","geometry":{"type":"Point","coordinates":[-106.2163,39.7684]},"properties":{"s":45.0,"pub":true}},{"type":"Feature","geometry":{"type":"Point","coordinates":[-106.2163,39.7742]},"properties":{"s":45.0,"pub":true}},{"type":"Feature","geometry":{"type":"Point","coordinates":[-106.2163,39.78]},"properties":{"s":45.0,"pub":true}},{"type":"Feature","geometry":{"type":"Point","coordinates":[-106.2163,39.7858]},"properties":{"s":67.5,"pub":true}},{"type":"Feature","geometry":{"type":"Point","coordinates":[-106.2163,39.7916]},"properties":{"s":67.5,"pub":true}},{"type":"Feature","geometry":{"type":"Point","coordinates":[-106.2163,39.7974]},"properties":{"s":67.5,"pub":false}},{"type":"Feature","geometry":{"type":"Point","coordinates":[-106.2088,39.519]},"properties":{"s":45.0,"pub":true}},{"type":"Feature","geometry":{"type":"Point","coordinates":[-106.2088,39.5248]},"properties":{"s":45.0,"pub":true}},{"type":"Feature","geometry":{"type":"Point","coordinates":[-106.2088,39.5306]},"properties":{"s":45.0,"pub":true}},{"type":"Feature","geometry":{"type":"Point","coordinates":[-106.2088,39.5364]},"properties":{"s":45.0,"pub":true}},{"type":"Feature","geometry":{"type":"Point","coordinates":[-106.2088,39.5422]},"properties":{"s":45.0,"pub":true}},{"type":"Feature","geometry":{"type":"Point","coordinates":[-106.2088,39.5654]},"properties":{"s":45.0,"pub":true}},{"type":"Feature","geometry":{"type":"Point","coordinates":[-106.2088,39.5712]},"properties":{"s":45.0,"pub":true}},{"type":"Feature","geometry":{"type":"Point","coordinates":[-106.2088,39.577]},"properties":{"s":45.0,"pub":true}},{"type":"Feature","geometry":{"type":"Point","coordinates":[-106.2088,39.5828]},"properties":{"s":45.0,"pub":true}},{"type":"Feature","geometry":{"type":"Point","coordinates":[-106.2088,39.5886]},"properties":{"s":45.0,"pub":true}},{"type":"Feature","geometry":{"type":"Point","coordinates":[-106.2088,39.5944]},"properties":{"s":45.0,"pub":true}},{"type":"Feature","geometry":{"type":"Point","coordinates":[-106.2088,39.6582]},"properties":{"s":45.0,"pub":true}},{"type":"Feature","geometry":{"type":"Point","coordinates":[-106.2088,39.664]},"properties":{"s":45.0,"pub":true}},{"type":"Feature","geometry":{"type":"Point","coordinates":[-106.2088,39.6698]},"properties":{"s":45.0,"pub":true}},{"type":"Feature","geometry":{"type":"Point","coordinates":[-106.2088,39.6756]},"properties":{"s":45.0,"pub":true}},{"type":"Feature","geometry":{"type":"Point","coordinates":[-106.2088,39.6814]},"properties":{"s":45.0,"pub":true}},{"type":"Feature","geometry":{"type":"Point","coordinates":[-106.2088,39.6872]},"properties":{"s":45.0,"pub":true}},{"type":"Feature","geometry":{"type":"Point","coordinates":[-106.2088,39.693]},"properties":{"s":45.0,"pub":true}},{"type":"Feature","geometry":{"type":"Point","coordinates":[-106.2088,39.6988]},"properties":{"s":45.0,"pub":true}},{"type":"Feature","geometry":{"type":"Point","coordinates":[-106.2088,39.7046]},"properties":{"s":45.0,"pub":true}},{"type":"Feature","geometry":{"type":"Point","coordinates":[-106.2088,39.7104]},"properties":{"s":45.0,"pub":true}},{"type":"Feature","geometry":{"type":"Point","coordinates":[-106.2088,39.7162]},"properties":{"s":45.0,"pub":true}},{"type":"Feature","geometry":{"type":"Point","coordinates":[-106.2088,39.722]},"properties":{"s":45.0,"pub":true}},{"type":"Feature","geometry":{"type":"Point","coordinates":[-106.2088,39.7278]},"properties":{"s":45.0,"pub":true}},{"type":"Feature","geometry":{"type":"Point","coordinates":[-106.2088,39.7336]},"properties":{"s":45.0,"pub":true}},{"type":"Feature","geometry":{"type":"Point","coordinates":[-106.2088,39.7394]},"properties":{"s":45.0,"pub":true}},{"type":"Feature","geometry":{"type":"Point","coordinates":[-106.2088,39.7452]},"properties":{"s":45.0,"pub":true}},{"type":"Feature","geometry":{"type":"Point","coordinates":[-106.2088,39.751]},"properties":{"s":67.5,"pub":true}},{"type":"Feature","geometry":{"type":"Point","coordinates":[-106.2088,39.7568]},"properties":{"s":67.5,"pub":true}},{"type":"Feature","geometry":{"type":"Point","coordinates":[-106.2088,39.7626]},"properties":{"s":45.0,"pub":true}},{"type":"Feature","geometry":{"type":"Point","coordinates":[-106.2088,39.7684]},"properties":{"s":45.0,"pub":true}},{"type":"Feature","geometry":{"type":"Point","coordinates":[-106.2088,39.7742]},"properties":{"s":45.0,"pub":true}},{"type":"Feature","geometry":{"type":"Point","coordinates":[-106.2088,39.78]},"properties":{"s":67.5,"pub":true}},{"type":"Feature","geometry":{"type":"Point","coordinates":[-106.2088,39.7858]},"properties":{"s":67.5,"pub":false}},{"type":"Feature","geometry":{"type":"Point","coordinates":[-106.2088,39.7916]},"properties":{"s":72.5,"pub":false}},{"type":"Feature","geometry":{"type":"Point","coordinates":[-106.2088,39.7974]},"properties":{"s":67.5,"pub":false}},{"type":"Feature","geometry":{"type":"Point","coordinates":[-106.2013,39.5074]},"properties":{"s":45.0,"pub":true}},{"type":"Feature","geometry":{"type":"Point","coordinates":[-106.2013,39.5132]},"properties":{"s":45.0,"pub":true}},{"type":"Feature","geometry":{"type":"Point","coordinates":[-106.2013,39.519]},"properties":{"s":45.0,"pub":true}},{"type":"Feature","geometry":{"type":"Point","coordinates":[-106.2013,39.5248]},"properties":{"s":45.0,"pub":true}},{"type":"Feature","geometry":{"type":"Point","coordinates":[-106.2013,39.5306]},"properties":{"s":45.0,"pub":true}},{"type":"Feature","geometry":{"type":"Point","coordinates":[-106.2013,39.5364]},"properties":{"s":45.0,"pub":true}},{"type":"Feature","geometry":{"type":"Point","coordinates":[-106.2013,39.5422]},"properties":{"s":45.0,"pub":true}},{"type":"Feature","geometry":{"type":"Point","coordinates":[-106.2013,39.548]},"properties":{"s":45.0,"pub":true}},{"type":"Feature","geometry":{"type":"Point","coordinates":[-106.2013,39.5596]},"properties":{"s":45.0,"pub":true}},{"type":"Feature","geometry":{"type":"Point","coordinates":[-106.2013,39.5654]},"properties":{"s":45.0,"pub":true}},{"type":"Feature","geometry":{"type":"Point","coordinates":[-106.2013,39.5712]},"properties":{"s":45.0,"pub":true}},{"type":"Feature","geometry":{"type":"Point","coordinates":[-106.2013,39.577]},"properties":{"s":45.0,"pub":true}},{"type":"Feature","geometry":{"type":"Point","coordinates":[-106.2013,39.5828]},"properties":{"s":45.0,"pub":true}},{"type":"Feature","geometry":{"type":"Point","coordinates":[-106.2013,39.5886]},"properties":{"s":45.0,"pub":true}},{"type":"Feature","geometry":{"type":"Point","coordinates":[-106.2013,39.5944]},"properties":{"s":45.0,"pub":true}},{"type":"Feature","geometry":{"type":"Point","coordinates":[-106.2013,39.6002]},"properties":{"s":45.0,"pub":true}},{"type":"Feature","geometry":{"type":"Point","coordinates":[-106.2013,39.6582]},"properties":{"s":45.0,"pub":true}},{"type":"Feature","geometry":{"type":"Point","coordinates":[-106.2013,39.664]},"properties":{"s":45.0,"pub":true}},{"type":"Feature","geometry":{"type":"Point","coordinates":[-106.2013,39.6698]},"properties":{"s":45.0,"pub":true}},{"type":"Feature","geometry":{"type":"Point","coordinates":[-106.2013,39.6756]},"properties":{"s":45.0,"pub":true}},{"type":"Feature","geometry":{"type":"Point","coordinates":[-106.2013,39.6814]},"properties":{"s":45.0,"pub":true}},{"type":"Feature","geometry":{"type":"Point","coordinates":[-106.2013,39.6872]},"properties":{"s":45.0,"pub":true}},{"type":"Feature","geometry":{"type":"Point","coordinates":[-106.2013,39.693]},"properties":{"s":45.0,"pub":true}},{"type":"Feature","geometry":{"type":"Point","coordinates":[-106.2013,39.6988]},"properties":{"s":45.0,"pub":true}},{"type":"Feature","geometry":{"type":"Point","coordinates":[-106.2013,39.7046]},"properties":{"s":45.0,"pub":true}},{"type":"Feature","geometry":{"type":"Point","coordinates":[-106.2013,39.7104]},"properties":{"s":45.0,"pub":true}},{"type":"Feature","geometry":{"type":"Point","coordinates":[-106.2013,39.7162]},"properties":{"s":45.0,"pub":true}},{"type":"Feature","geometry":{"type":"Point","coordinates":[-106.2013,39.722]},"properties":{"s":45.0,"pub":true}},{"type":"Feature","geometry":{"type":"Point","coordinates":[-106.2013,39.7278]},"properties":{"s":45.0,"pub":true}},{"type":"Feature","geometry":{"type":"Point","coordinates":[-106.2013,39.7336]},"properties":{"s":45.0,"pub":true}},{"type":"Feature","geometry":{"type":"Point","coordinates":[-106.2013,39.7394]},"properties":{"s":45.0,"pub":true}},{"type":"Feature","geometry":{"type":"Point","coordinates":[-106.2013,39.7452]},"properties":{"s":45.0,"pub":true}},{"type":"Feature","geometry":{"type":"Point","coordinates":[-106.2013,39.751]},"properties":{"s":67.5,"pub":true}},{"type":"Feature","geometry":{"type":"Point","coordinates":[-106.2013,39.7568]},"properties":{"s":67.5,"pub":true}},{"type":"Feature","geometry":{"type":"Point","coordinates":[-106.2013,39.7626]},"properties":{"s":67.5,"pub":true}},{"type":"Feature","geometry":{"type":"Point","coordinates":[-106.2013,39.7684]},"properties":{"s":67.5,"pub":true}},{"type":"Feature","geometry":{"type":"Point","coordinates":[-106.2013,39.7742]},"properties":{"s":67.5,"pub":true}},{"type":"Feature","geometry":{"type":"Point","coordinates":[-106.2013,39.78]},"properties":{"s":67.5,"pub":true}},{"type":"Feature","geometry":{"type":"Point","coordinates":[-106.2013,39.7858]},"properties":{"s":72.5,"pub":false}},{"type":"Feature","geometry":{"type":"Point","coordinates":[-106.2013,39.7916]},"properties":{"s":72.5,"pub":false}},{"type":"Feature","geometry":{"type":"Point","coordinates":[-106.2013,39.7974]},"properties":{"s":67.5,"pub":false}},{"type":"Feature","geometry":{"type":"Point","coordinates":[-106.2013,39.8032]},"properties":{"s":67.5,"pub":false}},{"type":"Feature","geometry":{"type":"Point","coordinates":[-106.1938,39.5074]},"properties":{"s":45.0,"pub":true}},{"type":"Feature","geometry":{"type":"Point","coordinates":[-106.1938,39.5132]},"properties":{"s":45.0,"pub":true}},{"type":"Feature","geometry":{"type":"Point","coordinates":[-106.1938,39.519]},"properties":{"s":45.0,"pub":true}},{"type":"Feature","geometry":{"type":"Point","coordinates":[-106.1938,39.5248]},"properties":{"s":45.0,"pub":true}},{"type":"Feature","geometry":{"type":"Point","coordinates":[-106.1938,39.5306]},"properties":{"s":45.0,"pub":true}},{"type":"Feature","geometry":{"type":"Point","coordinates":[-106.1938,39.5364]},"properties":{"s":45.0,"pub":true}},{"type":"Feature","geometry":{"type":"Point","coordinates":[-106.1938,39.5422]},"properties":{"s":45.0,"pub":true}},{"type":"Feature","geometry":{"type":"Point","coordinates":[-106.1938,39.548]},"properties":{"s":45.0,"pub":true}},{"type":"Feature","geometry":{"type":"Point","coordinates":[-106.1938,39.5538]},"properties":{"s":45.0,"pub":true}},{"type":"Feature","geometry":{"type":"Point","coordinates":[-106.1938,39.5596]},"properties":{"s":45.0,"pub":true}},{"type":"Feature","geometry":{"type":"Point","coordinates":[-106.1938,39.5654]},"properties":{"s":45.0,"pub":true}},{"type":"Feature","geometry":{"type":"Point","coordinates":[-106.1938,39.5712]},"properties":{"s":45.0,"pub":true}},{"type":"Feature","geometry":{"type":"Point","coordinates":[-106.1938,39.577]},"properties":{"s":45.0,"pub":true}},{"type":"Feature","geometry":{"type":"Point","coordinates":[-106.1938,39.5828]},"properties":{"s":45.0,"pub":true}},{"type":"Feature","geometry":{"type":"Point","coordinates":[-106.1938,39.5886]},"properties":{"s":45.0,"pub":true}},{"type":"Feature","geometry":{"type":"Point","coordinates":[-106.1938,39.5944]},"properties":{"s":45.0,"pub":true}},{"type":"Feature","geometry":{"type":"Point","coordinates":[-106.1938,39.6002]},"properties":{"s":45.0,"pub":true}},{"type":"Feature","geometry":{"type":"Point","coordinates":[-106.1938,39.6524]},"properties":{"s":45.0,"pub":true}},{"type":"Feature","geometry":{"type":"Point","coordinates":[-106.1938,39.6582]},"properties":{"s":45.0,"pub":true}},{"type":"Feature","geometry":{"type":"Point","coordinates":[-106.1938,39.664]},"properties":{"s":45.0,"pub":true}},{"type":"Feature","geometry":{"type":"Point","coordinates":[-106.1938,39.6698]},"properties":{"s":45.0,"pub":true}},{"type":"Feature","geometry":{"type":"Point","coordinates":[-106.1938,39.6756]},"properties":{"s":45.0,"pub":true}},{"type":"Feature","geometry":{"type":"Point","coordinates":[-106.1938,39.6814]},"properties":{"s":45.0,"pub":true}},{"type":"Feature","geometry":{"type":"Point","coordinates":[-106.1938,39.6872]},"properties":{"s":45.0,"pub":true}},{"type":"Feature","geometry":{"type":"Point","coordinates":[-106.1938,39.693]},"properties":{"s":45.0,"pub":true}},{"type":"Feature","geometry":{"type":"Point","coordinates":[-106.1938,39.6988]},"properties":{"s":45.0,"pub":true}},{"type":"Feature","geometry":{"type":"Point","coordinates":[-106.1938,39.7046]},"properties":{"s":45.0,"pub":true}},{"type":"Feature","geometry":{"type":"Point","coordinates":[-106.1938,39.7104]},"properties":{"s":45.0,"pub":true}},{"type":"Feature","geometry":{"type":"Point","coordinates":[-106.1938,39.7162]},"properties":{"s":45.0,"pub":true}},{"type":"Feature","geometry":{"type":"Point","coordinates":[-106.1938,39.722]},"properties":{"s":45.0,"pub":true}},{"type":"Feature","geometry":{"type":"Point","coordinates":[-106.1938,39.7278]},"properties":{"s":45.0,"pub":true}},{"type":"Feature","geometry":{"type":"Point","coordinates":[-106.1938,39.7336]},"properties":{"s":45.0,"pub":true}},{"type":"Feature","geometry":{"type":"Point","coordinates":[-106.1938,39.7394]},"properties":{"s":45.0,"pub":true}},{"type":"Feature","geometry":{"type":"Point","coordinates":[-106.1938,39.7452]},"properties":{"s":45.0,"pub":true}},{"type":"Feature","geometry":{"type":"Point","coordinates":[-106.1938,39.751]},"properties":{"s":67.5,"pub":true}},{"type":"Feature","geometry":{"type":"Point","coordinates":[-106.1938,39.7568]},"properties":{"s":67.5,"pub":true}},{"type":"Feature","geometry":{"type":"Point","coordinates":[-106.1938,39.7626]},"properties":{"s":67.5,"pub":true}},{"type":"Feature","geometry":{"type":"Point","coordinates":[-106.1938,39.7684]},"properties":{"s":67.5,"pub":true}},{"type":"Feature","geometry":{"type":"Point","coordinates":[-106.1938,39.7742]},"properties":{"s":67.5,"pub":true}},{"type":"Feature","geometry":{"type":"Point","coordinates":[-106.1938,39.78]},"properties":{"s":67.5,"pub":false}},{"type":"Feature","geometry":{"type":"Point","coordinates":[-106.1938,39.7858]},"properties":{"s":67.5,"pub":false}},{"type":"Feature","geometry":{"type":"Point","coordinates":[-106.1938,39.7916]},"properties":{"s":72.5,"pub":false}},{"type":"Feature","geometry":{"type":"Point","coordinates":[-106.1938,39.7974]},"properties":{"s":72.5,"pub":false}},{"type":"Feature","geometry":{"type":"Point","coordinates":[-106.1938,39.8032]},"properties":{"s":67.5,"pub":false}},{"type":"Feature","geometry":{"type":"Point","coordinates":[-106.1863,39.5074]},"properties":{"s":45.0,"pub":true}},{"type":"Feature","geometry":{"type":"Point","coordinates":[-106.1863,39.5132]},"properties":{"s":45.0,"pub":true}},{"type":"Feature","geometry":{"type":"Point","coordinates":[-106.1863,39.519]},"properties":{"s":45.0,"pub":true}},{"type":"Feature","geometry":{"type":"Point","coordinates":[-106.1863,39.5248]},"properties":{"s":45.0,"pub":true}},{"type":"Feature","geometry":{"type":"Point","coordinates":[-106.1863,39.5306]},"properties":{"s":45.0,"pub":true}},{"type":"Feature","geometry":{"type":"Point","coordinates":[-106.1863,39.5364]},"properties":{"s":45.0,"pub":true}},{"type":"Feature","geometry":{"type":"Point","coordinates":[-106.1863,39.5422]},"properties":{"s":45.0,"pub":true}},{"type":"Feature","geometry":{"type":"Point","coordinates":[-106.1863,39.548]},"properties":{"s":45.0,"pub":true}},{"type":"Feature","geometry":{"type":"Point","coordinates":[-106.1863,39.5538]},"properties":{"s":45.0,"pub":true}},{"type":"Feature","geometry":{"type":"Point","coordinates":[-106.1863,39.5596]},"properties":{"s":45.0,"pub":true}},{"type":"Feature","geometry":{"type":"Point","coordinates":[-106.1863,39.5654]},"properties":{"s":45.0,"pub":true}},{"type":"Feature","geometry":{"type":"Point","coordinates":[-106.1863,39.5712]},"properties":{"s":45.0,"pub":true}},{"type":"Feature","geometry":{"type":"Point","coordinates":[-106.1863,39.577]},"properties":{"s":45.0,"pub":true}},{"type":"Feature","geometry":{"type":"Point","coordinates":[-106.1863,39.5828]},"properties":{"s":45.0,"pub":true}},{"type":"Feature","geometry":{"type":"Point","coordinates":[-106.1863,39.5886]},"properties":{"s":45.0,"pub":true}},{"type":"Feature","geometry":{"type":"Point","coordinates":[-106.1863,39.5944]},"properties":{"s":45.0,"pub":true}},{"type":"Feature","geometry":{"type":"Point","coordinates":[-106.1863,39.6002]},"properties":{"s":45.0,"pub":true}},{"type":"Feature","geometry":{"type":"Point","coordinates":[-106.1863,39.6582]},"properties":{"s":45.0,"pub":true}},{"type":"Feature","geometry":{"type":"Point","coordinates":[-106.1863,39.664]},"properties":{"s":45.0,"pub":true}},{"type":"Feature","geometry":{"type":"Point","coordinates":[-106.1863,39.6698]},"properties":{"s":45.0,"pub":true}},{"type":"Feature","geometry":{"type":"Point","coordinates":[-106.1863,39.6756]},"properties":{"s":45.0,"pub":true}},{"type":"Feature","geometry":{"type":"Point","coordinates":[-106.1863,39.6814]},"properties":{"s":45.0,"pub":true}},{"type":"Feature","geometry":{"type":"Point","coordinates":[-106.1863,39.6872]},"properties":{"s":45.0,"pub":true}},{"type":"Feature","geometry":{"type":"Point","coordinates":[-106.1863,39.693]},"properties":{"s":45.0,"pub":true}},{"type":"Feature","geometry":{"type":"Point","coordinates":[-106.1863,39.6988]},"properties":{"s":45.0,"pub":true}},{"type":"Feature","geometry":{"type":"Point","coordinates":[-106.1863,39.7046]},"properties":{"s":45.0,"pub":true}},{"type":"Feature","geometry":{"type":"Point","coordinates":[-106.1863,39.7104]},"properties":{"s":45.0,"pub":true}},{"type":"Feature","geometry":{"type":"Point","coordinates":[-106.1863,39.7162]},"properties":{"s":45.0,"pub":true}},{"type":"Feature","geometry":{"type":"Point","coordinates":[-106.1863,39.722]},"properties":{"s":45.0,"pub":true}},{"type":"Feature","geometry":{"type":"Point","coordinates":[-106.1863,39.7278]},"properties":{"s":45.0,"pub":true}},{"type":"Feature","geometry":{"type":"Point","coordinates":[-106.1863,39.7336]},"properties":{"s":45.0,"pub":true}},{"type":"Feature","geometry":{"type":"Point","coordinates":[-106.1863,39.7394]},"properties":{"s":65.0,"pub":true}},{"type":"Feature","geometry":{"type":"Point","coordinates":[-106.1863,39.7452]},"properties":{"s":67.5,"pub":true}},{"type":"Feature","geometry":{"type":"Point","coordinates":[-106.1863,39.751]},"properties":{"s":67.5,"pub":true}},{"type":"Feature","geometry":{"type":"Point","coordinates":[-106.1863,39.7568]},"properties":{"s":67.5,"pub":true}},{"type":"Feature","geometry":{"type":"Point","coordinates":[-106.1863,39.7626]},"properties":{"s":67.5,"pub":true}},{"type":"Feature","geometry":{"type":"Point","coordinates":[-106.1863,39.7684]},"properties":{"s":67.5,"pub":true}},{"type":"Feature","geometry":{"type":"Point","coordinates":[-106.1863,39.7742]},"properties":{"s":67.5,"pub":true}},{"type":"Feature","geometry":{"type":"Point","coordinates":[-106.1863,39.78]},"properties":{"s":67.5,"pub":false}},{"type":"Feature","geometry":{"type":"Point","coordinates":[-106.1863,39.7858]},"properties":{"s":67.5,"pub":false}},{"type":"Feature","geometry":{"type":"Point","coordinates":[-106.1863,39.7916]},"properties":{"s":72.5,"pub":false}},{"type":"Feature","geometry":{"type":"Point","coordinates":[-106.1863,39.7974]},"properties":{"s":72.5,"pub":false}},{"type":"Feature","geometry":{"type":"Point","coordinates":[-106.1863,39.8032]},"properties":{"s":67.5,"pub":false}},{"type":"Feature","geometry":{"type":"Point","coordinates":[-106.1788,39.5074]},"properties":{"s":45.0,"pub":true}},{"type":"Feature","geometry":{"type":"Point","coordinates":[-106.1788,39.5132]},"properties":{"s":45.0,"pub":true}},{"type":"Feature","geometry":{"type":"Point","coordinates":[-106.1788,39.519]},"properties":{"s":45.0,"pub":true}},{"type":"Feature","geometry":{"type":"Point","coordinates":[-106.1788,39.5248]},"properties":{"s":45.0,"pub":true}},{"type":"Feature","geometry":{"type":"Point","coordinates":[-106.1788,39.5306]},"properties":{"s":45.0,"pub":true}},{"type":"Feature","geometry":{"type":"Point","coordinates":[-106.1788,39.5364]},"properties":{"s":45.0,"pub":true}},{"type":"Feature","geometry":{"type":"Point","coordinates":[-106.1788,39.5422]},"properties":{"s":45.0,"pub":true}},{"type":"Feature","geometry":{"type":"Point","coordinates":[-106.1788,39.548]},"properties":{"s":45.0,"pub":true}},{"type":"Feature","geometry":{"type":"Point","coordinates":[-106.1788,39.5538]},"properties":{"s":45.0,"pub":true}},{"type":"Feature","geometry":{"type":"Point","coordinates":[-106.1788,39.5596]},"properties":{"s":45.0,"pub":true}},{"type":"Feature","geometry":{"type":"Point","coordinates":[-106.1788,39.5654]},"properties":{"s":45.0,"pub":true}},{"type":"Feature","geometry":{"type":"Point","coordinates":[-106.1788,39.5712]},"properties":{"s":45.0,"pub":true}},{"type":"Feature","geometry":{"type":"Point","coordinates":[-106.1788,39.577]},"properties":{"s":45.0,"pub":true}},{"type":"Feature","geometry":{"type":"Point","coordinates":[-106.1788,39.5828]},"properties":{"s":45.0,"pub":true}},{"type":"Feature","geometry":{"type":"Point","coordinates":[-106.1788,39.5886]},"properties":{"s":45.0,"pub":true}},{"type":"Feature","geometry":{"type":"Point","coordinates":[-106.1788,39.5944]},"properties":{"s":45.0,"pub":true}},{"type":"Feature","geometry":{"type":"Point","coordinates":[-106.1788,39.6002]},"properties":{"s":45.0,"pub":true}},{"type":"Feature","geometry":{"type":"Point","coordinates":[-106.1788,39.606]},"properties":{"s":45.0,"pub":true}},{"type":"Feature","geometry":{"type":"Point","coordinates":[-106.1788,39.6408]},"properties":{"s":45.0,"pub":true}},{"type":"Feature","geometry":{"type":"Point","coordinates":[-106.1788,39.6466]},"properties":{"s":45.0,"pub":true}},{"type":"Feature","geometry":{"type":"Point","coordinates":[-106.1788,39.6524]},"properties":{"s":45.0,"pub":true}},{"type":"Feature","geometry":{"type":"Point","coordinates":[-106.1788,39.6582]},"properties":{"s":45.0,"pub":true}},{"type":"Feature","geometry":{"type":"Point","coordinates":[-106.1788,39.664]},"properties":{"s":45.0,"pub":true}},{"type":"Feature","geometry":{"type":"Point","coordinates":[-106.1788,39.6698]},"properties":{"s":45.0,"pub":true}},{"type":"Feature","geometry":{"type":"Point","coordinates":[-106.1788,39.6756]},"properties":{"s":45.0,"pub":true}},{"type":"Feature","geometry":{"type":"Point","coordinates":[-106.1788,39.6814]},"properties":{"s":45.0,"pub":true}},{"type":"Feature","geometry":{"type":"Point","coordinates":[-106.1788,39.6872]},"properties":{"s":45.0,"pub":true}},{"type":"Feature","geometry":{"type":"Point","coordinates":[-106.1788,39.693]},"properties":{"s":45.0,"pub":true}},{"type":"Feature","geometry":{"type":"Point","coordinates":[-106.1788,39.6988]},"properties":{"s":45.0,"pub":true}},{"type":"Feature","geometry":{"type":"Point","coordinates":[-106.1788,39.7046]},"properties":{"s":45.0,"pub":true}},{"type":"Feature","geometry":{"type":"Point","coordinates":[-106.1788,39.7104]},"properties":{"s":47.5,"pub":true}},{"type":"Feature","geometry":{"type":"Point","coordinates":[-106.1788,39.7162]},"properties":{"s":47.5,"pub":true}},{"type":"Feature","geometry":{"type":"Point","coordinates":[-106.1788,39.722]},"properties":{"s":45.0,"pub":true}},{"type":"Feature","geometry":{"type":"Point","coordinates":[-106.1788,39.7278]},"properties":{"s":45.0,"pub":true}},{"type":"Feature","geometry":{"type":"Point","coordinates":[-106.1788,39.7336]},"properties":{"s":65.0,"pub":true}},{"type":"Feature","geometry":{"type":"Point","coordinates":[-106.1788,39.7394]},"properties":{"s":67.5,"pub":true}},{"type":"Feature","geometry":{"type":"Point","coordinates":[-106.1788,39.7452]},"properties":{"s":67.5,"pub":true}},{"type":"Feature","geometry":{"type":"Point","coordinates":[-106.1788,39.751]},"properties":{"s":67.5,"pub":true}},{"type":"Feature","geometry":{"type":"Point","coordinates":[-106.1788,39.7568]},"properties":{"s":67.5,"pub":true}},{"type":"Feature","geometry":{"type":"Point","coordinates":[-106.1788,39.7626]},"properties":{"s":67.5,"pub":true}},{"type":"Feature","geometry":{"type":"Point","coordinates":[-106.1788,39.7684]},"properties":{"s":67.5,"pub":true}},{"type":"Feature","geometry":{"type":"Point","coordinates":[-106.1788,39.7742]},"properties":{"s":67.5,"pub":true}},{"type":"Feature","geometry":{"type":"Point","coordinates":[-106.1788,39.78]},"properties":{"s":72.5,"pub":false}},{"type":"Feature","geometry":{"type":"Point","coordinates":[-106.1788,39.7858]},"properties":{"s":72.5,"pub":false}},{"type":"Feature","geometry":{"type":"Point","coordinates":[-106.1788,39.7916]},"properties":{"s":72.5,"pub":false}},{"type":"Feature","geometry":{"type":"Point","coordinates":[-106.1788,39.7974]},"properties":{"s":72.5,"pub":false}},{"type":"Feature","geometry":{"type":"Point","coordinates":[-106.1788,39.8032]},"properties":{"s":67.5,"pub":false}},{"type":"Feature","geometry":{"type":"Point","coordinates":[-106.1713,39.5074]},"properties":{"s":45.0,"pub":true}},{"type":"Feature","geometry":{"type":"Point","coordinates":[-106.1713,39.5132]},"properties":{"s":45.0,"pub":true}},{"type":"Feature","geometry":{"type":"Point","coordinates":[-106.1713,39.519]},"properties":{"s":45.0,"pub":true}},{"type":"Feature","geometry":{"type":"Point","coordinates":[-106.1713,39.5248]},"properties":{"s":45.0,"pub":true}},{"type":"Feature","geometry":{"type":"Point","coordinates":[-106.1713,39.5306]},"properties":{"s":45.0,"pub":true}},{"type":"Feature","geometry":{"type":"Point","coordinates":[-106.1713,39.5364]},"properties":{"s":45.0,"pub":true}},{"type":"Feature","geometry":{"type":"Point","coordinates":[-106.1713,39.5422]},"properties":{"s":45.0,"pub":true}},{"type":"Feature","geometry":{"type":"Point","coordinates":[-106.1713,39.548]},"properties":{"s":45.0,"pub":true}},{"type":"Feature","geometry":{"type":"Point","coordinates":[-106.1713,39.5538]},"properties":{"s":45.0,"pub":true}},{"type":"Feature","geometry":{"type":"Point","coordinates":[-106.1713,39.5596]},"properties":{"s":45.0,"pub":true}},{"type":"Feature","geometry":{"type":"Point","coordinates":[-106.1713,39.5654]},"properties":{"s":45.0,"pub":true}},{"type":"Feature","geometry":{"type":"Point","coordinates":[-106.1713,39.5712]},"properties":{"s":45.0,"pub":true}},{"type":"Feature","geometry":{"type":"Point","coordinates":[-106.1713,39.577]},"properties":{"s":45.0,"pub":true}},{"type":"Feature","geometry":{"type":"Point","coordinates":[-106.1713,39.5828]},"properties":{"s":45.0,"pub":true}},{"type":"Feature","geometry":{"type":"Point","coordinates":[-106.1713,39.5886]},"properties":{"s":45.0,"pub":true}},{"type":"Feature","geometry":{"type":"Point","coordinates":[-106.1713,39.5944]},"properties":{"s":45.0,"pub":true}},{"type":"Feature","geometry":{"type":"Point","coordinates":[-106.1713,39.6002]},"properties":{"s":45.0,"pub":true}},{"type":"Feature","geometry":{"type":"Point","coordinates":[-106.1713,39.606]},"properties":{"s":45.0,"pub":true}},{"type":"Feature","geometry":{"type":"Point","coordinates":[-106.1713,39.6118]},"properties":{"s":45.0,"pub":true}},{"type":"Feature","geometry":{"type":"Point","coordinates":[-106.1713,39.6176]},"properties":{"s":45.0,"pub":true}},{"type":"Feature","geometry":{"type":"Point","coordinates":[-106.1713,39.6234]},"properties":{"s":45.0,"pub":true}},{"type":"Feature","geometry":{"type":"Point","coordinates":[-106.1713,39.6292]},"properties":{"s":45.0,"pub":true}},{"type":"Feature","geometry":{"type":"Point","coordinates":[-106.1713,39.635]},"properties":{"s":45.0,"pub":true}},{"type":"Feature","geometry":{"type":"Point","coordinates":[-106.1713,39.6408]},"properties":{"s":45.0,"pub":true}},{"type":"Feature","geometry":{"type":"Point","coordinates":[-106.1713,39.6466]},"properties":{"s":45.0,"pub":true}},{"type":"Feature","geometry":{"type":"Point","coordinates":[-106.1713,39.6524]},"properties":{"s":45.0,"pub":true}},{"type":"Feature","geometry":{"type":"Point","coordinates":[-106.1713,39.6582]},"properties":{"s":45.0,"pub":true}},{"type":"Feature","geometry":{"type":"Point","coordinates":[-106.1713,39.664]},"properties":{"s":45.0,"pub":true}},{"type":"Feature","geometry":{"type":"Point","coordinates":[-106.1713,39.6698]},"properties":{"s":45.0,"pub":true}},{"type":"Feature","geometry":{"type":"Point","coordinates":[-106.1713,39.6756]},"properties":{"s":45.0,"pub":true}},{"type":"Feature","geometry":{"type":"Point","coordinates":[-106.1713,39.6814]},"properties":{"s":45.0,"pub":true}},{"type":"Feature","geometry":{"type":"Point","coordinates":[-106.1713,39.6872]},"properties":{"s":45.0,"pub":true}},{"type":"Feature","geometry":{"type":"Point","coordinates":[-106.1713,39.693]},"properties":{"s":45.0,"pub":true}},{"type":"Feature","geometry":{"type":"Point","coordinates":[-106.1713,39.6988]},"properties":{"s":45.0,"pub":true}},{"type":"Feature","geometry":{"type":"Point","coordinates":[-106.1713,39.7046]},"properties":{"s":45.0,"pub":true}},{"type":"Feature","geometry":{"type":"Point","coordinates":[-106.1713,39.7104]},"properties":{"s":45.0,"pub":true}},{"type":"Feature","geometry":{"type":"Point","coordinates":[-106.1713,39.7162]},"properties":{"s":67.5,"pub":true}},{"type":"Feature","geometry":{"type":"Point","coordinates":[-106.1713,39.722]},"properties":{"s":47.5,"pub":true}},{"type":"Feature","geometry":{"type":"Point","coordinates":[-106.1713,39.7278]},"properties":{"s":45.0,"pub":true}},{"type":"Feature","geometry":{"type":"Point","coordinates":[-106.1713,39.7394]},"properties":{"s":67.5,"pub":true}},{"type":"Feature","geometry":{"type":"Point","coordinates":[-106.1713,39.7452]},"properties":{"s":67.5,"pub":true}},{"type":"Feature","geometry":{"type":"Point","coordinates":[-106.1713,39.751]},"properties":{"s":67.5,"pub":true}},{"type":"Feature","geometry":{"type":"Point","coordinates":[-106.1713,39.7568]},"properties":{"s":67.5,"pub":true}},{"type":"Feature","geometry":{"type":"Point","coordinates":[-106.1713,39.7626]},"properties":{"s":67.5,"pub":true}},{"type":"Feature","geometry":{"type":"Point","coordinates":[-106.1713,39.7684]},"properties":{"s":67.5,"pub":true}},{"type":"Feature","geometry":{"type":"Point","coordinates":[-106.1713,39.7742]},"properties":{"s":72.5,"pub":true}},{"type":"Feature","geometry":{"type":"Point","coordinates":[-106.1713,39.78]},"properties":{"s":72.5,"pub":false}},{"type":"Feature","geometry":{"type":"Point","coordinates":[-106.1713,39.7858]},"properties":{"s":72.5,"pub":false}},{"type":"Feature","geometry":{"type":"Point","coordinates":[-106.1713,39.7916]},"properties":{"s":72.5,"pub":false}},{"type":"Feature","geometry":{"type":"Point","coordinates":[-106.1713,39.7974]},"properties":{"s":72.5,"pub":false}},{"type":"Feature","geometry":{"type":"Point","coordinates":[-106.1638,39.5074]},"properties":{"s":45.0,"pub":true}},{"type":"Feature","geometry":{"type":"Point","coordinates":[-106.1638,39.5132]},"properties":{"s":45.0,"pub":true}},{"type":"Feature","geometry":{"type":"Point","coordinates":[-106.1638,39.519]},"properties":{"s":45.0,"pub":true}},{"type":"Feature","geometry":{"type":"Point","coordinates":[-106.1638,39.5248]},"properties":{"s":45.0,"pub":true}},{"type":"Feature","geometry":{"type":"Point","coordinates":[-106.1638,39.5306]},"properties":{"s":45.0,"pub":true}},{"type":"Feature","geometry":{"type":"Point","coordinates":[-106.1638,39.5364]},"properties":{"s":45.0,"pub":true}},{"type":"Feature","geometry":{"type":"Point","coordinates":[-106.1638,39.5422]},"properties":{"s":45.0,"pub":true}},{"type":"Feature","geometry":{"type":"Point","coordinates":[-106.1638,39.548]},"properties":{"s":45.0,"pub":true}},{"type":"Feature","geometry":{"type":"Point","coordinates":[-106.1638,39.5538]},"properties":{"s":45.0,"pub":true}},{"type":"Feature","geometry":{"type":"Point","coordinates":[-106.1638,39.5596]},"properties":{"s":45.0,"pub":true}},{"type":"Feature","geometry":{"type":"Point","coordinates":[-106.1638,39.5654]},"properties":{"s":45.0,"pub":true}},{"type":"Feature","geometry":{"type":"Point","coordinates":[-106.1638,39.5712]},"properties":{"s":45.0,"pub":true}},{"type":"Feature","geometry":{"type":"Point","coordinates":[-106.1638,39.577]},"properties":{"s":45.0,"pub":true}},{"type":"Feature","geometry":{"type":"Point","coordinates":[-106.1638,39.5828]},"properties":{"s":45.0,"pub":true}},{"type":"Feature","geometry":{"type":"Point","coordinates":[-106.1638,39.5886]},"properties":{"s":45.0,"pub":true}},{"type":"Feature","geometry":{"type":"Point","coordinates":[-106.1638,39.5944]},"properties":{"s":45.0,"pub":true}},{"type":"Feature","geometry":{"type":"Point","coordinates":[-106.1638,39.6002]},"properties":{"s":45.0,"pub":true}},{"type":"Feature","geometry":{"type":"Point","coordinates":[-106.1638,39.606]},"properties":{"s":45.0,"pub":true}},{"type":"Feature","geometry":{"type":"Point","coordinates":[-106.1638,39.6118]},"properties":{"s":45.0,"pub":true}},{"type":"Feature","geometry":{"type":"Point","coordinates":[-106.1638,39.6176]},"properties":{"s":45.0,"pub":true}},{"type":"Feature","geometry":{"type":"Point","coordinates":[-106.1638,39.6234]},"properties":{"s":45.0,"pub":true}},{"type":"Feature","geometry":{"type":"Point","coordinates":[-106.1638,39.6292]},"properties":{"s":45.0,"pub":true}},{"type":"Feature","geometry":{"type":"Point","coordinates":[-106.1638,39.635]},"properties":{"s":45.0,"pub":true}},{"type":"Feature","geometry":{"type":"Point","coordinates":[-106.1638,39.6408]},"properties":{"s":45.0,"pub":true}},{"type":"Feature","geometry":{"type":"Point","coordinates":[-106.1638,39.6466]},"properties":{"s":45.0,"pub":true}},{"type":"Feature","geometry":{"type":"Point","coordinates":[-106.1638,39.6524]},"properties":{"s":45.0,"pub":true}},{"type":"Feature","geometry":{"type":"Point","coordinates":[-106.1638,39.6582]},"properties":{"s":45.0,"pub":true}},{"type":"Feature","geometry":{"type":"Point","coordinates":[-106.1638,39.664]},"properties":{"s":45.0,"pub":true}},{"type":"Feature","geometry":{"type":"Point","coordinates":[-106.1638,39.6698]},"properties":{"s":45.0,"pub":true}},{"type":"Feature","geometry":{"type":"Point","coordinates":[-106.1638,39.6756]},"properties":{"s":45.0,"pub":true}},{"type":"Feature","geometry":{"type":"Point","coordinates":[-106.1638,39.6814]},"properties":{"s":45.0,"pub":true}},{"type":"Feature","geometry":{"type":"Point","coordinates":[-106.1638,39.6872]},"properties":{"s":45.0,"pub":true}},{"type":"Feature","geometry":{"type":"Point","coordinates":[-106.1638,39.693]},"properties":{"s":45.0,"pub":true}},{"type":"Feature","geometry":{"type":"Point","coordinates":[-106.1638,39.6988]},"properties":{"s":45.0,"pub":true}},{"type":"Feature","geometry":{"type":"Point","coordinates":[-106.1638,39.7046]},"properties":{"s":45.0,"pub":true}},{"type":"Feature","geometry":{"type":"Point","coordinates":[-106.1638,39.7104]},"properties":{"s":45.0,"pub":true}},{"type":"Feature","geometry":{"type":"Point","coordinates":[-106.1638,39.7162]},"properties":{"s":65.0,"pub":true}},{"type":"Feature","geometry":{"type":"Point","coordinates":[-106.1638,39.722]},"properties":{"s":67.5,"pub":true}},{"type":"Feature","geometry":{"type":"Point","coordinates":[-106.1638,39.7452]},"properties":{"s":67.5,"pub":true}},{"type":"Feature","geometry":{"type":"Point","coordinates":[-106.1638,39.751]},"properties":{"s":67.5,"pub":true}},{"type":"Feature","geometry":{"type":"Point","coordinates":[-106.1638,39.7568]},"properties":{"s":67.5,"pub":true}},{"type":"Feature","geometry":{"type":"Point","coordinates":[-106.1638,39.7626]},"properties":{"s":67.5,"pub":true}},{"type":"Feature","geometry":{"type":"Point","coordinates":[-106.1638,39.7684]},"properties":{"s":67.5,"pub":true}},{"type":"Feature","geometry":{"type":"Point","coordinates":[-106.1638,39.7858]},"properties":{"s":67.5,"pub":false}},{"type":"Feature","geometry":{"type":"Point","coordinates":[-106.1638,39.7916]},"properties":{"s":67.5,"pub":false}},{"type":"Feature","geometry":{"type":"Point","coordinates":[-106.1563,39.5074]},"properties":{"s":45.0,"pub":true}},{"type":"Feature","geometry":{"type":"Point","coordinates":[-106.1563,39.5132]},"properties":{"s":45.0,"pub":true}},{"type":"Feature","geometry":{"type":"Point","coordinates":[-106.1563,39.519]},"properties":{"s":45.0,"pub":true}},{"type":"Feature","geometry":{"type":"Point","coordinates":[-106.1563,39.5248]},"properties":{"s":45.0,"pub":true}},{"type":"Feature","geometry":{"type":"Point","coordinates":[-106.1563,39.5306]},"properties":{"s":45.0,"pub":true}},{"type":"Feature","geometry":{"type":"Point","coordinates":[-106.1563,39.5364]},"properties":{"s":45.0,"pub":true}},{"type":"Feature","geometry":{"type":"Point","coordinates":[-106.1563,39.5422]},"properties":{"s":45.0,"pub":true}},{"type":"Feature","geometry":{"type":"Point","coordinates":[-106.1563,39.548]},"properties":{"s":45.0,"pub":true}},{"type":"Feature","geometry":{"type":"Point","coordinates":[-106.1563,39.5538]},"properties":{"s":45.0,"pub":true}},{"type":"Feature","geometry":{"type":"Point","coordinates":[-106.1563,39.5596]},"properties":{"s":45.0,"pub":true}},{"type":"Feature","geometry":{"type":"Point","coordinates":[-106.1563,39.5654]},"properties":{"s":45.0,"pub":true}},{"type":"Feature","geometry":{"type":"Point","coordinates":[-106.1563,39.5712]},"properties":{"s":45.0,"pub":true}},{"type":"Feature","geometry":{"type":"Point","coordinates":[-106.1563,39.577]},"properties":{"s":45.0,"pub":true}},{"type":"Feature","geometry":{"type":"Point","coordinates":[-106.1563,39.5828]},"properties":{"s":45.0,"pub":true}},{"type":"Feature","geometry":{"type":"Point","coordinates":[-106.1563,39.5886]},"properties":{"s":45.0,"pub":true}},{"type":"Feature","geometry":{"type":"Point","coordinates":[-106.1563,39.5944]},"properties":{"s":45.0,"pub":true}},{"type":"Feature","geometry":{"type":"Point","coordinates":[-106.1563,39.6002]},"properties":{"s":45.0,"pub":true}},{"type":"Feature","geometry":{"type":"Point","coordinates":[-106.1563,39.606]},"properties":{"s":45.0,"pub":true}},{"type":"Feature","geometry":{"type":"Point","coordinates":[-106.1563,39.6118]},"properties":{"s":75.0,"pub":true}},{"type":"Feature","geometry":{"type":"Point","coordinates":[-106.1563,39.6176]},"properties":{"s":75.0,"pub":true}},{"type":"Feature","geometry":{"type":"Point","coordinates":[-106.1563,39.6234]},"properties":{"s":75.0,"pub":true}},{"type":"Feature","geometry":{"type":"Point","coordinates":[-106.1563,39.6292]},"properties":{"s":45.0,"pub":true}},{"type":"Feature","geometry":{"type":"Point","coordinates":[-106.1563,39.635]},"properties":{"s":45.0,"pub":true}},{"type":"Feature","geometry":{"type":"Point","coordinates":[-106.1563,39.6408]},"properties":{"s":45.0,"pub":true}},{"type":"Feature","geometry":{"type":"Point","coordinates":[-106.1563,39.6466]},"properties":{"s":45.0,"pub":true}},{"type":"Feature","geometry":{"type":"Point","coordinates":[-106.1563,39.6524]},"properties":{"s":75.0,"pub":true}},{"type":"Feature","geometry":{"type":"Point","coordinates":[-106.1563,39.6582]},"properties":{"s":75.0,"pub":true}},{"type":"Feature","geometry":{"type":"Point","coordinates":[-106.1563,39.664]},"properties":{"s":45.0,"pub":true}},{"type":"Feature","geometry":{"type":"Point","coordinates":[-106.1563,39.6698]},"properties":{"s":45.0,"pub":true}},{"type":"Feature","geometry":{"type":"Point","coordinates":[-106.1563,39.6756]},"properties":{"s":45.0,"pub":true}},{"type":"Feature","geometry":{"type":"Point","coordinates":[-106.1563,39.6814]},"properties":{"s":45.0,"pub":true}},{"type":"Feature","geometry":{"type":"Point","coordinates":[-106.1563,39.6872]},"properties":{"s":45.0,"pub":true}},{"type":"Feature","geometry":{"type":"Point","coordinates":[-106.1563,39.693]},"properties":{"s":45.0,"pub":true}},{"type":"Feature","geometry":{"type":"Point","coordinates":[-106.1563,39.6988]},"properties":{"s":45.0,"pub":true}},{"type":"Feature","geometry":{"type":"Point","coordinates":[-106.1563,39.751]},"properties":{"s":67.5,"pub":true}},{"type":"Feature","geometry":{"type":"Point","coordinates":[-106.1563,39.7568]},"properties":{"s":67.5,"pub":true}},{"type":"Feature","geometry":{"type":"Point","coordinates":[-106.1488,39.5248]},"properties":{"s":45.0,"pub":true}},{"type":"Feature","geometry":{"type":"Point","coordinates":[-106.1488,39.5306]},"properties":{"s":45.0,"pub":true}},{"type":"Feature","geometry":{"type":"Point","coordinates":[-106.1488,39.5364]},"properties":{"s":45.0,"pub":true}},{"type":"Feature","geometry":{"type":"Point","coordinates":[-106.1488,39.5422]},"properties":{"s":45.0,"pub":true}},{"type":"Feature","geometry":{"type":"Point","coordinates":[-106.1488,39.548]},"properties":{"s":45.0,"pub":true}},{"type":"Feature","geometry":{"type":"Point","coordinates":[-106.1488,39.5538]},"properties":{"s":45.0,"pub":true}},{"type":"Feature","geometry":{"type":"Point","coordinates":[-106.1488,39.5596]},"properties":{"s":45.0,"pub":true}},{"type":"Feature","geometry":{"type":"Point","coordinates":[-106.1488,39.5654]},"properties":{"s":45.0,"pub":true}},{"type":"Feature","geometry":{"type":"Point","coordinates":[-106.1488,39.5712]},"properties":{"s":45.0,"pub":true}},{"type":"Feature","geometry":{"type":"Point","coordinates":[-106.1488,39.577]},"properties":{"s":45.0,"pub":true}},{"type":"Feature","geometry":{"type":"Point","coordinates":[-106.1488,39.5828]},"properties":{"s":45.0,"pub":true}},{"type":"Feature","geometry":{"type":"Point","coordinates":[-106.1488,39.5886]},"properties":{"s":45.0,"pub":true}},{"type":"Feature","geometry":{"type":"Point","coordinates":[-106.1488,39.5944]},"properties":{"s":45.0,"pub":true}},{"type":"Feature","geometry":{"type":"Point","coordinates":[-106.1488,39.6002]},"properties":{"s":45.0,"pub":true}},{"type":"Feature","geometry":{"type":"Point","coordinates":[-106.1488,39.606]},"properties":{"s":45.0,"pub":true}},{"type":"Feature","geometry":{"type":"Point","coordinates":[-106.1488,39.6118]},"properties":{"s":75.0,"pub":true}},{"type":"Feature","geometry":{"type":"Point","coordinates":[-106.1488,39.6176]},"properties":{"s":75.0,"pub":true}},{"type":"Feature","geometry":{"type":"Point","coordinates":[-106.1488,39.6234]},"properties":{"s":75.0,"pub":true}},{"type":"Feature","geometry":{"type":"Point","coordinates":[-106.1488,39.6292]},"properties":{"s":75.0,"pub":true}},{"type":"Feature","geometry":{"type":"Point","coordinates":[-106.1488,39.635]},"properties":{"s":75.0,"pub":true}},{"type":"Feature","geometry":{"type":"Point","coordinates":[-106.1488,39.6408]},"properties":{"s":75.0,"pub":true}},{"type":"Feature","geometry":{"type":"Point","coordinates":[-106.1488,39.6466]},"properties":{"s":75.0,"pub":true}},{"type":"Feature","geometry":{"type":"Point","coordinates":[-106.1488,39.6524]},"properties":{"s":75.0,"pub":true}},{"type":"Feature","geometry":{"type":"Point","coordinates":[-106.1488,39.6582]},"properties":{"s":75.0,"pub":true}},{"type":"Feature","geometry":{"type":"Point","coordinates":[-106.1488,39.664]},"properties":{"s":75.0,"pub":true}},{"type":"Feature","geometry":{"type":"Point","coordinates":[-106.1488,39.6698]},"properties":{"s":45.0,"pub":true}},{"type":"Feature","geometry":{"type":"Point","coordinates":[-106.1488,39.6756]},"properties":{"s":45.0,"pub":true}},{"type":"Feature","geometry":{"type":"Point","coordinates":[-106.1488,39.6814]},"properties":{"s":45.0,"pub":true}},{"type":"Feature","geometry":{"type":"Point","coordinates":[-106.1488,39.6872]},"properties":{"s":45.0,"pub":true}},{"type":"Feature","geometry":{"type":"Point","coordinates":[-106.1488,39.693]},"properties":{"s":45.0,"pub":true}},{"type":"Feature","geometry":{"type":"Point","coordinates":[-106.1413,39.5538]},"properties":{"s":45.0,"pub":true}},{"type":"Feature","geometry":{"type":"Point","coordinates":[-106.1413,39.5596]},"properties":{"s":45.0,"pub":true}},{"type":"Feature","geometry":{"type":"Point","coordinates":[-106.1413,39.5654]},"properties":{"s":45.0,"pub":true}},{"type":"Feature","geometry":{"type":"Point","coordinates":[-106.1413,39.5712]},"properties":{"s":45.0,"pub":true}},{"type":"Feature","geometry":{"type":"Point","coordinates":[-106.1413,39.577]},"properties":{"s":45.0,"pub":true}},{"type":"Feature","geometry":{"type":"Point","coordinates":[-106.1413,39.5828]},"properties":{"s":45.0,"pub":true}},{"type":"Feature","geometry":{"type":"Point","coordinates":[-106.1413,39.5886]},"properties":{"s":45.0,"pub":true}},{"type":"Feature","geometry":{"type":"Point","coordinates":[-106.1413,39.5944]},"properties":{"s":45.0,"pub":true}},{"type":"Feature","geometry":{"type":"Point","coordinates":[-106.1413,39.6002]},"properties":{"s":45.0,"pub":true}},{"type":"Feature","geometry":{"type":"Point","coordinates":[-106.1413,39.606]},"properties":{"s":75.0,"pub":true}},{"type":"Feature","geometry":{"type":"Point","coordinates":[-106.1413,39.6118]},"properties":{"s":75.0,"pub":true}},{"type":"Feature","geometry":{"type":"Point","coordinates":[-106.1413,39.6176]},"properties":{"s":75.0,"pub":true}},{"type":"Feature","geometry":{"type":"Point","coordinates":[-106.1413,39.6234]},"properties":{"s":75.0,"pub":true}},{"type":"Feature","geometry":{"type":"Point","coordinates":[-106.1413,39.6292]},"properties":{"s":75.0,"pub":true}},{"type":"Feature","geometry":{"type":"Point","coordinates":[-106.1413,39.635]},"properties":{"s":75.0,"pub":true}},{"type":"Feature","geometry":{"type":"Point","coordinates":[-106.1413,39.6408]},"properties":{"s":75.0,"pub":true}},{"type":"Feature","geometry":{"type":"Point","coordinates":[-106.1413,39.6466]},"properties":{"s":75.0,"pub":true}},{"type":"Feature","geometry":{"type":"Point","coordinates":[-106.1413,39.6524]},"properties":{"s":75.0,"pub":true}},{"type":"Feature","geometry":{"type":"Point","coordinates":[-106.1413,39.6582]},"properties":{"s":75.0,"pub":true}},{"type":"Feature","geometry":{"type":"Point","coordinates":[-106.1413,39.664]},"properties":{"s":75.0,"pub":true}},{"type":"Feature","geometry":{"type":"Point","coordinates":[-106.1413,39.6698]},"properties":{"s":75.0,"pub":true}},{"type":"Feature","geometry":{"type":"Point","coordinates":[-106.1413,39.6756]},"properties":{"s":45.0,"pub":true}},{"type":"Feature","geometry":{"type":"Point","coordinates":[-106.1413,39.6814]},"properties":{"s":45.0,"pub":true}},{"type":"Feature","geometry":{"type":"Point","coordinates":[-106.1413,39.6872]},"properties":{"s":45.0,"pub":true}},{"type":"Feature","geometry":{"type":"Point","coordinates":[-106.1413,39.693]},"properties":{"s":45.0,"pub":true}},{"type":"Feature","geometry":{"type":"Point","coordinates":[-106.1338,39.5654]},"properties":{"s":45.0,"pub":true}},{"type":"Feature","geometry":{"type":"Point","coordinates":[-106.1338,39.5712]},"properties":{"s":45.0,"pub":true}},{"type":"Feature","geometry":{"type":"Point","coordinates":[-106.1338,39.577]},"properties":{"s":45.0,"pub":true}},{"type":"Feature","geometry":{"type":"Point","coordinates":[-106.1338,39.5828]},"properties":{"s":45.0,"pub":true}},{"type":"Feature","geometry":{"type":"Point","coordinates":[-106.1338,39.5886]},"properties":{"s":45.0,"pub":true}},{"type":"Feature","geometry":{"type":"Point","coordinates":[-106.1338,39.5944]},"properties":{"s":45.0,"pub":true}},{"type":"Feature","geometry":{"type":"Point","coordinates":[-106.1338,39.6002]},"properties":{"s":45.0,"pub":true}},{"type":"Feature","geometry":{"type":"Point","coordinates":[-106.1338,39.606]},"properties":{"s":75.0,"pub":true}},{"type":"Feature","geometry":{"type":"Point","coordinates":[-106.1338,39.6118]},"properties":{"s":75.0,"pub":true}},{"type":"Feature","geometry":{"type":"Point","coordinates":[-106.1338,39.6176]},"properties":{"s":75.0,"pub":true}},{"type":"Feature","geometry":{"type":"Point","coordinates":[-106.1338,39.6234]},"properties":{"s":75.0,"pub":true}},{"type":"Feature","geometry":{"type":"Point","coordinates":[-106.1338,39.6292]},"properties":{"s":75.0,"pub":true}},{"type":"Feature","geometry":{"type":"Point","coordinates":[-106.1338,39.635]},"properties":{"s":75.0,"pub":true}},{"type":"Feature","geometry":{"type":"Point","coordinates":[-106.1338,39.6408]},"properties":{"s":75.0,"pub":true}},{"type":"Feature","geometry":{"type":"Point","coordinates":[-106.1338,39.6466]},"properties":{"s":75.0,"pub":true}},{"type":"Feature","geometry":{"type":"Point","coordinates":[-106.1338,39.6524]},"properties":{"s":75.0,"pub":true}},{"type":"Feature","geometry":{"type":"Point","coordinates":[-106.1338,39.6582]},"properties":{"s":75.0,"pub":true}},{"type":"Feature","geometry":{"type":"Point","coordinates":[-106.1338,39.664]},"properties":{"s":75.0,"pub":true}},{"type":"Feature","geometry":{"type":"Point","coordinates":[-106.1338,39.6698]},"properties":{"s":95.0,"pub":true}},{"type":"Feature","geometry":{"type":"Point","coordinates":[-106.1338,39.6756]},"properties":{"s":65.0,"pub":true}},{"type":"Feature","geometry":{"type":"Point","coordinates":[-106.1338,39.6814]},"properties":{"s":65.0,"pub":true}},{"type":"Feature","geometry":{"type":"Point","coordinates":[-106.1338,39.6872]},"properties":{"s":65.0,"pub":true}},{"type":"Feature","geometry":{"type":"Point","coordinates":[-106.1338,39.693]},"properties":{"s":65.0,"pub":true}},{"type":"Feature","geometry":{"type":"Point","coordinates":[-106.1338,39.6988]},"properties":{"s":67.5,"pub":true}},{"type":"Feature","geometry":{"type":"Point","coordinates":[-106.1338,39.7046]},"properties":{"s":67.5,"pub":true}},{"type":"Feature","geometry":{"type":"Point","coordinates":[-106.1338,39.7104]},"properties":{"s":67.5,"pub":true}},{"type":"Feature","geometry":{"type":"Point","coordinates":[-106.1263,39.5712]},"properties":{"s":45.0,"pub":true}},{"type":"Feature","geometry":{"type":"Point","coordinates":[-106.1263,39.577]},"properties":{"s":47.5,"pub":true}},{"type":"Feature","geometry":{"type":"Point","coordinates":[-106.1263,39.5828]},"properties":{"s":47.5,"pub":true}},{"type":"Feature","geometry":{"type":"Point","coordinates":[-106.1263,39.5886]},"properties":{"s":47.5,"pub":true}},{"type":"Feature","geometry":{"type":"Point","coordinates":[-106.1263,39.5944]},"properties":{"s":45.0,"pub":true}},{"type":"Feature","geometry":{"type":"Point","coordinates":[-106.1263,39.6002]},"properties":{"s":75.0,"pub":true}},{"type":"Feature","geometry":{"type":"Point","coordinates":[-106.1263,39.606]},"properties":{"s":97.5,"pub":true}},{"type":"Feature","geometry":{"type":"Point","coordinates":[-106.1263,39.6118]},"properties":{"s":97.5,"pub":true}},{"type":"Feature","geometry":{"type":"Point","coordinates":[-106.1263,39.6176]},"properties":{"s":77.5,"pub":true}},{"type":"Feature","geometry":{"type":"Point","coordinates":[-106.1263,39.6234]},"properties":{"s":75.0,"pub":true}},{"type":"Feature","geometry":{"type":"Point","coordinates":[-106.1263,39.6292]},"properties":{"s":75.0,"pub":true}},{"type":"Feature","geometry":{"type":"Point","coordinates":[-106.1263,39.635]},"properties":{"s":75.0,"pub":true}},{"type":"Feature","geometry":{"type":"Point","coordinates":[-106.1263,39.6408]},"properties":{"s":75.0,"pub":true}},{"type":"Feature","geometry":{"type":"Point","coordinates":[-106.1263,39.6466]},"properties":{"s":75.0,"pub":true}},{"type":"Feature","geometry":{"type":"Point","coordinates":[-106.1263,39.6524]},"properties":{"s":75.0,"pub":true}},{"type":"Feature","geometry":{"type":"Point","coordinates":[-106.1263,39.6582]},"properties":{"s":95.0,"pub":true}},{"type":"Feature","geometry":{"type":"Point","coordinates":[-106.1263,39.664]},"properties":{"s":95.0,"pub":true}},{"type":"Feature","geometry":{"type":"Point","coordinates":[-106.1263,39.6698]},"properties":{"s":95.0,"pub":true}},{"type":"Feature","geometry":{"type":"Point","coordinates":[-106.1263,39.6756]},"properties":{"s":65.0,"pub":true}},{"type":"Feature","geometry":{"type":"Point","coordinates":[-106.1263,39.6814]},"properties":{"s":65.0,"pub":true}},{"type":"Feature","geometry":{"type":"Point","coordinates":[-106.1263,39.6872]},"properties":{"s":67.5,"pub":true}},{"type":"Feature","geometry":{"type":"Point","coordinates":[-106.1263,39.693]},"properties":{"s":67.5,"pub":true}},{"type":"Feature","geometry":{"type":"Point","coordinates":[-106.1263,39.6988]},"properties":{"s":67.5,"pub":true}},{"type":"Feature","geometry":{"type":"Point","coordinates":[-106.1263,39.7046]},"properties":{"s":67.5,"pub":true}},{"type":"Feature","geometry":{"type":"Point","coordinates":[-106.1263,39.7104]},"properties":{"s":67.5,"pub":true}},{"type":"Feature","geometry":{"type":"Point","coordinates":[-106.1263,39.7162]},"properties":{"s":47.5,"pub":true}},{"type":"Feature","geometry":{"type":"Point","coordinates":[-106.1263,39.722]},"properties":{"s":47.5,"pub":true}},{"type":"Feature","geometry":{"type":"Point","coordinates":[-106.1188,39.5828]},"properties":{"s":47.5,"pub":true}},{"type":"Feature","geometry":{"type":"Point","coordinates":[-106.1188,39.5886]},"properties":{"s":47.5,"pub":true}},{"type":"Feature","geometry":{"type":"Point","coordinates":[-106.1188,39.5944]},"properties":{"s":47.5,"pub":true}},{"type":"Feature","geometry":{"type":"Point","coordinates":[-106.1188,39.6002]},"properties":{"s":77.5,"pub":true}},{"type":"Feature","geometry":{"type":"Point","coordinates":[-106.1188,39.606]},"properties":{"s":97.5,"pub":true}},{"type":"Feature","geometry":{"type":"Point","coordinates":[-106.1188,39.6118]},"properties":{"s":97.5,"pub":true}},{"type":"Feature","geometry":{"type":"Point","coordinates":[-106.1188,39.6176]},"properties":{"s":97.5,"pub":true}},{"type":"Feature","geometry":{"type":"Point","coordinates":[-106.1188,39.6234]},"properties":{"s":97.5,"pub":true}},{"type":"Feature","geometry":{"type":"Point","coordinates":[-106.1188,39.6292]},"properties":{"s":95.0,"pub":true}},{"type":"Feature","geometry":{"type":"Point","coordinates":[-106.1188,39.635]},"properties":{"s":95.0,"pub":true}},{"type":"Feature","geometry":{"type":"Point","coordinates":[-106.1188,39.6408]},"properties":{"s":95.0,"pub":true}},{"type":"Feature","geometry":{"type":"Point","coordinates":[-106.1188,39.6466]},"properties":{"s":95.0,"pub":true}},{"type":"Feature","geometry":{"type":"Point","coordinates":[-106.1188,39.6524]},"properties":{"s":95.0,"pub":true}},{"type":"Feature","geometry":{"type":"Point","coordinates":[-106.1188,39.6582]},"properties":{"s":95.0,"pub":true}},{"type":"Feature","geometry":{"type":"Point","coordinates":[-106.1188,39.664]},"properties":{"s":65.0,"pub":true}},{"type":"Feature","geometry":{"type":"Point","coordinates":[-106.1188,39.6698]},"properties":{"s":65.0,"pub":true}},{"type":"Feature","geometry":{"type":"Point","coordinates":[-106.1188,39.6756]},"properties":{"s":67.5,"pub":true}},{"type":"Feature","geometry":{"type":"Point","coordinates":[-106.1188,39.6872]},"properties":{"s":67.5,"pub":true}},{"type":"Feature","geometry":{"type":"Point","coordinates":[-106.1188,39.693]},"properties":{"s":67.5,"pub":false}},{"type":"Feature","geometry":{"type":"Point","coordinates":[-106.1188,39.6988]},"properties":{"s":67.5,"pub":false}},{"type":"Feature","geometry":{"type":"Point","coordinates":[-106.1188,39.7046]},"properties":{"s":67.5,"pub":false}},{"type":"Feature","geometry":{"type":"Point","coordinates":[-106.1188,39.7104]},"properties":{"s":47.5,"pub":false}},{"type":"Feature","geometry":{"type":"Point","coordinates":[-106.1188,39.7162]},"properties":{"s":47.5,"pub":true}},{"type":"Feature","geometry":{"type":"Point","coordinates":[-106.1113,39.5944]},"properties":{"s":47.5,"pub":true}},{"type":"Feature","geometry":{"type":"Point","coordinates":[-106.1113,39.6002]},"properties":{"s":77.5,"pub":true}},{"type":"Feature","geometry":{"type":"Point","coordinates":[-106.1113,39.606]},"properties":{"s":77.5,"pub":true}},{"type":"Feature","geometry":{"type":"Point","coordinates":[-106.1113,39.6118]},"properties":{"s":97.5,"pub":true}},{"type":"Feature","geometry":{"type":"Point","coordinates":[-106.1113,39.6176]},"properties":{"s":100.0,"pub":true}},{"type":"Feature","geometry":{"type":"Point","coordinates":[-106.1113,39.6234]},"properties":{"s":97.5,"pub":true}},{"type":"Feature","geometry":{"type":"Point","coordinates":[-106.1113,39.6292]},"properties":{"s":95.0,"pub":true}},{"type":"Feature","geometry":{"type":"Point","coordinates":[-106.1113,39.635]},"properties":{"s":95.0,"pub":true}},{"type":"Feature","geometry":{"type":"Point","coordinates":[-106.1113,39.6408]},"properties":{"s":95.0,"pub":true}},{"type":"Feature","geometry":{"type":"Point","coordinates":[-106.1113,39.6466]},"properties":{"s":95.0,"pub":true}},{"type":"Feature","geometry":{"type":"Point","coordinates":[-106.1113,39.6524]},"properties":{"s":65.0,"pub":true}},{"type":"Feature","geometry":{"type":"Point","coordinates":[-106.1113,39.6582]},"properties":{"s":65.0,"pub":true}},{"type":"Feature","geometry":{"type":"Point","coordinates":[-106.1113,39.664]},"properties":{"s":65.0,"pub":true}},{"type":"Feature","geometry":{"type":"Point","coordinates":[-106.1113,39.6698]},"properties":{"s":65.0,"pub":true}},{"type":"Feature","geometry":{"type":"Point","coordinates":[-106.1113,39.6756]},"properties":{"s":67.5,"pub":true}},{"type":"Feature","geometry":{"type":"Point","coordinates":[-106.1113,39.6988]},"properties":{"s":47.5,"pub":false}},{"type":"Feature","geometry":{"type":"Point","coordinates":[-106.1038,39.6002]},"properties":{"s":47.5,"pub":true}},{"type":"Feature","geometry":{"type":"Point","coordinates":[-106.1038,39.606]},"properties":{"s":47.5,"pub":true}},{"type":"Feature","geometry":{"type":"Point","coordinates":[-106.1038,39.6118]},"properties":{"s":47.5,"pub":true}},{"type":"Feature","geometry":{"type":"Point","coordinates":[-106.1038,39.6176]},"properties":{"s":47.5,"pub":false}},{"type":"Feature","geometry":{"type":"Point","coordinates":[-106.1038,39.6234]},"properties":{"s":47.5,"pub":true}},{"type":"Feature","geometry":{"type":"Point","coordinates":[-106.1038,39.6292]},"properties":{"s":95.0,"pub":true}},{"type":"Feature","geometry":{"type":"Point","coordinates":[-106.1038,39.635]},"properties":{"s":65.0,"pub":true}},{"type":"Feature","geometry":{"type":"Point","coordinates":[-106.1038,39.6408]},"properties":{"s":65.0,"pub":true}},{"type":"Feature","geometry":{"type":"Point","coordinates":[-106.1038,39.6466]},"properties":{"s":65.0,"pub":true}},{"type":"Feature","geometry":{"type":"Point","coordinates":[-106.1038,39.6524]},"properties":{"s":67.5,"pub":true}},{"type":"Feature","geometry":{"type":"Point","coordinates":[-106.1038,39.6582]},"properties":{"s":67.5,"pub":true}},{"type":"Feature","geometry":{"type":"Point","coordinates":[-106.1038,39.664]},"properties":{"s":67.5,"pub":true}},{"type":"Feature","geometry":{"type":"Point","coordinates":[-106.1038,39.6698]},"properties":{"s":67.5,"pub":true}},{"type":"Feature","geometry":{"type":"Point","coordinates":[-106.0963,39.6002]},"properties":{"s":52.5,"pub":true}},{"type":"Feature","geometry":{"type":"Point","coordinates":[-106.0963,39.606]},"properties":{"s":52.5,"pub":true}},{"type":"Feature","geometry":{"type":"Point","coordinates":[-106.0963,39.6118]},"properties":{"s":47.5,"pub":true}},{"type":"Feature","geometry":{"type":"Point","coordinates":[-106.0963,39.6176]},"properties":{"s":47.5,"pub":false}},{"type":"Feature","geometry":{"type":"Point","coordinates":[-106.0963,39.6234]},"properties":{"s":47.5,"pub":false}},{"type":"Feature","geometry":{"type":"Point","coordinates":[-106.0963,39.6292]},"properties":{"s":67.5,"pub":true}},{"type":"Feature","geometry":{"type":"Point","coordinates":[-106.0963,39.635]},"properties":{"s":65.0,"pub":true}},{"type":"Feature","geometry":{"type":"Point","coordinates":[-106.0963,39.6408]},"properties":{"s":67.5,"pub":false}},{"type":"Feature","geometry":{"type":"Point","coordinates":[-106.0963,39.6466]},"properties":{"s":67.5,"pub":false}},{"type":"Feature","geometry":{"type":"Point","coordinates":[-106.0963,39.6524]},"properties":{"s":47.5,"pub":false}},{"type":"Feature","geometry":{"type":"Point","coordinates":[-106.0963,39.6582]},"properties":{"s":47.5,"pub":false}},{"type":"Feature","geometry":{"type":"Point","coordinates":[-106.0963,39.664]},"properties":{"s":47.5,"pub":false}},{"type":"Feature","geometry":{"type":"Point","coordinates":[-106.0888,39.606]},"properties":{"s":52.5,"pub":true}},{"type":"Feature","geometry":{"type":"Point","coordinates":[-106.0888,39.6118]},"properties":{"s":47.5,"pub":true}},{"type":"Feature","geometry":{"type":"Point","coordinates":[-106.0888,39.6176]},"properties":{"s":47.5,"pub":false}},{"type":"Feature","geometry":{"type":"Point","coordinates":[-106.0888,39.6234]},"properties":{"s":47.5,"pub":false}},{"type":"Feature","geometry":{"type":"Point","coordinates":[-106.0888,39.6292]},"properties":{"s":67.5,"pub":true}},{"type":"Feature","geometry":{"type":"Point","coordinates":[-106.0888,39.635]},"properties":{"s":67.5,"pub":false}},{"type":"Feature","geometry":{"type":"Point","coordinates":[-106.0888,39.6408]},"properties":{"s":67.5,"pub":false}},{"type":"Feature","geometry":{"type":"Point","coordinates":[-106.0888,39.6466]},"properties":{"s":47.5,"pub":false}},{"type":"Feature","geometry":{"type":"Point","coordinates":[-106.0888,39.6524]},"properties":{"s":47.5,"pub":false}},{"type":"Feature","geometry":{"type":"Point","coordinates":[-106.0888,39.6582]},"properties":{"s":47.5,"pub":false}},{"type":"Feature","geometry":{"type":"Point","coordinates":[-106.0813,39.6118]},"properties":{"s":47.5,"pub":true}},{"type":"Feature","geometry":{"type":"Point","coordinates":[-106.0813,39.6176]},"properties":{"s":47.5,"pub":false}},{"type":"Feature","geometry":{"type":"Point","coordinates":[-106.0813,39.6234]},"properties":{"s":47.5,"pub":false}},{"type":"Feature","geometry":{"type":"Point","coordinates":[-106.0813,39.6292]},"properties":{"s":45.0,"pub":false}},{"type":"Feature","geometry":{"type":"Point","coordinates":[-106.0813,39.635]},"properties":{"s":45.0,"pub":true}}]}