{"type":"FeatureCollection","features":[{"type":"Feature","geometry":{"type":"Point","coordinates":[-105.3589,39.6717]},"properties":{"s":100.0,"pub":false}},{"type":"Feature","geometry":{"type":"Point","coordinates":[-105.3589,39.6775]},"properties":{"s":100.0,"pub":false}},{"type":"Feature","geometry":{"type":"Point","coordinates":[-105.3589,39.6833]},"properties":{"s":100.0,"pub":false}},{"type":"Feature","geometry":{"type":"Point","coordinates":[-105.3589,39.6891]},"properties":{"s":100.0,"pub":false}},{"type":"Feature","geometry":{"type":"Point","coordinates":[-105.3514,39.6601]},"properties":{"s":100.0,"pub":false}},{"type":"Feature","geometry":{"type":"Point","coordinates":[-105.3514,39.6659]},"properties":{"s":100.0,"pub":false}},{"type":"Feature","geometry":{"type":"Point","coordinates":[-105.3514,39.6717]},"properties":{"s":100.0,"pub":false}},{"type":"Feature","geometry":{"type":"Point","coordinates":[-105.3514,39.6775]},"properties":{"s":100.0,"pub":false}},{"type":"Feature","geometry":{"type":"Point","coordinates":[-105.3514,39.6833]},"properties":{"s":100.0,"pub":false}},{"type":"Feature","geometry":{"type":"Point","coordinates":[-105.3514,39.6891]},"properties":{"s":95.1,"pub":false}},{"type":"Feature","geometry":{"type":"Point","coordinates":[-105.3439,39.6543]},"properties":{"s":100.0,"pub":false}},{"type":"Feature","geometry":{"type":"Point","coordinates":[-105.3439,39.6601]},"properties":{"s":100.0,"pub":false}},{"type":"Feature","geometry":{"type":"Point","coordinates":[-105.3439,39.6659]},"properties":{"s":100.0,"pub":false}},{"type":"Feature","geometry":{"type":"Point","coordinates":[-105.3439,39.6717]},"properties":{"s":100.0,"pub":false}},{"type":"Feature","geometry":{"type":"Point","coordinates":[-105.3439,39.6775]},"properties":{"s":100.0,"pub":false}},{"type":"Feature","geometry":{"type":"Point","coordinates":[-105.3439,39.6833]},"properties":{"s":100.0,"pub":false}},{"type":"Feature","geometry":{"type":"Point","coordinates":[-105.3439,39.6891]},"properties":{"s":95.1,"pub":false}},{"type":"Feature","geometry":{"type":"Point","coordinates":[-105.3364,39.6485]},"properties":{"s":100.0,"pub":false}},{"type":"Feature","geometry":{"type":"Point","coordinates":[-105.3364,39.6543]},"properties":{"s":100.0,"pub":false}},{"type":"Feature","geometry":{"type":"Point","coordinates":[-105.3364,39.6601]},"properties":{"s":100.0,"pub":false}},{"type":"Feature","geometry":{"type":"Point","coordinates":[-105.3364,39.6659]},"properties":{"s":100.0,"pub":false}},{"type":"Feature","geometry":{"type":"Point","coordinates":[-105.3364,39.6717]},"properties":{"s":100.0,"pub":false}},{"type":"Feature","geometry":{"type":"Point","coordinates":[-105.3364,39.6775]},"properties":{"s":100.0,"pub":false}},{"type":"Feature","geometry":{"type":"Point","coordinates":[-105.3364,39.6833]},"properties":{"s":95.1,"pub":false}},{"type":"Feature","geometry":{"type":"Point","coordinates":[-105.3364,39.6891]},"properties":{"s":95.1,"pub":false}},{"type":"Feature","geometry":{"type":"Point","coordinates":[-105.3364,39.6949]},"properties":{"s":95.1,"pub":false}},{"type":"Feature","geometry":{"type":"Point","coordinates":[-105.3289,39.6369]},"properties":{"s":100.0,"pub":false}},{"type":"Feature","geometry":{"type":"Point","coordinates":[-105.3289,39.6427]},"properties":{"s":100.0,"pub":false}},{"type":"Feature","geometry":{"type":"Point","coordinates":[-105.3289,39.6485]},"properties":{"s":100.0,"pub":false}},{"type":"Feature","geometry":{"type":"Point","coordinates":[-105.3289,39.6543]},"properties":{"s":100.0,"pub":false}},{"type":"Feature","geometry":{"type":"Point","coordinates":[-105.3289,39.6601]},"properties":{"s":100.0,"pub":false}},{"type":"Feature","geometry":{"type":"Point","coordinates":[-105.3289,39.6659]},"properties":{"s":100.0,"pub":false}},{"type":"Feature","geometry":{"type":"Point","coordinates":[-105.3289,39.6717]},"properties":{"s":100.0,"pub":false}},{"type":"Feature","geometry":{"type":"Point","coordinates":[-105.3289,39.6775]},"properties":{"s":100.0,"pub":false}},{"type":"Feature","geometry":{"type":"Point","coordinates":[-105.3289,39.6833]},"properties":{"s":95.1,"pub":false}},{"type":"Feature","geometry":{"type":"Point","coordinates":[-105.3289,39.6891]},"properties":{"s":95.1,"pub":false}},{"type":"Feature","geometry":{"type":"Point","coordinates":[-105.3289,39.6949]},"properties":{"s":95.1,"pub":false}},{"type":"Feature","geometry":{"type":"Point","coordinates":[-105.3289,39.7007]},"properties":{"s":46.3,"pub":false}},{"type":"Feature","geometry":{"type":"Point","coordinates":[-105.3214,39.6195]},"properties":{"s":100.0,"pub":false}},{"type":"Feature","geometry":{"type":"Point","coordinates":[-105.3214,39.6253]},"properties":{"s":100.0,"pub":false}},{"type":"Feature","geometry":{"type":"Point","coordinates":[-105.3214,39.6311]},"properties":{"s":100.0,"pub":false}},{"type":"Feature","geometry":{"type":"Point","coordinates":[-105.3214,39.6369]},"properties":{"s":100.0,"pub":false}},{"type":"Feature","geometry":{"type":"Point","coordinates":[-105.3214,39.6427]},"properties":{"s":100.0,"pub":false}},{"type":"Feature","geometry":{"type":"Point","coordinates":[-105.3214,39.6485]},"properties":{"s":100.0,"pub":false}},{"type":"Feature","geometry":{"type":"Point","coordinates":[-105.3214,39.6543]},"properties":{"s":100.0,"pub":false}},{"type":"Feature","geometry":{"type":"Point","coordinates":[-105.3214,39.6601]},"properties":{"s":100.0,"pub":false}},{"type":"Feature","geometry":{"type":"Point","coordinates":[-105.3214,39.6659]},"properties":{"s":100.0,"pub":false}},{"type":"Feature","geometry":{"type":"Point","coordinates":[-105.3214,39.6717]},"properties":{"s":100.0,"pub":false}},{"type":"Feature","geometry":{"type":"Point","coordinates":[-105.3214,39.6775]},"properties":{"s":95.1,"pub":false}},{"type":"Feature","geometry":{"type":"Point","coordinates":[-105.3214,39.6833]},"properties":{"s":95.1,"pub":false}},{"type":"Feature","geometry":{"type":"Point","coordinates":[-105.3214,39.6891]},"properties":{"s":95.1,"pub":false}},{"type":"Feature","geometry":{"type":"Point","coordinates":[-105.3214,39.6949]},"properties":{"s":95.1,"pub":false}},{"type":"Feature","geometry":{"type":"Point","coordinates":[-105.3214,39.7007]},"properties":{"s":95.1,"pub":false}},{"type":"Feature","geometry":{"type":"Point","coordinates":[-105.3214,39.7065]},"properties":{"s":95.1,"pub":false}},{"type":"Feature","geometry":{"type":"Point","coordinates":[-105.3139,39.5441]},"properties":{"s":46.3,"pub":false}},{"type":"Feature","geometry":{"type":"Point","coordinates":[-105.3139,39.5499]},"properties":{"s":46.3,"pub":false}},{"type":"Feature","geometry":{"type":"Point","coordinates":[-105.3139,39.5557]},"properties":{"s":46.3,"pub":false}},{"type":"Feature","geometry":{"type":"Point","coordinates":[-105.3139,39.5615]},"properties":{"s":51.2,"pub":false}},{"type":"Feature","geometry":{"type":"Point","coordinates":[-105.3139,39.5673]},"properties":{"s":51.2,"pub":false}},{"type":"Feature","geometry":{"type":"Point","coordinates":[-105.3139,39.5963]},"properties":{"s":46.3,"pub":false}},{"type":"Feature","geometry":{"type":"Point","coordinates":[-105.3139,39.6021]},"properties":{"s":46.3,"pub":false}},{"type":"Feature","geometry":{"type":"Point","coordinates":[-105.3139,39.6079]},"properties":{"s":80.5,"pub":false}},{"type":"Feature","geometry":{"type":"Point","coordinates":[-105.3139,39.6137]},"properties":{"s":100.0,"pub":false}},{"type":"Feature","geometry":{"type":"Point","coordinates":[-105.3139,39.6195]},"properties":{"s":100.0,"pub":false}},{"type":"Feature","geometry":{"type":"Point","coordinates":[-105.3139,39.6253]},"properties":{"s":100.0,"pub":false}},{"type":"Feature","geometry":{"type":"Point","coordinates":[-105.3139,39.6311]},"properties":{"s":100.0,"pub":false}},{"type":"Feature","geometry":{"type":"Point","coordinates":[-105.3139,39.6369]},"properties":{"s":100.0,"pub":false}},{"type":"Feature","geometry":{"type":"Point","coordinates":[-105.3139,39.6427]},"properties":{"s":100.0,"pub":false}},{"type":"Feature","geometry":{"type":"Point","coordinates":[-105.3139,39.6485]},"properties":{"s":100.0,"pub":false}},{"type":"Feature","geometry":{"type":"Point","coordinates":[-105.3139,39.6543]},"properties":{"s":100.0,"pub":false}},{"type":"Feature","geometry":{"type":"Point","coordinates":[-105.3139,39.6601]},"properties":{"s":100.0,"pub":false}},{"type":"Feature","geometry":{"type":"Point","coordinates":[-105.3139,39.6659]},"properties":{"s":100.0,"pub":false}},{"type":"Feature","geometry":{"type":"Point","coordinates":[-105.3139,39.6717]},"properties":{"s":95.1,"pub":false}},{"type":"Feature","geometry":{"type":"Point","coordinates":[-105.3139,39.6775]},"properties":{"s":95.1,"pub":false}},{"type":"Feature","geometry":{"type":"Point","coordinates":[-105.3139,39.6833]},"properties":{"s":95.1,"pub":false}},{"type":"Feature","geometry":{"type":"Point","coordinates":[-105.3139,39.6891]},"properties":{"s":95.1,"pub":false}},{"type":"Feature","geometry":{"type":"Point","coordinates":[-105.3139,39.6949]},"properties":{"s":95.1,"pub":false}},{"type":"Feature","geometry":{"type":"Point","coordinates":[-105.3139,39.7007]},"properties":{"s":95.1,"pub":false}},{"type":"Feature","geometry":{"type":"Point","coordinates":[-105.3139,39.7065]},"properties":{"s":95.1,"pub":false}},{"type":"Feature","geometry":{"type":"Point","coordinates":[-105.3139,39.7123]},"properties":{"s":46.3,"pub":false}},{"type":"Feature","geometry":{"type":"Point","coordinates":[-105.3064,39.5441]},"properties":{"s":46.3,"pub":false}},{"type":"Feature","geometry":{"type":"Point","coordinates":[-105.3064,39.5499]},"properties":{"s":46.3,"pub":false}},{"type":"Feature","geometry":{"type":"Point","coordinates":[-105.3064,39.5557]},"properties":{"s":46.3,"pub":false}},{"type":"Feature","geometry":{"type":"Point","coordinates":[-105.3064,39.5615]},"properties":{"s":46.3,"pub":false}},{"type":"Feature","geometry":{"type":"Point","coordinates":[-105.3064,39.5673]},"properties":{"s":46.3,"pub":false}},{"type":"Feature","geometry":{"type":"Point","coordinates":[-105.3064,39.5731]},"properties":{"s":46.3,"pub":false}},{"type":"Feature","geometry":{"type":"Point","coordinates":[-105.3064,39.5789]},"properties":{"s":46.3,"pub":false}},{"type":"Feature","geometry":{"type":"Point","coordinates":[-105.3064,39.5847]},"properties":{"s":46.3,"pub":false}},{"type":"Feature","geometry":{"type":"Point","coordinates":[-105.3064,39.5905]},"properties":{"s":46.3,"pub":false}},{"type":"Feature","geometry":{"type":"Point","coordinates":[-105.3064,39.5963]},"properties":{"s":46.3,"pub":false}},{"type":"Feature","geometry":{"type":"Point","coordinates":[-105.3064,39.6021]},"properties":{"s":46.3,"pub":false}},{"type":"Feature","geometry":{"type":"Point","coordinates":[-105.3064,39.6079]},"properties":{"s":46.3,"pub":false}},{"type":"Feature","geometry":{"type":"Point","coordinates":[-105.3064,39.6137]},"properties":{"s":75.6,"pub":false}},{"type":"Feature","geometry":{"type":"Point","coordinates":[-105.3064,39.6195]},"properties":{"s":100.0,"pub":false}},{"type":"Feature","geometry":{"type":"Point","coordinates":[-105.3064,39.6253]},"properties":{"s":100.0,"pub":false}},{"type":"Feature","geometry":{"type":"Point","coordinates":[-105.3064,39.6311]},"properties":{"s":100.0,"pub":false}},{"type":"Feature","geometry":{"type":"Point","coordinates":[-105.3064,39.6369]},"properties":{"s":100.0,"pub":false}},{"type":"Feature","geometry":{"type":"Point","coordinates":[-105.3064,39.6427]},"properties":{"s":100.0,"pub":false}},{"type":"Feature","geometry":{"type":"Point","coordinates":[-105.3064,39.6485]},"properties":{"s":95.1,"pub":false}},{"type":"Feature","geometry":{"type":"Point","coordinates":[-105.3064,39.6543]},"properties":{"s":95.1,"pub":false}},{"type":"Feature","geometry":{"type":"Point","coordinates":[-105.3064,39.6601]},"properties":{"s":95.1,"pub":false}},{"type":"Feature","geometry":{"type":"Point","coordinates":[-105.3064,39.6659]},"properties":{"s":95.1,"pub":false}},{"type":"Feature","geometry":{"type":"Point","coordinates":[-105.3064,39.6717]},"properties":{"s":95.1,"pub":false}},{"type":"Feature","geometry":{"type":"Point","coordinates":[-105.3064,39.6775]},"properties":{"s":95.1,"pub":false}},{"type":"Feature","geometry":{"type":"Point","coordinates":[-105.3064,39.6833]},"properties":{"s":95.1,"pub":false}},{"type":"Feature","geometry":{"type":"Point","coordinates":[-105.3064,39.6891]},"properties":{"s":100.0,"pub":false}},{"type":"Feature","geometry":{"type":"Point","coordinates":[-105.3064,39.6949]},"properties":{"s":100.0,"pub":false}},{"type":"Feature","geometry":{"type":"Point","coordinates":[-105.3064,39.7007]},"properties":{"s":100.0,"pub":false}},{"type":"Feature","geometry":{"type":"Point","coordinates":[-105.3064,39.7065]},"properties":{"s":95.1,"pub":false}},{"type":"Feature","geometry":{"type":"Point","coordinates":[-105.3064,39.7123]},"properties":{"s":46.3,"pub":false}},{"type":"Feature","geometry":{"type":"Point","coordinates":[-105.2989,39.5673]},"properties":{"s":46.3,"pub":false}},{"type":"Feature","geometry":{"type":"Point","coordinates":[-105.2989,39.5731]},"properties":{"s":46.3,"pub":false}},{"type":"Feature","geometry":{"type":"Point","coordinates":[-105.2989,39.5789]},"properties":{"s":46.3,"pub":false}},{"type":"Feature","geometry":{"type":"Point","coordinates":[-105.2989,39.5847]},"properties":{"s":46.3,"pub":false}},{"type":"Feature","geometry":{"type":"Point","coordinates":[-105.2989,39.5905]},"properties":{"s":46.3,"pub":false}},{"type":"Feature","geometry":{"type":"Point","coordinates":[-105.2989,39.5963]},"properties":{"s":46.3,"pub":false}},{"type":"Feature","geometry":{"type":"Point","coordinates":[-105.2989,39.6021]},"properties":{"s":46.3,"pub":false}},{"type":"Feature","geometry":{"type":"Point","coordinates":[-105.2989,39.6079]},"properties":{"s":46.3,"pub":false}},{"type":"Feature","geometry":{"type":"Point","coordinates":[-105.2989,39.6137]},"properties":{"s":46.3,"pub":false}},{"type":"Feature","geometry":{"type":"Point","coordinates":[-105.2989,39.6195]},"properties":{"s":46.3,"pub":false}},{"type":"Feature","geometry":{"type":"Point","coordinates":[-105.2989,39.6253]},"properties":{"s":75.6,"pub":false}},{"type":"Feature","geometry":{"type":"Point","coordinates":[-105.2989,39.6311]},"properties":{"s":75.6,"pub":false}},{"type":"Feature","geometry":{"type":"Point","coordinates":[-105.2989,39.6369]},"properties":{"s":95.1,"pub":false}},{"type":"Feature","geometry":{"type":"Point","coordinates":[-105.2989,39.6427]},"properties":{"s":95.1,"pub":false}},{"type":"Feature","geometry":{"type":"Point","coordinates":[-105.2989,39.6485]},"properties":{"s":95.1,"pub":false}},{"type":"Feature","geometry":{"type":"Point","coordinates":[-105.2989,39.6543]},"properties":{"s":95.1,"pub":false}},{"type":"Feature","geometry":{"type":"Point","coordinates":[-105.2989,39.6601]},"properties":{"s":95.1,"pub":false}},{"type":"Feature","geometry":{"type":"Point","coordinates":[-105.2989,39.6659]},"properties":{"s":95.1,"pub":false}},{"type":"Feature","geometry":{"type":"Point","coordinates":[-105.2989,39.6717]},"properties":{"s":95.1,"pub":false}},{"type":"Feature","geometry":{"type":"Point","coordinates":[-105.2989,39.6775]},"properties":{"s":95.1,"pub":false}},{"type":"Feature","geometry":{"type":"Point","coordinates":[-105.2989,39.6833]},"properties":{"s":95.1,"pub":false}},{"type":"Feature","geometry":{"type":"Point","coordinates":[-105.2989,39.6891]},"properties":{"s":100.0,"pub":false}},{"type":"Feature","geometry":{"type":"Point","coordinates":[-105.2989,39.6949]},"properties":{"s":100.0,"pub":false}},{"type":"Feature","geometry":{"type":"Point","coordinates":[-105.2989,39.7007]},"properties":{"s":100.0,"pub":false}},{"type":"Feature","geometry":{"type":"Point","coordinates":[-105.2989,39.7065]},"properties":{"s":100.0,"pub":false}},{"type":"Feature","geometry":{"type":"Point","coordinates":[-105.2914,39.5673]},"properties":{"s":65.9,"pub":false}},{"type":"Feature","geometry":{"type":"Point","coordinates":[-105.2914,39.5731]},"properties":{"s":65.9,"pub":false}},{"type":"Feature","geometry":{"type":"Point","coordinates":[-105.2914,39.5789]},"properties":{"s":51.2,"pub":false}},{"type":"Feature","geometry":{"type":"Point","coordinates":[-105.2914,39.5847]},"properties":{"s":51.2,"pub":false}},{"type":"Feature","geometry":{"type":"Point","coordinates":[-105.2914,39.5905]},"properties":{"s":46.3,"pub":false}},{"type":"Feature","geometry":{"type":"Point","coordinates":[-105.2914,39.5963]},"properties":{"s":46.3,"pub":false}},{"type":"Feature","geometry":{"type":"Point","coordinates":[-105.2914,39.6021]},"properties":{"s":46.3,"pub":false}},{"type":"Feature","geometry":{"type":"Point","coordinates":[-105.2914,39.6079]},"properties":{"s":46.3,"pub":false}},{"type":"Feature","geometry":{"type":"Point","coordinates":[-105.2914,39.6137]},"properties":{"s":46.3,"pub":false}},{"type":"Feature","geometry":{"type":"Point","coordinates":[-105.2914,39.6195]},"properties":{"s":46.3,"pub":false}},{"type":"Feature","geometry":{"type":"Point","coordinates":[-105.2914,39.6253]},"properties":{"s":46.3,"pub":false}},{"type":"Feature","geometry":{"type":"Point","coordinates":[-105.2914,39.6311]},"properties":{"s":46.3,"pub":false}},{"type":"Feature","geometry":{"type":"Point","coordinates":[-105.2914,39.6369]},"properties":{"s":46.3,"pub":false}},{"type":"Feature","geometry":{"type":"Point","coordinates":[-105.2914,39.6427]},"properties":{"s":46.3,"pub":false}},{"type":"Feature","geometry":{"type":"Point","coordinates":[-105.2914,39.6485]},"properties":{"s":46.3,"pub":false}},{"type":"Feature","geometry":{"type":"Point","coordinates":[-105.2914,39.6543]},"properties":{"s":46.3,"pub":false}},{"type":"Feature","geometry":{"type":"Point","coordinates":[-105.2914,39.6601]},"properties":{"s":46.3,"pub":false}},{"type":"Feature","geometry":{"type":"Point","coordinates":[-105.2914,39.6659]},"properties":{"s":46.3,"pub":false}},{"type":"Feature","geometry":{"type":"Point","coordinates":[-105.2914,39.6717]},"properties":{"s":46.3,"pub":false}},{"type":"Feature","geometry":{"type":"Point","coordinates":[-105.2914,39.6775]},"properties":{"s":95.1,"pub":false}},{"type":"Feature","geometry":{"type":"Point","coordinates":[-105.2914,39.6833]},"properties":{"s":95.1,"pub":false}},{"type":"Feature","geometry":{"type":"Point","coordinates":[-105.2914,39.6891]},"properties":{"s":100.0,"pub":false}},{"type":"Feature","geometry":{"type":"Point","coordinates":[-105.2914,39.6949]},"properties":{"s":100.0,"pub":false}},{"type":"Feature","geometry":{"type":"Point","coordinates":[-105.2914,39.7007]},"properties":{"s":100.0,"pub":false}},{"type":"Feature","geometry":{"type":"Point","coordinates":[-105.2914,39.7065]},"properties":{"s":95.1,"pub":false}},{"type":"Feature","geometry":{"type":"Point","coordinates":[-105.2839,39.5731]},"properties":{"s":70.7,"pub":false}},{"type":"Feature","geometry":{"type":"Point","coordinates":[-105.2839,39.5789]},"properties":{"s":51.2,"pub":false}},{"type":"Feature","geometry":{"type":"Point","coordinates":[-105.2839,39.5847]},"properties":{"s":51.2,"pub":false}},{"type":"Feature","geometry":{"type":"Point","coordinates":[-105.2839,39.5905]},"properties":{"s":51.2,"pub":false}},{"type":"Feature","geometry":{"type":"Point","coordinates":[-105.2839,39.5963]},"properties":{"s":51.2,"pub":false}},{"type":"Feature","geometry":{"type":"Point","coordinates":[-105.2839,39.6021]},"properties":{"s":51.2,"pub":false}},{"type":"Feature","geometry":{"type":"Point","coordinates":[-105.2839,39.6079]},"properties":{"s":51.2,"pub":false}},{"type":"Feature","geometry":{"type":"Point","coordinates":[-105.2839,39.6137]},"properties":{"s":46.3,"pub":false}},{"type":"Feature","geometry":{"type":"Point","coordinates":[-105.2839,39.6195]},"properties":{"s":46.3,"pub":false}},{"type":"Feature","geometry":{"type":"Point","coordinates":[-105.2839,39.6253]},"properties":{"s":46.3,"pub":false}},{"type":"Feature","geometry":{"type":"Point","coordinates":[-105.2839,39.6311]},"properties":{"s":46.3,"pub":false}},{"type":"Feature","geometry":{"type":"Point","coordinates":[-105.2839,39.6369]},"properties":{"s":46.3,"pub":false}},{"type":"Feature","geometry":{"type":"Point","coordinates":[-105.2839,39.6427]},"properties":{"s":46.3,"pub":false}},{"type":"Feature","geometry":{"type":"Point","coordinates":[-105.2839,39.6485]},"properties":{"s":46.3,"pub":false}},{"type":"Feature","geometry":{"type":"Point","coordinates":[-105.2839,39.6543]},"properties":{"s":46.3,"pub":false}},{"type":"Feature","geometry":{"type":"Point","coordinates":[-105.2839,39.6601]},"properties":{"s":46.3,"pub":false}},{"type":"Feature","geometry":{"type":"Point","coordinates":[-105.2839,39.6659]},"properties":{"s":46.3,"pub":false}},{"type":"Feature","geometry":{"type":"Point","coordinates":[-105.2839,39.6717]},"properties":{"s":46.3,"pub":false}},{"type":"Feature","geometry":{"type":"Point","coordinates":[-105.2839,39.6775]},"properties":{"s":46.3,"pub":false}},{"type":"Feature","geometry":{"type":"Point","coordinates":[-105.2839,39.6833]},"properties":{"s":95.1,"pub":false}},{"type":"Feature","geometry":{"type":"Point","coordinates":[-105.2839,39.6891]},"properties":{"s":100.0,"pub":false}},{"type":"Feature","geometry":{"type":"Point","coordinates":[-105.2839,39.6949]},"properties":{"s":100.0,"pub":false}},{"type":"Feature","geometry":{"type":"Point","coordinates":[-105.2839,39.7007]},"properties":{"s":100.0,"pub":false}},{"type":"Feature","geometry":{"type":"Point","coordinates":[-105.2839,39.7065]},"properties":{"s":46.3,"pub":false}},{"type":"Feature","geometry":{"type":"Point","coordinates":[-105.2764,39.5673]},"properties":{"s":46.3,"pub":false}},{"type":"Feature","geometry":{"type":"Point","coordinates":[-105.2764,39.5789]},"properties":{"s":46.3,"pub":false}},{"type":"Feature","geometry":{"type":"Point","coordinates":[-105.2764,39.5847]},"properties":{"s":51.2,"pub":false}},{"type":"Feature","geometry":{"type":"Point","coordinates":[-105.2764,39.5905]},"properties":{"s":51.2,"pub":false}},{"type":"Feature","geometry":{"type":"Point","coordinates":[-105.2764,39.5963]},"properties":{"s":51.2,"pub":false}},{"type":"Feature","geometry":{"type":"Point","coordinates":[-105.2764,39.6021]},"properties":{"s":51.2,"pub":false}},{"type":"Feature","geometry":{"type":"Point","coordinates":[-105.2764,39.6079]},"properties":{"s":51.2,"pub":false}},{"type":"Feature","geometry":{"type":"Point","coordinates":[-105.2764,39.6137]},"properties":{"s":46.3,"pub":false}},{"type":"Feature","geometry":{"type":"Point","coordinates":[-105.2764,39.6195]},"properties":{"s":46.3,"pub":false}},{"type":"Feature","geometry":{"type":"Point","coordinates":[-105.2764,39.6253]},"properties":{"s":46.3,"pub":false}},{"type":"Feature","geometry":{"type":"Point","coordinates":[-105.2764,39.6311]},"properties":{"s":46.3,"pub":false}},{"type":"Feature","geometry":{"type":"Point","coordinates":[-105.2764,39.6369]},"properties":{"s":46.3,"pub":false}},{"type":"Feature","geometry":{"type":"Point","coordinates":[-105.2764,39.6427]},"properties":{"s":46.3,"pub":false}},{"type":"Feature","geometry":{"type":"Point","coordinates":[-105.2764,39.6485]},"properties":{"s":46.3,"pub":false}},{"type":"Feature","geometry":{"type":"Point","coordinates":[-105.2764,39.6543]},"properties":{"s":46.3,"pub":false}},{"type":"Feature","geometry":{"type":"Point","coordinates":[-105.2764,39.6601]},"properties":{"s":46.3,"pub":false}},{"type":"Feature","geometry":{"type":"Point","coordinates":[-105.2764,39.6659]},"properties":{"s":46.3,"pub":false}},{"type":"Feature","geometry":{"type":"Point","coordinates":[-105.2764,39.6717]},"properties":{"s":46.3,"pub":false}},{"type":"Feature","geometry":{"type":"Point","coordinates":[-105.2764,39.6775]},"properties":{"s":46.3,"pub":false}},{"type":"Feature","geometry":{"type":"Point","coordinates":[-105.2764,39.6833]},"properties":{"s":95.1,"pub":false}},{"type":"Feature","geometry":{"type":"Point","coordinates":[-105.2764,39.6891]},"properties":{"s":95.1,"pub":false}},{"type":"Feature","geometry":{"type":"Point","coordinates":[-105.2764,39.6949]},"properties":{"s":100.0,"pub":false}},{"type":"Feature","geometry":{"type":"Point","coordinates":[-105.2764,39.7007]},"properties":{"s":95.1,"pub":false}},{"type":"Feature","geometry":{"type":"Point","coordinates":[-105.2689,39.5789]},"properties":{"s":46.3,"pub":false}},{"type":"Feature","geometry":{"type":"Point","coordinates":[-105.2689,39.5847]},"properties":{"s":46.3,"pub":false}},{"type":"Feature","geometry":{"type":"Point","coordinates":[-105.2689,39.5905]},"properties":{"s":51.2,"pub":false}},{"type":"Feature","geometry":{"type":"Point","coordinates":[-105.2689,39.5963]},"properties":{"s":51.2,"pub":false}},{"type":"Feature","geometry":{"type":"Point","coordinates":[-105.2689,39.6021]},"properties":{"s":51.2,"pub":false}},{"type":"Feature","geometry":{"type":"Point","coordinates":[-105.2689,39.6079]},"properties":{"s":51.2,"pub":false}},{"type":"Feature","geometry":{"type":"Point","coordinates":[-105.2689,39.6137]},"properties":{"s":46.3,"pub":false}},{"type":"Feature","geometry":{"type":"Point","coordinates":[-105.2689,39.6195]},"properties":{"s":46.3,"pub":false}},{"type":"Feature","geometry":{"type":"Point","coordinates":[-105.2689,39.6253]},"properties":{"s":46.3,"pub":false}},{"type":"Feature","geometry":{"type":"Point","coordinates":[-105.2689,39.6311]},"properties":{"s":46.3,"pub":false}},{"type":"Feature","geometry":{"type":"Point","coordinates":[-105.2689,39.6369]},"properties":{"s":46.3,"pub":false}},{"type":"Feature","geometry":{"type":"Point","coordinates":[-105.2689,39.6427]},"properties":{"s":46.3,"pub":false}},{"type":"Feature","geometry":{"type":"Point","coordinates":[-105.2689,39.6485]},"properties":{"s":46.3,"pub":false}},{"type":"Feature","geometry":{"type":"Point","coordinates":[-105.2689,39.6543]},"properties":{"s":46.3,"pub":false}},{"type":"Feature","geometry":{"type":"Point","coordinates":[-105.2689,39.6601]},"properties":{"s":46.3,"pub":false}},{"type":"Feature","geometry":{"type":"Point","coordinates":[-105.2689,39.6659]},"properties":{"s":46.3,"pub":false}},{"type":"Feature","geometry":{"type":"Point","coordinates":[-105.2689,39.6717]},"properties":{"s":46.3,"pub":false}},{"type":"Feature","geometry":{"type":"Point","coordinates":[-105.2689,39.6775]},"properties":{"s":46.3,"pub":false}},{"type":"Feature","geometry":{"type":"Point","coordinates":[-105.2689,39.6833]},"properties":{"s":46.3,"pub":false}},{"type":"Feature","geometry":{"type":"Point","coordinates":[-105.2689,39.6891]},"properties":{"s":95.1,"pub":false}},{"type":"Feature","geometry":{"type":"Point","coordinates":[-105.2689,39.6949]},"properties":{"s":95.1,"pub":false}},{"type":"Feature","geometry":{"type":"Point","coordinates":[-105.2689,39.7007]},"properties":{"s":95.1,"pub":false}},{"type":"Feature","geometry":{"type":"Point","coordinates":[-105.2614,39.5847]},"properties":{"s":46.3,"pub":false}},{"type":"Feature","geometry":{"type":"Point","coordinates":[-105.2614,39.5905]},"properties":{"s":46.3,"pub":false}},{"type":"Feature","geometry":{"type":"Point","coordinates":[-105.2614,39.5963]},"properties":{"s":46.3,"pub":false}},{"type":"Feature","geometry":{"type":"Point","coordinates":[-105.2614,39.6021]},"properties":{"s":46.3,"pub":false}},{"type":"Feature","geometry":{"type":"Point","coordinates":[-105.2614,39.6079]},"properties":{"s":46.3,"pub":false}},{"type":"Feature","geometry":{"type":"Point","coordinates":[-105.2614,39.6137]},"properties":{"s":46.3,"pub":false}},{"type":"Feature","geometry":{"type":"Point","coordinates":[-105.2614,39.6195]},"properties":{"s":46.3,"pub":false}},{"type":"Feature","geometry":{"type":"Point","coordinates":[-105.2614,39.6253]},"properties":{"s":46.3,"pub":false}},{"type":"Feature","geometry":{"type":"Point","coordinates":[-105.2614,39.6311]},"properties":{"s":46.3,"pub":false}},{"type":"Feature","geometry":{"type":"Point","coordinates":[-105.2614,39.6369]},"properties":{"s":46.3,"pub":false}},{"type":"Feature","geometry":{"type":"Point","coordinates":[-105.2614,39.6427]},"properties":{"s":46.3,"pub":false}},{"type":"Feature","geometry":{"type":"Point","coordinates":[-105.2614,39.6485]},"properties":{"s":46.3,"pub":false}},{"type":"Feature","geometry":{"type":"Point","coordinates":[-105.2614,39.6543]},"properties":{"s":46.3,"pub":false}},{"type":"Feature","geometry":{"type":"Point","coordinates":[-105.2614,39.6601]},"properties":{"s":46.3,"pub":false}},{"type":"Feature","geometry":{"type":"Point","coordinates":[-105.2614,39.6659]},"properties":{"s":51.2,"pub":false}},{"type":"Feature","geometry":{"type":"Point","coordinates":[-105.2614,39.6717]},"properties":{"s":51.2,"pub":false}},{"type":"Feature","geometry":{"type":"Point","coordinates":[-105.2614,39.6775]},"properties":{"s":46.3,"pub":false}},{"type":"Feature","geometry":{"type":"Point","coordinates":[-105.2614,39.6833]},"properties":{"s":46.3,"pub":false}},{"type":"Feature","geometry":{"type":"Point","coordinates":[-105.2614,39.6891]},"properties":{"s":46.3,"pub":false}},{"type":"Feature","geometry":{"type":"Point","coordinates":[-105.2614,39.6949]},"properties":{"s":46.3,"pub":false}},{"type":"Feature","geometry":{"type":"Point","coordinates":[-105.2614,39.7007]},"properties":{"s":46.3,"pub":false}},{"type":"Feature","geometry":{"type":"Point","coordinates":[-105.2539,39.5847]},"properties":{"s":46.3,"pub":false}},{"type":"Feature","geometry":{"type":"Point","coordinates":[-105.2539,39.5905]},"properties":{"s":46.3,"pub":false}},{"type":"Feature","geometry":{"type":"Point","coordinates":[-105.2539,39.5963]},"properties":{"s":46.3,"pub":false}},{"type":"Feature","geometry":{"type":"Point","coordinates":[-105.2539,39.6021]},"properties":{"s":46.3,"pub":false}},{"type":"Feature","geometry":{"type":"Point","coordinates":[-105.2539,39.6079]},"properties":{"s":46.3,"pub":false}},{"type":"Feature","geometry":{"type":"Point","coordinates":[-105.2539,39.6137]},"properties":{"s":46.3,"pub":false}},{"type":"Feature","geometry":{"type":"Point","coordinates":[-105.2539,39.6195]},"properties":{"s":46.3,"pub":false}},{"type":"Feature","geometry":{"type":"Point","coordinates":[-105.2539,39.6253]},"properties":{"s":46.3,"pub":false}},{"type":"Feature","geometry":{"type":"Point","coordinates":[-105.2539,39.6311]},"properties":{"s":46.3,"pub":false}},{"type":"Feature","geometry":{"type":"Point","coordinates":[-105.2539,39.6369]},"properties":{"s":46.3,"pub":false}},{"type":"Feature","geometry":{"type":"Point","coordinates":[-105.2539,39.6427]},"properties":{"s":46.3,"pub":false}},{"type":"Feature","geometry":{"type":"Point","coordinates":[-105.2539,39.6485]},"properties":{"s":46.3,"pub":false}},{"type":"Feature","geometry":{"type":"Point","coordinates":[-105.2539,39.6543]},"properties":{"s":46.3,"pub":false}},{"type":"Feature","geometry":{"type":"Point","coordinates":[-105.2539,39.6601]},"properties":{"s":46.3,"pub":false}},{"type":"Feature","geometry":{"type":"Point","coordinates":[-105.2539,39.6659]},"properties":{"s":51.2,"pub":false}},{"type":"Feature","geometry":{"type":"Point","coordinates":[-105.2539,39.6717]},"properties":{"s":51.2,"pub":false}},{"type":"Feature","geometry":{"type":"Point","coordinates":[-105.2539,39.6775]},"properties":{"s":46.3,"pub":false}},{"type":"Feature","geometry":{"type":"Point","coordinates":[-105.2539,39.6833]},"properties":{"s":46.3,"pub":false}},{"type":"Feature","geometry":{"type":"Point","coordinates":[-105.2539,39.6891]},"properties":{"s":46.3,"pub":false}},{"type":"Feature","geometry":{"type":"Point","coordinates":[-105.2539,39.6949]},"properties":{"s":46.3,"pub":false}},{"type":"Feature","geometry":{"type":"Point","coordinates":[-105.2539,39.7007]},"properties":{"s":46.3,"pub":false}},{"type":"Feature","geometry":{"type":"Point","coordinates":[-105.2464,39.5905]},"properties":{"s":46.3,"pub":false}},{"type":"Feature","geometry":{"type":"Point","coordinates":[-105.2464,39.5963]},"properties":{"s":46.3,"pub":false}},{"type":"Feature","geometry":{"type":"Point","coordinates":[-105.2464,39.6021]},"properties":{"s":46.3,"pub":false}},{"type":"Feature","geometry":{"type":"Point","coordinates":[-105.2464,39.6079]},"properties":{"s":46.3,"pub":false}},{"type":"Feature","geometry":{"type":"Point","coordinates":[-105.2464,39.6137]},"properties":{"s":46.3,"pub":false}},{"type":"Feature","geometry":{"type":"Point","coordinates":[-105.2464,39.6195]},"properties":{"s":46.3,"pub":false}},{"type":"Feature","geometry":{"type":"Point","coordinates":[-105.2464,39.6253]},"properties":{"s":46.3,"pub":false}},{"type":"Feature","geometry":{"type":"Point","coordinates":[-105.2464,39.6311]},"properties":{"s":46.3,"pub":false}},{"type":"Feature","geometry":{"type":"Point","coordinates":[-105.2464,39.6369]},"properties":{"s":46.3,"pub":false}},{"type":"Feature","geometry":{"type":"Point","coordinates":[-105.2464,39.6427]},"properties":{"s":46.3,"pub":false}},{"type":"Feature","geometry":{"type":"Point","coordinates":[-105.2464,39.6485]},"properties":{"s":46.3,"pub":false}},{"type":"Feature","geometry":{"type":"Point","coordinates":[-105.2464,39.6543]},"properties":{"s":46.3,"pub":false}},{"type":"Feature","geometry":{"type":"Point","coordinates":[-105.2464,39.6601]},"properties":{"s":46.3,"pub":false}},{"type":"Feature","geometry":{"type":"Point","coordinates":[-105.2464,39.6659]},"properties":{"s":46.3,"pub":false}},{"type":"Feature","geometry":{"type":"Point","coordinates":[-105.2464,39.6717]},"properties":{"s":51.2,"pub":false}},{"type":"Feature","geometry":{"type":"Point","coordinates":[-105.2464,39.6775]},"properties":{"s":51.2,"pub":false}},{"type":"Feature","geometry":{"type":"Point","coordinates":[-105.2464,39.6833]},"properties":{"s":46.3,"pub":false}},{"type":"Feature","geometry":{"type":"Point","coordinates":[-105.2464,39.6891]},"properties":{"s":46.3,"pub":false}},{"type":"Feature","geometry":{"type":"Point","coordinates":[-105.2464,39.6949]},"properties":{"s":46.3,"pub":false}},{"type":"Feature","geometry":{"type":"Point","coordinates":[-105.2464,39.7007]},"properties":{"s":46.3,"pub":false}},{"type":"Feature","geometry":{"type":"Point","coordinates":[-105.2389,39.5905]},"properties":{"s":46.3,"pub":false}},{"type":"Feature","geometry":{"type":"Point","coordinates":[-105.2389,39.5963]},"properties":{"s":46.3,"pub":false}},{"type":"Feature","geometry":{"type":"Point","coordinates":[-105.2389,39.6021]},"properties":{"s":46.3,"pub":false}},{"type":"Feature","geometry":{"type":"Point","coordinates":[-105.2389,39.6079]},"properties":{"s":46.3,"pub":false}},{"type":"Feature","geometry":{"type":"Point","coordinates":[-105.2389,39.6137]},"properties":{"s":46.3,"pub":false}},{"type":"Feature","geometry":{"type":"Point","coordinates":[-105.2389,39.6195]},"properties":{"s":46.3,"pub":false}},{"type":"Feature","geometry":{"type":"Point","coordinates":[-105.2389,39.6253]},"properties":{"s":46.3,"pub":false}},{"type":"Feature","geometry":{"type":"Point","coordinates":[-105.2389,39.6311]},"properties":{"s":46.3,"pub":false}},{"type":"Feature","geometry":{"type":"Point","coordinates":[-105.2389,39.6369]},"properties":{"s":46.3,"pub":false}},{"type":"Feature","geometry":{"type":"Point","coordinates":[-105.2389,39.6427]},"properties":{"s":46.3,"pub":false}},{"type":"Feature","geometry":{"type":"Point","coordinates":[-105.2389,39.6485]},"properties":{"s":46.3,"pub":false}},{"type":"Feature","geometry":{"type":"Point","coordinates":[-105.2389,39.6543]},"properties":{"s":46.3,"pub":false}},{"type":"Feature","geometry":{"type":"Point","coordinates":[-105.2389,39.6601]},"properties":{"s":46.3,"pub":false}},{"type":"Feature","geometry":{"type":"Point","coordinates":[-105.2389,39.6659]},"properties":{"s":46.3,"pub":false}},{"type":"Feature","geometry":{"type":"Point","coordinates":[-105.2389,39.6717]},"properties":{"s":46.3,"pub":false}},{"type":"Feature","geometry":{"type":"Point","coordinates":[-105.2389,39.6775]},"properties":{"s":46.3,"pub":false}},{"type":"Feature","geometry":{"type":"Point","coordinates":[-105.2389,39.6833]},"properties":{"s":46.3,"pub":false}},{"type":"Feature","geometry":{"type":"Point","coordinates":[-105.2389,39.6891]},"properties":{"s":46.3,"pub":false}},{"type":"Feature","geometry":{"type":"Point","coordinates":[-105.2389,39.6949]},"properties":{"s":51.2,"pub":false}},{"type":"Feature","geometry":{"type":"Point","coordinates":[-105.2314,39.6137]},"properties":{"s":46.3,"pub":false}},{"type":"Feature","geometry":{"type":"Point","coordinates":[-105.2314,39.6195]},"properties":{"s":46.3,"pub":false}},{"type":"Feature","geometry":{"type":"Point","coordinates":[-105.2314,39.6253]},"properties":{"s":46.3,"pub":false}},{"type":"Feature","geometry":{"type":"Point","coordinates":[-105.2314,39.6311]},"properties":{"s":46.3,"pub":false}},{"type":"Feature","geometry":{"type":"Point","coordinates":[-105.2314,39.6369]},"properties":{"s":46.3,"pub":false}},{"type":"Feature","geometry":{"type":"Point","coordinates":[-105.2314,39.6427]},"properties":{"s":46.3,"pub":false}},{"type":"Feature","geometry":{"type":"Point","coordinates":[-105.2314,39.6485]},"properties":{"s":46.3,"pub":false}},{"type":"Feature","geometry":{"type":"Point","coordinates":[-105.2314,39.6543]},"properties":{"s":46.3,"pub":false}},{"type":"Feature","geometry":{"type":"Point","coordinates":[-105.2314,39.6601]},"properties":{"s":46.3,"pub":false}},{"type":"Feature","geometry":{"type":"Point","coordinates":[-105.2314,39.6659]},"properties":{"s":46.3,"pub":false}},{"type":"Feature","geometry":{"type":"Point","coordinates":[-105.2314,39.6717]},"properties":{"s":46.3,"pub":false}},{"type":"Feature","geometry":{"type":"Point","coordinates":[-105.2314,39.6775]},"properties":{"s":46.3,"pub":false}},{"type":"Feature","geometry":{"type":"Point","coordinates":[-105.2314,39.6833]},"properties":{"s":46.3,"pub":false}},{"type":"Feature","geometry":{"type":"Point","coordinates":[-105.2314,39.6891]},"properties":{"s":46.3,"pub":false}},{"type":"Feature","geometry":{"type":"Point","coordinates":[-105.2314,39.6949]},"properties":{"s":51.2,"pub":false}},{"type":"Feature","geometry":{"type":"Point","coordinates":[-105.2239,39.6253]},"properties":{"s":46.3,"pub":false}},{"type":"Feature","geometry":{"type":"Point","coordinates":[-105.2239,39.6311]},"properties":{"s":46.3,"pub":false}},{"type":"Feature","geometry":{"type":"Point","coordinates":[-105.2239,39.6369]},"properties":{"s":46.3,"pub":false}},{"type":"Feature","geometry":{"type":"Point","coordinates":[-105.2239,39.6427]},"properties":{"s":46.3,"pub":false}},{"type":"Feature","geometry":{"type":"Point","coordinates":[-105.2239,39.6485]},"properties":{"s":46.3,"pub":false}},{"type":"Feature","geometry":{"type":"Point","coordinates":[-105.2239,39.6543]},"properties":{"s":46.3,"pub":false}},{"type":"Feature","geometry":{"type":"Point","coordinates":[-105.2239,39.6601]},"properties":{"s":46.3,"pub":false}},{"type":"Feature","geometry":{"type":"Point","coordinates":[-105.2239,39.6659]},"properties":{"s":46.3,"pub":false}},{"type":"Feature","geometry":{"type":"Point","coordinates":[-105.2239,39.6717]},"properties":{"s":46.3,"pub":false}},{"type":"Feature","geometry":{"type":"Point","coordinates":[-105.2164,39.6311]},"properties":{"s":46.3,"pub":false}},{"type":"Feature","geometry":{"type":"Point","coordinates":[-105.2164,39.6369]},"properties":{"s":46.3,"pub":false}},{"type":"Feature","geometry":{"type":"Point","coordinates":[-105.2164,39.6427]},"properties":{"s":46.3,"pub":false}},{"type":"Feature","geometry":{"type":"Point","coordinates":[-105.2164,39.6485]},"properties":{"s":46.3,"pub":false}},{"type":"Feature","geometry":{"type":"Point","coordinates":[-105.2164,39.6543]},"properties":{"s":46.3,"pub":false}},{"type":"Feature","geometry":{"type":"Point","coordinates":[-105.2164,39.6601]},"properties":{"s":46.3,"pub":false}}]}