{"type":"FeatureCollection","features":[{"type":"Feature","geometry":{"type":"Point","coordinates":[-108.2556,38.8671]},"properties":{"s":25.0,"pub":true}},{"type":"Feature","geometry":{"type":"Point","coordinates":[-108.2481,38.8555]},"properties":{"s":25.0,"pub":true}},{"type":"Feature","geometry":{"type":"Point","coordinates":[-108.2481,38.8613]},"properties":{"s":25.0,"pub":true}},{"type":"Feature","geometry":{"type":"Point","coordinates":[-108.2481,38.8671]},"properties":{"s":25.0,"pub":true}},{"type":"Feature","geometry":{"type":"Point","coordinates":[-108.2406,38.8497]},"properties":{"s":25.0,"pub":true}},{"type":"Feature","geometry":{"type":"Point","coordinates":[-108.2406,38.8555]},"properties":{"s":25.0,"pub":true}},{"type":"Feature","geometry":{"type":"Point","coordinates":[-108.2406,38.8613]},"properties":{"s":25.0,"pub":true}},{"type":"Feature","geometry":{"type":"Point","coordinates":[-108.2406,38.8671]},"properties":{"s":25.0,"pub":true}},{"type":"Feature","geometry":{"type":"Point","coordinates":[-108.2406,38.8729]},"properties":{"s":25.0,"pub":true}},{"type":"Feature","geometry":{"type":"Point","coordinates":[-108.2331,38.8497]},"properties":{"s":25.0,"pub":true}},{"type":"Feature","geometry":{"type":"Point","coordinates":[-108.2331,38.8555]},"properties":{"s":25.0,"pub":true}},{"type":"Feature","geometry":{"type":"Point","coordinates":[-108.2331,38.8613]},"properties":{"s":25.0,"pub":true}},{"type":"Feature","geometry":{"type":"Point","coordinates":[-108.2331,38.8671]},"properties":{"s":25.0,"pub":true}},{"type":"Feature","geometry":{"type":"Point","coordinates":[-108.2331,38.8729]},"properties":{"s":25.0,"pub":true}},{"type":"Feature","geometry":{"type":"Point","coordinates":[-108.2256,38.8497]},"properties":{"s":25.0,"pub":true}},{"type":"Feature","geometry":{"type":"Point","coordinates":[-108.2256,38.8555]},"properties":{"s":25.0,"pub":true}},{"type":"Feature","geometry":{"type":"Point","coordinates":[-108.2256,38.8613]},"properties":{"s":25.0,"pub":true}},{"type":"Feature","geometry":{"type":"Point","coordinates":[-108.2256,38.8671]},"properties":{"s":25.0,"pub":true}},{"type":"Feature","geometry":{"type":"Point","coordinates":[-108.2256,38.8729]},"properties":{"s":25.0,"pub":true}},{"type":"Feature","geometry":{"type":"Point","coordinates":[-108.2256,38.8787]},"properties":{"s":25.0,"pub":true}},{"type":"Feature","geometry":{"type":"Point","coordinates":[-108.2181,38.8439]},"properties":{"s":25.0,"pub":true}},{"type":"Feature","geometry":{"type":"Point","coordinates":[-108.2181,38.8497]},"properties":{"s":25.0,"pub":true}},{"type":"Feature","geometry":{"type":"Point","coordinates":[-108.2181,38.8555]},"properties":{"s":25.0,"pub":true}},{"type":"Feature","geometry":{"type":"Point","coordinates":[-108.2181,38.8613]},"properties":{"s":25.0,"pub":true}},{"type":"Feature","geometry":{"type":"Point","coordinates":[-108.2181,38.8671]},"properties":{"s":25.0,"pub":true}},{"type":"Feature","geometry":{"type":"Point","coordinates":[-108.2181,38.8729]},"properties":{"s":25.0,"pub":true}},{"type":"Feature","geometry":{"type":"Point","coordinates":[-108.2181,38.8787]},"properties":{"s":25.0,"pub":true}},{"type":"Feature","geometry":{"type":"Point","coordinates":[-108.2106,38.8381]},"properties":{"s":25.0,"pub":true}},{"type":"Feature","geometry":{"type":"Point","coordinates":[-108.2106,38.8439]},"properties":{"s":25.0,"pub":true}},{"type":"Feature","geometry":{"type":"Point","coordinates":[-108.2106,38.8497]},"properties":{"s":25.0,"pub":true}},{"type":"Feature","geometry":{"type":"Point","coordinates":[-108.2106,38.8555]},"properties":{"s":25.0,"pub":true}},{"type":"Feature","geometry":{"type":"Point","coordinates":[-108.2106,38.8613]},"properties":{"s":25.0,"pub":true}},{"type":"Feature","geometry":{"type":"Point","coordinates":[-108.2106,38.8671]},"properties":{"s":25.0,"pub":true}},{"type":"Feature","geometry":{"type":"Point","coordinates":[-108.2106,38.8729]},"properties":{"s":25.0,"pub":true}},{"type":"Feature","geometry":{"type":"Point","coordinates":[-108.2106,38.8787]},"properties":{"s":25.0,"pub":true}},{"type":"Feature","geometry":{"type":"Point","coordinates":[-108.2031,38.8381]},"properties":{"s":25.0,"pub":true}},{"type":"Feature","geometry":{"type":"Point","coordinates":[-108.2031,38.8439]},"properties":{"s":25.0,"pub":true}},{"type":"Feature","geometry":{"type":"Point","coordinates":[-108.2031,38.8497]},"properties":{"s":25.0,"pub":true}},{"type":"Feature","geometry":{"type":"Point","coordinates":[-108.2031,38.8555]},"properties":{"s":25.0,"pub":true}},{"type":"Feature","geometry":{"type":"Point","coordinates":[-108.2031,38.8613]},"properties":{"s":25.0,"pub":true}},{"type":"Feature","geometry":{"type":"Point","coordinates":[-108.2031,38.8671]},"properties":{"s":25.0,"pub":true}},{"type":"Feature","geometry":{"type":"Point","coordinates":[-108.2031,38.8729]},"properties":{"s":25.0,"pub":true}},{"type":"Feature","geometry":{"type":"Point","coordinates":[-108.2031,38.8787]},"properties":{"s":25.0,"pub":true}},{"type":"Feature","geometry":{"type":"Point","coordinates":[-108.2031,38.8845]},"properties":{"s":25.0,"pub":true}},{"type":"Feature","geometry":{"type":"Point","coordinates":[-108.1956,38.8323]},"properties":{"s":25.0,"pub":true}},{"type":"Feature","geometry":{"type":"Point","coordinates":[-108.1956,38.8381]},"properties":{"s":25.0,"pub":true}},{"type":"Feature","geometry":{"type":"Point","coordinates":[-108.1956,38.8439]},"properties":{"s":25.0,"pub":true}},{"type":"Feature","geometry":{"type":"Point","coordinates":[-108.1956,38.8497]},"properties":{"s":25.0,"pub":true}},{"type":"Feature","geometry":{"type":"Point","coordinates":[-108.1956,38.8555]},"properties":{"s":25.0,"pub":true}},{"type":"Feature","geometry":{"type":"Point","coordinates":[-108.1956,38.8613]},"properties":{"s":25.0,"pub":true}},{"type":"Feature","geometry":{"type":"Point","coordinates":[-108.1956,38.8671]},"properties":{"s":25.0,"pub":true}},{"type":"Feature","geometry":{"type":"Point","coordinates":[-108.1956,38.8729]},"properties":{"s":25.0,"pub":true}},{"type":"Feature","geometry":{"type":"Point","coordinates":[-108.1956,38.8787]},"properties":{"s":25.0,"pub":true}},{"type":"Feature","geometry":{"type":"Point","coordinates":[-108.1956,38.8845]},"properties":{"s":25.0,"pub":true}},{"type":"Feature","geometry":{"type":"Point","coordinates":[-108.1881,38.8323]},"properties":{"s":25.0,"pub":true}},{"type":"Feature","geometry":{"type":"Point","coordinates":[-108.1881,38.8381]},"properties":{"s":25.0,"pub":true}},{"type":"Feature","geometry":{"type":"Point","coordinates":[-108.1881,38.8439]},"properties":{"s":25.0,"pub":true}},{"type":"Feature","geometry":{"type":"Point","coordinates":[-108.1881,38.8497]},"properties":{"s":25.0,"pub":true}},{"type":"Feature","geometry":{"type":"Point","coordinates":[-108.1881,38.8555]},"properties":{"s":25.0,"pub":true}},{"type":"Feature","geometry":{"type":"Point","coordinates":[-108.1881,38.8613]},"properties":{"s":25.0,"pub":true}},{"type":"Feature","geometry":{"type":"Point","coordinates":[-108.1881,38.8671]},"properties":{"s":25.0,"pub":true}},{"type":"Feature","geometry":{"type":"Point","coordinates":[-108.1881,38.8729]},"properties":{"s":25.0,"pub":true}},{"type":"Feature","geometry":{"type":"Point","coordinates":[-108.1881,38.8787]},"properties":{"s":25.0,"pub":true}},{"type":"Feature","geometry":{"type":"Point","coordinates":[-108.1881,38.8845]},"properties":{"s":25.0,"pub":true}},{"type":"Feature","geometry":{"type":"Point","coordinates":[-108.1881,38.8903]},"properties":{"s":25.0,"pub":true}},{"type":"Feature","geometry":{"type":"Point","coordinates":[-108.1806,38.8323]},"properties":{"s":25.0,"pub":true}},{"type":"Feature","geometry":{"type":"Point","coordinates":[-108.1806,38.8381]},"properties":{"s":25.0,"pub":true}},{"type":"Feature","geometry":{"type":"Point","coordinates":[-108.1806,38.8439]},"properties":{"s":25.0,"pub":true}},{"type":"Feature","geometry":{"type":"Point","coordinates":[-108.1806,38.8497]},"properties":{"s":25.0,"pub":true}},{"type":"Feature","geometry":{"type":"Point","coordinates":[-108.1806,38.8555]},"properties":{"s":25.0,"pub":true}},{"type":"Feature","geometry":{"type":"Point","coordinates":[-108.1806,38.8613]},"properties":{"s":25.0,"pub":true}},{"type":"Feature","geometry":{"type":"Point","coordinates":[-108.1806,38.8671]},"properties":{"s":25.0,"pub":true}},{"type":"Feature","geometry":{"type":"Point","coordinates":[-108.1806,38.8729]},"properties":{"s":25.0,"pub":true}},{"type":"Feature","geometry":{"type":"Point","coordinates":[-108.1806,38.8787]},"properties":{"s":25.0,"pub":true}},{"type":"Feature","geometry":{"type":"Point","coordinates":[-108.1806,38.8845]},"properties":{"s":25.0,"pub":true}},{"type":"Feature","geometry":{"type":"Point","coordinates":[-108.1806,38.8903]},"properties":{"s":25.0,"pub":true}},{"type":"Feature","geometry":{"type":"Point","coordinates":[-108.1731,38.8323]},"properties":{"s":25.0,"pub":true}},{"type":"Feature","geometry":{"type":"Point","coordinates":[-108.1731,38.8381]},"properties":{"s":25.0,"pub":true}},{"type":"Feature","geometry":{"type":"Point","coordinates":[-108.1731,38.8439]},"properties":{"s":25.0,"pub":true}},{"type":"Feature","geometry":{"type":"Point","coordinates":[-108.1731,38.8497]},"properties":{"s":25.0,"pub":true}},{"type":"Feature","geometry":{"type":"Point","coordinates":[-108.1731,38.8555]},"properties":{"s":25.0,"pub":true}},{"type":"Feature","geometry":{"type":"Point","coordinates":[-108.1731,38.8613]},"properties":{"s":25.0,"pub":true}},{"type":"Feature","geometry":{"type":"Point","coordinates":[-108.1731,38.8671]},"properties":{"s":25.0,"pub":true}},{"type":"Feature","geometry":{"type":"Point","coordinates":[-108.1731,38.8729]},"properties":{"s":25.0,"pub":true}},{"type":"Feature","geometry":{"type":"Point","coordinates":[-108.1731,38.8787]},"properties":{"s":25.0,"pub":true}},{"type":"Feature","geometry":{"type":"Point","coordinates":[-108.1731,38.8845]},"properties":{"s":25.0,"pub":true}},{"type":"Feature","geometry":{"type":"Point","coordinates":[-108.1731,38.8903]},"properties":{"s":25.0,"pub":true}},{"type":"Feature","geometry":{"type":"Point","coordinates":[-108.1656,38.8381]},"properties":{"s":25.0,"pub":true}},{"type":"Feature","geometry":{"type":"Point","coordinates":[-108.1656,38.8439]},"properties":{"s":25.0,"pub":true}},{"type":"Feature","geometry":{"type":"Point","coordinates":[-108.1656,38.8497]},"properties":{"s":25.0,"pub":true}},{"type":"Feature","geometry":{"type":"Point","coordinates":[-108.1656,38.8555]},"properties":{"s":25.0,"pub":true}},{"type":"Feature","geometry":{"type":"Point","coordinates":[-108.1656,38.8613]},"properties":{"s":25.0,"pub":true}},{"type":"Feature","geometry":{"type":"Point","coordinates":[-108.1656,38.8671]},"properties":{"s":25.0,"pub":true}},{"type":"Feature","geometry":{"type":"Point","coordinates":[-108.1656,38.8729]},"properties":{"s":25.0,"pub":true}},{"type":"Feature","geometry":{"type":"Point","coordinates":[-108.1656,38.8787]},"properties":{"s":25.0,"pub":true}},{"type":"Feature","geometry":{"type":"Point","coordinates":[-108.1656,38.8845]},"properties":{"s":25.0,"pub":true}},{"type":"Feature","geometry":{"type":"Point","coordinates":[-108.1656,38.8903]},"properties":{"s":25.0,"pub":true}},{"type":"Feature","geometry":{"type":"Point","coordinates":[-108.1581,38.8439]},"properties":{"s":25.0,"pub":true}},{"type":"Feature","geometry":{"type":"Point","coordinates":[-108.1581,38.8497]},"properties":{"s":25.0,"pub":true}},{"type":"Feature","geometry":{"type":"Point","coordinates":[-108.1581,38.8555]},"properties":{"s":25.0,"pub":true}},{"type":"Feature","geometry":{"type":"Point","coordinates":[-108.1581,38.8613]},"properties":{"s":25.0,"pub":true}},{"type":"Feature","geometry":{"type":"Point","coordinates":[-108.1581,38.8671]},"properties":{"s":25.0,"pub":true}},{"type":"Feature","geometry":{"type":"Point","coordinates":[-108.1581,38.8729]},"properties":{"s":25.0,"pub":true}},{"type":"Feature","geometry":{"type":"Point","coordinates":[-108.1581,38.8787]},"properties":{"s":25.0,"pub":true}},{"type":"Feature","geometry":{"type":"Point","coordinates":[-108.1581,38.8845]},"properties":{"s":25.0,"pub":true}},{"type":"Feature","geometry":{"type":"Point","coordinates":[-108.1581,38.8903]},"properties":{"s":25.0,"pub":true}},{"type":"Feature","geometry":{"type":"Point","coordinates":[-108.1506,38.8497]},"properties":{"s":25.0,"pub":true}},{"type":"Feature","geometry":{"type":"Point","coordinates":[-108.1506,38.8555]},"properties":{"s":25.0,"pub":true}},{"type":"Feature","geometry":{"type":"Point","coordinates":[-108.1506,38.8613]},"properties":{"s":25.0,"pub":true}},{"type":"Feature","geometry":{"type":"Point","coordinates":[-108.1506,38.8671]},"properties":{"s":25.0,"pub":true}},{"type":"Feature","geometry":{"type":"Point","coordinates":[-108.1506,38.8729]},"properties":{"s":25.0,"pub":true}},{"type":"Feature","geometry":{"type":"Point","coordinates":[-108.1506,38.8787]},"properties":{"s":25.0,"pub":true}},{"type":"Feature","geometry":{"type":"Point","coordinates":[-108.1506,38.8845]},"properties":{"s":25.0,"pub":true}},{"type":"Feature","geometry":{"type":"Point","coordinates":[-108.1506,38.8903]},"properties":{"s":25.0,"pub":true}},{"type":"Feature","geometry":{"type":"Point","coordinates":[-108.1431,38.8497]},"properties":{"s":25.0,"pub":true}},{"type":"Feature","geometry":{"type":"Point","coordinates":[-108.1431,38.8555]},"properties":{"s":25.0,"pub":true}},{"type":"Feature","geometry":{"type":"Point","coordinates":[-108.1431,38.8613]},"properties":{"s":25.0,"pub":true}},{"type":"Feature","geometry":{"type":"Point","coordinates":[-108.1431,38.8671]},"properties":{"s":25.0,"pub":true}},{"type":"Feature","geometry":{"type":"Point","coordinates":[-108.1431,38.8729]},"properties":{"s":25.0,"pub":true}},{"type":"Feature","geometry":{"type":"Point","coordinates":[-108.1431,38.8787]},"properties":{"s":25.0,"pub":true}},{"type":"Feature","geometry":{"type":"Point","coordinates":[-108.1431,38.8845]},"properties":{"s":25.0,"pub":true}},{"type":"Feature","geometry":{"type":"Point","coordinates":[-108.1431,38.8903]},"properties":{"s":25.0,"pub":true}},{"type":"Feature","geometry":{"type":"Point","coordinates":[-108.1431,38.9193]},"properties":{"s":64.3,"pub":true}},{"type":"Feature","geometry":{"type":"Point","coordinates":[-108.1356,38.8497]},"properties":{"s":25.0,"pub":true}},{"type":"Feature","geometry":{"type":"Point","coordinates":[-108.1356,38.8555]},"properties":{"s":25.0,"pub":true}},{"type":"Feature","geometry":{"type":"Point","coordinates":[-108.1356,38.8613]},"properties":{"s":25.0,"pub":true}},{"type":"Feature","geometry":{"type":"Point","coordinates":[-108.1356,38.8671]},"properties":{"s":25.0,"pub":true}},{"type":"Feature","geometry":{"type":"Point","coordinates":[-108.1356,38.8729]},"properties":{"s":25.0,"pub":true}},{"type":"Feature","geometry":{"type":"Point","coordinates":[-108.1356,38.8787]},"properties":{"s":25.0,"pub":true}},{"type":"Feature","geometry":{"type":"Point","coordinates":[-108.1356,38.8845]},"properties":{"s":25.0,"pub":true}},{"type":"Feature","geometry":{"type":"Point","coordinates":[-108.1356,38.8903]},"properties":{"s":25.0,"pub":true}},{"type":"Feature","geometry":{"type":"Point","coordinates":[-108.1356,38.8961]},"properties":{"s":25.0,"pub":true}},{"type":"Feature","geometry":{"type":"Point","coordinates":[-108.1356,38.9135]},"properties":{"s":64.3,"pub":true}},{"type":"Feature","geometry":{"type":"Point","coordinates":[-108.1356,38.9193]},"properties":{"s":64.3,"pub":true}},{"type":"Feature","geometry":{"type":"Point","coordinates":[-108.1356,38.9251]},"properties":{"s":64.3,"pub":true}},{"type":"Feature","geometry":{"type":"Point","coordinates":[-108.1281,38.8555]},"properties":{"s":25.0,"pub":true}},{"type":"Feature","geometry":{"type":"Point","coordinates":[-108.1281,38.8613]},"properties":{"s":25.0,"pub":true}},{"type":"Feature","geometry":{"type":"Point","coordinates":[-108.1281,38.8671]},"properties":{"s":25.0,"pub":true}},{"type":"Feature","geometry":{"type":"Point","coordinates":[-108.1281,38.8729]},"properties":{"s":25.0,"pub":true}},{"type":"Feature","geometry":{"type":"Point","coordinates":[-108.1281,38.8787]},"properties":{"s":25.0,"pub":true}},{"type":"Feature","geometry":{"type":"Point","coordinates":[-108.1281,38.8845]},"properties":{"s":25.0,"pub":true}},{"type":"Feature","geometry":{"type":"Point","coordinates":[-108.1281,38.8903]},"properties":{"s":25.0,"pub":true}},{"type":"Feature","geometry":{"type":"Point","coordinates":[-108.1281,38.8961]},"properties":{"s":25.0,"pub":true}},{"type":"Feature","geometry":{"type":"Point","coordinates":[-108.1281,38.9019]},"properties":{"s":25.0,"pub":true}},{"type":"Feature","geometry":{"type":"Point","coordinates":[-108.1281,38.9077]},"properties":{"s":64.3,"pub":true}},{"type":"Feature","geometry":{"type":"Point","coordinates":[-108.1281,38.9135]},"properties":{"s":64.3,"pub":true}},{"type":"Feature","geometry":{"type":"Point","coordinates":[-108.1281,38.9193]},"properties":{"s":64.3,"pub":true}},{"type":"Feature","geometry":{"type":"Point","coordinates":[-108.1206,38.8555]},"properties":{"s":25.0,"pub":true}},{"type":"Feature","geometry":{"type":"Point","coordinates":[-108.1206,38.8613]},"properties":{"s":25.0,"pub":true}},{"type":"Feature","geometry":{"type":"Point","coordinates":[-108.1206,38.8671]},"properties":{"s":25.0,"pub":true}},{"type":"Feature","geometry":{"type":"Point","coordinates":[-108.1206,38.8729]},"properties":{"s":25.0,"pub":true}},{"type":"Feature","geometry":{"type":"Point","coordinates":[-108.1206,38.8787]},"properties":{"s":25.0,"pub":true}},{"type":"Feature","geometry":{"type":"Point","coordinates":[-108.1206,38.8845]},"properties":{"s":25.0,"pub":true}},{"type":"Feature","geometry":{"type":"Point","coordinates":[-108.1206,38.8903]},"properties":{"s":25.0,"pub":true}},{"type":"Feature","geometry":{"type":"Point","coordinates":[-108.1206,38.8961]},"properties":{"s":25.0,"pub":true}},{"type":"Feature","geometry":{"type":"Point","coordinates":[-108.1206,38.9019]},"properties":{"s":67.9,"pub":true}},{"type":"Feature","geometry":{"type":"Point","coordinates":[-108.1206,38.9077]},"properties":{"s":67.9,"pub":true}},{"type":"Feature","geometry":{"type":"Point","coordinates":[-108.1206,38.9135]},"properties":{"s":64.3,"pub":true}},{"type":"Feature","geometry":{"type":"Point","coordinates":[-108.1206,38.9193]},"properties":{"s":64.3,"pub":true}},{"type":"Feature","geometry":{"type":"Point","coordinates":[-108.1206,38.9251]},"properties":{"s":64.3,"pub":true}},{"type":"Feature","geometry":{"type":"Point","coordinates":[-108.1131,38.8555]},"properties":{"s":25.0,"pub":true}},{"type":"Feature","geometry":{"type":"Point","coordinates":[-108.1131,38.8613]},"properties":{"s":25.0,"pub":true}},{"type":"Feature","geometry":{"type":"Point","coordinates":[-108.1131,38.8671]},"properties":{"s":25.0,"pub":true}},{"type":"Feature","geometry":{"type":"Point","coordinates":[-108.1131,38.8729]},"properties":{"s":25.0,"pub":true}},{"type":"Feature","geometry":{"type":"Point","coordinates":[-108.1131,38.8787]},"properties":{"s":25.0,"pub":true}},{"type":"Feature","geometry":{"type":"Point","coordinates":[-108.1131,38.8845]},"properties":{"s":25.0,"pub":true}},{"type":"Feature","geometry":{"type":"Point","coordinates":[-108.1131,38.8903]},"properties":{"s":25.0,"pub":true}},{"type":"Feature","geometry":{"type":"Point","coordinates":[-108.1131,38.8961]},"properties":{"s":25.0,"pub":true}},{"type":"Feature","geometry":{"type":"Point","coordinates":[-108.1131,38.9019]},"properties":{"s":67.9,"pub":true}},{"type":"Feature","geometry":{"type":"Point","coordinates":[-108.1131,38.9077]},"properties":{"s":67.9,"pub":true}},{"type":"Feature","geometry":{"type":"Point","coordinates":[-108.1131,38.9135]},"properties":{"s":67.9,"pub":true}},{"type":"Feature","geometry":{"type":"Point","coordinates":[-108.1131,38.9193]},"properties":{"s":96.4,"pub":true}},{"type":"Feature","geometry":{"type":"Point","coordinates":[-108.1131,38.9251]},"properties":{"s":92.9,"pub":true}},{"type":"Feature","geometry":{"type":"Point","coordinates":[-108.1131,38.9309]},"properties":{"s":64.3,"pub":true}},{"type":"Feature","geometry":{"type":"Point","coordinates":[-108.1056,38.8613]},"properties":{"s":25.0,"pub":false}},{"type":"Feature","geometry":{"type":"Point","coordinates":[-108.1056,38.8671]},"properties":{"s":25.0,"pub":true}},{"type":"Feature","geometry":{"type":"Point","coordinates":[-108.1056,38.8729]},"properties":{"s":25.0,"pub":true}},{"type":"Feature","geometry":{"type":"Point","coordinates":[-108.1056,38.8787]},"properties":{"s":25.0,"pub":false}},{"type":"Feature","geometry":{"type":"Point","coordinates":[-108.1056,38.8845]},"properties":{"s":25.0,"pub":true}},{"type":"Feature","geometry":{"type":"Point","coordinates":[-108.1056,38.8903]},"properties":{"s":25.0,"pub":true}},{"type":"Feature","geometry":{"type":"Point","coordinates":[-108.1056,38.8961]},"properties":{"s":25.0,"pub":true}},{"type":"Feature","geometry":{"type":"Point","coordinates":[-108.1056,38.9019]},"properties":{"s":67.9,"pub":true}},{"type":"Feature","geometry":{"type":"Point","coordinates":[-108.1056,38.9077]},"properties":{"s":67.9,"pub":true}},{"type":"Feature","geometry":{"type":"Point","coordinates":[-108.1056,38.9135]},"properties":{"s":67.9,"pub":true}},{"type":"Feature","geometry":{"type":"Point","coordinates":[-108.1056,38.9193]},"properties":{"s":96.4,"pub":true}},{"type":"Feature","geometry":{"type":"Point","coordinates":[-108.1056,38.9251]},"properties":{"s":96.4,"pub":true}},{"type":"Feature","geometry":{"type":"Point","coordinates":[-108.1056,38.9309]},"properties":{"s":96.4,"pub":true}},{"type":"Feature","geometry":{"type":"Point","coordinates":[-108.1056,38.9367]},"properties":{"s":64.3,"pub":true}},{"type":"Feature","geometry":{"type":"Point","coordinates":[-108.1056,38.9425]},"properties":{"s":64.3,"pub":true}},{"type":"Feature","geometry":{"type":"Point","coordinates":[-108.0981,38.8613]},"properties":{"s":25.0,"pub":false}},{"type":"Feature","geometry":{"type":"Point","coordinates":[-108.0981,38.8671]},"properties":{"s":25.0,"pub":true}},{"type":"Feature","geometry":{"type":"Point","coordinates":[-108.0981,38.8729]},"properties":{"s":25.0,"pub":false}},{"type":"Feature","geometry":{"type":"Point","coordinates":[-108.0981,38.8787]},"properties":{"s":25.0,"pub":false}},{"type":"Feature","geometry":{"type":"Point","coordinates":[-108.0981,38.8845]},"properties":{"s":25.0,"pub":false}},{"type":"Feature","geometry":{"type":"Point","coordinates":[-108.0981,38.8903]},"properties":{"s":25.0,"pub":true}},{"type":"Feature","geometry":{"type":"Point","coordinates":[-108.0981,38.8961]},"properties":{"s":25.0,"pub":true}},{"type":"Feature","geometry":{"type":"Point","coordinates":[-108.0981,38.9019]},"properties":{"s":67.9,"pub":true}},{"type":"Feature","geometry":{"type":"Point","coordinates":[-108.0981,38.9077]},"properties":{"s":67.9,"pub":true}},{"type":"Feature","geometry":{"type":"Point","coordinates":[-108.0981,38.9135]},"properties":{"s":67.9,"pub":true}},{"type":"Feature","geometry":{"type":"Point","coordinates":[-108.0981,38.9193]},"properties":{"s":67.9,"pub":true}},{"type":"Feature","geometry":{"type":"Point","coordinates":[-108.0981,38.9251]},"properties":{"s":96.4,"pub":true}},{"type":"Feature","geometry":{"type":"Point","coordinates":[-108.0981,38.9309]},"properties":{"s":96.4,"pub":true}},{"type":"Feature","geometry":{"type":"Point","coordinates":[-108.0981,38.9367]},"properties":{"s":67.9,"pub":true}},{"type":"Feature","geometry":{"type":"Point","coordinates":[-108.0981,38.9425]},"properties":{"s":64.3,"pub":true}},{"type":"Feature","geometry":{"type":"Point","coordinates":[-108.0981,38.9483]},"properties":{"s":64.3,"pub":true}},{"type":"Feature","geometry":{"type":"Point","coordinates":[-108.0906,38.8671]},"properties":{"s":25.0,"pub":true}},{"type":"Feature","geometry":{"type":"Point","coordinates":[-108.0906,38.8729]},"properties":{"s":25.0,"pub":true}},{"type":"Feature","geometry":{"type":"Point","coordinates":[-108.0906,38.8787]},"properties":{"s":25.0,"pub":true}},{"type":"Feature","geometry":{"type":"Point","coordinates":[-108.0906,38.8845]},"properties":{"s":25.0,"pub":true}},{"type":"Feature","geometry":{"type":"Point","coordinates":[-108.0906,38.8903]},"properties":{"s":25.0,"pub":true}},{"type":"Feature","geometry":{"type":"Point","coordinates":[-108.0906,38.8961]},"properties":{"s":25.0,"pub":false}},{"type":"Feature","geometry":{"type":"Point","coordinates":[-108.0906,38.9019]},"properties":{"s":25.0,"pub":true}},{"type":"Feature","geometry":{"type":"Point","coordinates":[-108.0906,38.9077]},"properties":{"s":67.9,"pub":true}},{"type":"Feature","geometry":{"type":"Point","coordinates":[-108.0906,38.9135]},"properties":{"s":67.9,"pub":true}},{"type":"Feature","geometry":{"type":"Point","coordinates":[-108.0906,38.9193]},"properties":{"s":67.9,"pub":true}},{"type":"Feature","geometry":{"type":"Point","coordinates":[-108.0906,38.9251]},"properties":{"s":67.9,"pub":true}},{"type":"Feature","geometry":{"type":"Point","coordinates":[-108.0906,38.9309]},"properties":{"s":67.9,"pub":true}},{"type":"Feature","geometry":{"type":"Point","coordinates":[-108.0906,38.9367]},"properties":{"s":67.9,"pub":true}},{"type":"Feature","geometry":{"type":"Point","coordinates":[-108.0906,38.9425]},"properties":{"s":67.9,"pub":true}},{"type":"Feature","geometry":{"type":"Point","coordinates":[-108.0906,38.9483]},"properties":{"s":64.3,"pub":true}},{"type":"Feature","geometry":{"type":"Point","coordinates":[-108.0906,38.9541]},"properties":{"s":64.3,"pub":true}},{"type":"Feature","geometry":{"type":"Point","coordinates":[-108.0906,38.9773]},"properties":{"s":64.3,"pub":true}},{"type":"Feature","geometry":{"type":"Point","coordinates":[-108.0906,38.9831]},"properties":{"s":64.3,"pub":true}},{"type":"Feature","geometry":{"type":"Point","coordinates":[-108.0906,38.9889]},"properties":{"s":64.3,"pub":true}},{"type":"Feature","geometry":{"type":"Point","coordinates":[-108.0831,38.8671]},"properties":{"s":25.0,"pub":true}},{"type":"Feature","geometry":{"type":"Point","coordinates":[-108.0831,38.8729]},"properties":{"s":25.0,"pub":true}},{"type":"Feature","geometry":{"type":"Point","coordinates":[-108.0831,38.8787]},"properties":{"s":25.0,"pub":true}},{"type":"Feature","geometry":{"type":"Point","coordinates":[-108.0831,38.8845]},"properties":{"s":25.0,"pub":true}},{"type":"Feature","geometry":{"type":"Point","coordinates":[-108.0831,38.8903]},"properties":{"s":25.0,"pub":true}},{"type":"Feature","geometry":{"type":"Point","coordinates":[-108.0831,38.8961]},"properties":{"s":25.0,"pub":false}},{"type":"Feature","geometry":{"type":"Point","coordinates":[-108.0831,38.9019]},"properties":{"s":25.0,"pub":false}},{"type":"Feature","geometry":{"type":"Point","coordinates":[-108.0831,38.9077]},"properties":{"s":25.0,"pub":false}},{"type":"Feature","geometry":{"type":"Point","coordinates":[-108.0831,38.9135]},"properties":{"s":67.9,"pub":true}},{"type":"Feature","geometry":{"type":"Point","coordinates":[-108.0831,38.9193]},"properties":{"s":67.9,"pub":true}},{"type":"Feature","geometry":{"type":"Point","coordinates":[-108.0831,38.9251]},"properties":{"s":67.9,"pub":true}},{"type":"Feature","geometry":{"type":"Point","coordinates":[-108.0831,38.9309]},"properties":{"s":67.9,"pub":true}},{"type":"Feature","geometry":{"type":"Point","coordinates":[-108.0831,38.9367]},"properties":{"s":67.9,"pub":true}},{"type":"Feature","geometry":{"type":"Point","coordinates":[-108.0831,38.9425]},"properties":{"s":67.9,"pub":true}},{"type":"Feature","geometry":{"type":"Point","coordinates":[-108.0831,38.9483]},"properties":{"s":67.9,"pub":true}},{"type":"Feature","geometry":{"type":"Point","coordinates":[-108.0831,38.9541]},"properties":{"s":64.3,"pub":true}},{"type":"Feature","geometry":{"type":"Point","coordinates":[-108.0831,38.9599]},"properties":{"s":64.3,"pub":true}},{"type":"Feature","geometry":{"type":"Point","coordinates":[-108.0831,38.9657]},"properties":{"s":64.3,"pub":true}},{"type":"Feature","geometry":{"type":"Point","coordinates":[-108.0831,38.9889]},"properties":{"s":64.3,"pub":true}},{"type":"Feature","geometry":{"type":"Point","coordinates":[-108.0831,38.9947]},"properties":{"s":64.3,"pub":true}},{"type":"Feature","geometry":{"type":"Point","coordinates":[-108.0831,39.0005]},"properties":{"s":64.3,"pub":true}},{"type":"Feature","geometry":{"type":"Point","coordinates":[-108.0831,39.0063]},"properties":{"s":64.3,"pub":true}},{"type":"Feature","geometry":{"type":"Point","coordinates":[-108.0756,38.8729]},"properties":{"s":25.0,"pub":true}},{"type":"Feature","geometry":{"type":"Point","coordinates":[-108.0756,38.8787]},"properties":{"s":25.0,"pub":true}},{"type":"Feature","geometry":{"type":"Point","coordinates":[-108.0756,38.8845]},"properties":{"s":25.0,"pub":true}},{"type":"Feature","geometry":{"type":"Point","coordinates":[-108.0756,38.8903]},"properties":{"s":25.0,"pub":true}},{"type":"Feature","geometry":{"type":"Point","coordinates":[-108.0756,38.8961]},"properties":{"s":25.0,"pub":true}},{"type":"Feature","geometry":{"type":"Point","coordinates":[-108.0756,38.9019]},"properties":{"s":25.0,"pub":false}},{"type":"Feature","geometry":{"type":"Point","coordinates":[-108.0756,38.9077]},"properties":{"s":25.0,"pub":false}},{"type":"Feature","geometry":{"type":"Point","coordinates":[-108.0756,38.9135]},"properties":{"s":25.0,"pub":true}},{"type":"Feature","geometry":{"type":"Point","coordinates":[-108.0756,38.9193]},"properties":{"s":67.9,"pub":true}},{"type":"Feature","geometry":{"type":"Point","coordinates":[-108.0756,38.9251]},"properties":{"s":67.9,"pub":true}},{"type":"Feature","geometry":{"type":"Point","coordinates":[-108.0756,38.9309]},"properties":{"s":67.9,"pub":true}},{"type":"Feature","geometry":{"type":"Point","coordinates":[-108.0756,38.9367]},"properties":{"s":67.9,"pub":true}},{"type":"Feature","geometry":{"type":"Point","coordinates":[-108.0756,38.9425]},"properties":{"s":67.9,"pub":true}},{"type":"Feature","geometry":{"type":"Point","coordinates":[-108.0756,38.9483]},"properties":{"s":67.9,"pub":true}},{"type":"Feature","geometry":{"type":"Point","coordinates":[-108.0756,38.9541]},"properties":{"s":67.9,"pub":true}},{"type":"Feature","geometry":{"type":"Point","coordinates":[-108.0756,38.9657]},"properties":{"s":64.3,"pub":true}},{"type":"Feature","geometry":{"type":"Point","coordinates":[-108.0756,38.9715]},"properties":{"s":64.3,"pub":true}},{"type":"Feature","geometry":{"type":"Point","coordinates":[-108.0756,38.9773]},"properties":{"s":64.3,"pub":true}},{"type":"Feature","geometry":{"type":"Point","coordinates":[-108.0756,38.9889]},"properties":{"s":64.3,"pub":true}},{"type":"Feature","geometry":{"type":"Point","coordinates":[-108.0756,38.9947]},"properties":{"s":64.3,"pub":true}},{"type":"Feature","geometry":{"type":"Point","coordinates":[-108.0756,39.0005]},"properties":{"s":64.3,"pub":true}},{"type":"Feature","geometry":{"type":"Point","coordinates":[-108.0756,39.0063]},"properties":{"s":64.3,"pub":true}},{"type":"Feature","geometry":{"type":"Point","coordinates":[-108.0756,39.0121]},"properties":{"s":64.3,"pub":true}},{"type":"Feature","geometry":{"type":"Point","coordinates":[-108.0681,38.8787]},"properties":{"s":25.0,"pub":true}},{"type":"Feature","geometry":{"type":"Point","coordinates":[-108.0681,38.8845]},"properties":{"s":25.0,"pub":true}},{"type":"Feature","geometry":{"type":"Point","coordinates":[-108.0681,38.8903]},"properties":{"s":25.0,"pub":true}},{"type":"Feature","geometry":{"type":"Point","coordinates":[-108.0681,38.8961]},"properties":{"s":25.0,"pub":true}},{"type":"Feature","geometry":{"type":"Point","coordinates":[-108.0681,38.9019]},"properties":{"s":25.0,"pub":true}},{"type":"Feature","geometry":{"type":"Point","coordinates":[-108.0681,38.9077]},"properties":{"s":25.0,"pub":false}},{"type":"Feature","geometry":{"type":"Point","coordinates":[-108.0681,38.9135]},"properties":{"s":25.0,"pub":false}},{"type":"Feature","geometry":{"type":"Point","coordinates":[-108.0681,38.9193]},"properties":{"s":25.0,"pub":true}},{"type":"Feature","geometry":{"type":"Point","coordinates":[-108.0681,38.9251]},"properties":{"s":25.0,"pub":true}},{"type":"Feature","geometry":{"type":"Point","coordinates":[-108.0681,38.9309]},"properties":{"s":25.0,"pub":true}},{"type":"Feature","geometry":{"type":"Point","coordinates":[-108.0681,38.9367]},"properties":{"s":25.0,"pub":true}},{"type":"Feature","geometry":{"type":"Point","coordinates":[-108.0681,38.9425]},"properties":{"s":25.0,"pub":true}},{"type":"Feature","geometry":{"type":"Point","coordinates":[-108.0681,38.9483]},"properties":{"s":25.0,"pub":true}},{"type":"Feature","geometry":{"type":"Point","coordinates":[-108.0681,38.9541]},"properties":{"s":25.0,"pub":true}},{"type":"Feature","geometry":{"type":"Point","coordinates":[-108.0681,38.9599]},"properties":{"s":25.0,"pub":true}},{"type":"Feature","geometry":{"type":"Point","coordinates":[-108.0681,38.9657]},"properties":{"s":64.3,"pub":true}},{"type":"Feature","geometry":{"type":"Point","coordinates":[-108.0681,38.9715]},"properties":{"s":64.3,"pub":true}},{"type":"Feature","geometry":{"type":"Point","coordinates":[-108.0681,38.9773]},"properties":{"s":64.3,"pub":true}},{"type":"Feature","geometry":{"type":"Point","coordinates":[-108.0681,38.9947]},"properties":{"s":64.3,"pub":true}},{"type":"Feature","geometry":{"type":"Point","coordinates":[-108.0681,39.0005]},"properties":{"s":64.3,"pub":true}},{"type":"Feature","geometry":{"type":"Point","coordinates":[-108.0681,39.0063]},"properties":{"s":64.3,"pub":true}},{"type":"Feature","geometry":{"type":"Point","coordinates":[-108.0681,39.0121]},"properties":{"s":64.3,"pub":true}},{"type":"Feature","geometry":{"type":"Point","coordinates":[-108.0606,38.8787]},"properties":{"s":25.0,"pub":false}},{"type":"Feature","geometry":{"type":"Point","coordinates":[-108.0606,38.8845]},"properties":{"s":25.0,"pub":true}},{"type":"Feature","geometry":{"type":"Point","coordinates":[-108.0606,38.8903]},"properties":{"s":25.0,"pub":true}},{"type":"Feature","geometry":{"type":"Point","coordinates":[-108.0606,38.8961]},"properties":{"s":25.0,"pub":true}},{"type":"Feature","geometry":{"type":"Point","coordinates":[-108.0606,38.9019]},"properties":{"s":25.0,"pub":true}},{"type":"Feature","geometry":{"type":"Point","coordinates":[-108.0606,38.9077]},"properties":{"s":25.0,"pub":true}},{"type":"Feature","geometry":{"type":"Point","coordinates":[-108.0606,38.9135]},"properties":{"s":25.0,"pub":true}},{"type":"Feature","geometry":{"type":"Point","coordinates":[-108.0606,38.9193]},"properties":{"s":25.0,"pub":false}},{"type":"Feature","geometry":{"type":"Point","coordinates":[-108.0606,38.9251]},"properties":{"s":67.9,"pub":false}},{"type":"Feature","geometry":{"type":"Point","coordinates":[-108.0606,38.9309]},"properties":{"s":67.9,"pub":false}},{"type":"Feature","geometry":{"type":"Point","coordinates":[-108.0606,38.9367]},"properties":{"s":67.9,"pub":false}},{"type":"Feature","geometry":{"type":"Point","coordinates":[-108.0606,38.9425]},"properties":{"s":67.9,"pub":false}},{"type":"Feature","geometry":{"type":"Point","coordinates":[-108.0606,38.9483]},"properties":{"s":67.9,"pub":false}},{"type":"Feature","geometry":{"type":"Point","coordinates":[-108.0606,38.9541]},"properties":{"s":67.9,"pub":false}},{"type":"Feature","geometry":{"type":"Point","coordinates":[-108.0606,38.9599]},"properties":{"s":25.0,"pub":true}},{"type":"Feature","geometry":{"type":"Point","coordinates":[-108.0606,38.9657]},"properties":{"s":25.0,"pub":true}},{"type":"Feature","geometry":{"type":"Point","coordinates":[-108.0606,38.9715]},"properties":{"s":64.3,"pub":true}},{"type":"Feature","geometry":{"type":"Point","coordinates":[-108.0606,38.9773]},"properties":{"s":64.3,"pub":true}},{"type":"Feature","geometry":{"type":"Point","coordinates":[-108.0606,39.0005]},"properties":{"s":64.3,"pub":true}},{"type":"Feature","geometry":{"type":"Point","coordinates":[-108.0606,39.0063]},"properties":{"s":64.3,"pub":true}},{"type":"Feature","geometry":{"type":"Point","coordinates":[-108.0606,39.0121]},"properties":{"s":64.3,"pub":true}},{"type":"Feature","geometry":{"type":"Point","coordinates":[-108.0531,38.8845]},"properties":{"s":25.0,"pub":true}},{"type":"Feature","geometry":{"type":"Point","coordinates":[-108.0531,38.8903]},"properties":{"s":25.0,"pub":true}},{"type":"Feature","geometry":{"type":"Point","coordinates":[-108.0531,38.8961]},"properties":{"s":25.0,"pub":true}},{"type":"Feature","geometry":{"type":"Point","coordinates":[-108.0531,38.9019]},"properties":{"s":25.0,"pub":true}},{"type":"Feature","geometry":{"type":"Point","coordinates":[-108.0531,38.9077]},"properties":{"s":25.0,"pub":false}},{"type":"Feature","geometry":{"type":"Point","coordinates":[-108.0531,38.9135]},"properties":{"s":25.0,"pub":false}},{"type":"Feature","geometry":{"type":"Point","coordinates":[-108.0531,38.9193]},"properties":{"s":25.0,"pub":false}},{"type":"Feature","geometry":{"type":"Point","coordinates":[-108.0531,38.9251]},"properties":{"s":25.0,"pub":false}},{"type":"Feature","geometry":{"type":"Point","coordinates":[-108.0531,38.9309]},"properties":{"s":67.9,"pub":false}},{"type":"Feature","geometry":{"type":"Point","coordinates":[-108.0531,38.9367]},"properties":{"s":67.9,"pub":false}},{"type":"Feature","geometry":{"type":"Point","coordinates":[-108.0531,38.9425]},"properties":{"s":67.9,"pub":false}},{"type":"Feature","geometry":{"type":"Point","coordinates":[-108.0531,38.9483]},"properties":{"s":67.9,"pub":false}},{"type":"Feature","geometry":{"type":"Point","coordinates":[-108.0531,38.9541]},"properties":{"s":67.9,"pub":false}},{"type":"Feature","geometry":{"type":"Point","coordinates":[-108.0531,38.9599]},"properties":{"s":67.9,"pub":true}},{"type":"Feature","geometry":{"type":"Point","coordinates":[-108.0531,38.9657]},"properties":{"s":25.0,"pub":true}},{"type":"Feature","geometry":{"type":"Point","coordinates":[-108.0531,38.9715]},"properties":{"s":25.0,"pub":true}},{"type":"Feature","geometry":{"type":"Point","coordinates":[-108.0531,38.9773]},"properties":{"s":64.3,"pub":true}},{"type":"Feature","geometry":{"type":"Point","coordinates":[-108.0531,38.9889]},"properties":{"s":64.3,"pub":true}},{"type":"Feature","geometry":{"type":"Point","coordinates":[-108.0531,39.0005]},"properties":{"s":64.3,"pub":true}},{"type":"Feature","geometry":{"type":"Point","coordinates":[-108.0531,39.0063]},"properties":{"s":64.3,"pub":true}},{"type":"Feature","geometry":{"type":"Point","coordinates":[-108.0531,39.0121]},"properties":{"s":64.3,"pub":true}},{"type":"Feature","geometry":{"type":"Point","coordinates":[-108.0531,39.0179]},"properties":{"s":64.3,"pub":true}},{"type":"Feature","geometry":{"type":"Point","coordinates":[-108.0456,38.8903]},"properties":{"s":25.0,"pub":true}},{"type":"Feature","geometry":{"type":"Point","coordinates":[-108.0456,38.8961]},"properties":{"s":25.0,"pub":true}},{"type":"Feature","geometry":{"type":"Point","coordinates":[-108.0456,38.9019]},"properties":{"s":25.0,"pub":true}},{"type":"Feature","geometry":{"type":"Point","coordinates":[-108.0456,38.9077]},"properties":{"s":25.0,"pub":false}},{"type":"Feature","geometry":{"type":"Point","coordinates":[-108.0456,38.9135]},"properties":{"s":25.0,"pub":false}},{"type":"Feature","geometry":{"type":"Point","coordinates":[-108.0456,38.9193]},"properties":{"s":25.0,"pub":true}},{"type":"Feature","geometry":{"type":"Point","coordinates":[-108.0456,38.9251]},"properties":{"s":25.0,"pub":true}},{"type":"Feature","geometry":{"type":"Point","coordinates":[-108.0456,38.9309]},"properties":{"s":25.0,"pub":true}},{"type":"Feature","geometry":{"type":"Point","coordinates":[-108.0456,38.9367]},"properties":{"s":67.9,"pub":true}},{"type":"Feature","geometry":{"type":"Point","coordinates":[-108.0456,38.9425]},"properties":{"s":67.9,"pub":true}},{"type":"Feature","geometry":{"type":"Point","coordinates":[-108.0456,38.9483]},"properties":{"s":67.9,"pub":true}},{"type":"Feature","geometry":{"type":"Point","coordinates":[-108.0456,38.9541]},"properties":{"s":96.4,"pub":false}},{"type":"Feature","geometry":{"type":"Point","coordinates":[-108.0456,38.9599]},"properties":{"s":67.9,"pub":true}},{"type":"Feature","geometry":{"type":"Point","coordinates":[-108.0456,38.9657]},"properties":{"s":67.9,"pub":true}},{"type":"Feature","geometry":{"type":"Point","coordinates":[-108.0456,38.9715]},"properties":{"s":25.0,"pub":true}},{"type":"Feature","geometry":{"type":"Point","coordinates":[-108.0456,38.9889]},"properties":{"s":64.3,"pub":true}},{"type":"Feature","geometry":{"type":"Point","coordinates":[-108.0456,39.0005]},"properties":{"s":64.3,"pub":true}},{"type":"Feature","geometry":{"type":"Point","coordinates":[-108.0456,39.0063]},"properties":{"s":64.3,"pub":true}},{"type":"Feature","geometry":{"type":"Point","coordinates":[-108.0456,39.0121]},"properties":{"s":64.3,"pub":true}},{"type":"Feature","geometry":{"type":"Point","coordinates":[-108.0456,39.0179]},"properties":{"s":64.3,"pub":true}},{"type":"Feature","geometry":{"type":"Point","coordinates":[-108.0381,38.9019]},"properties":{"s":25.0,"pub":true}},{"type":"Feature","geometry":{"type":"Point","coordinates":[-108.0381,38.9077]},"properties":{"s":25.0,"pub":true}},{"type":"Feature","geometry":{"type":"Point","coordinates":[-108.0381,38.9135]},"properties":{"s":25.0,"pub":true}},{"type":"Feature","geometry":{"type":"Point","coordinates":[-108.0381,38.9193]},"properties":{"s":25.0,"pub":true}},{"type":"Feature","geometry":{"type":"Point","coordinates":[-108.0381,38.9251]},"properties":{"s":25.0,"pub":true}},{"type":"Feature","geometry":{"type":"Point","coordinates":[-108.0381,38.9309]},"properties":{"s":25.0,"pub":true}},{"type":"Feature","geometry":{"type":"Point","coordinates":[-108.0381,38.9367]},"properties":{"s":25.0,"pub":false}},{"type":"Feature","geometry":{"type":"Point","coordinates":[-108.0381,38.9425]},"properties":{"s":25.0,"pub":true}},{"type":"Feature","geometry":{"type":"Point","coordinates":[-108.0381,38.9483]},"properties":{"s":96.4,"pub":true}},{"type":"Feature","geometry":{"type":"Point","coordinates":[-108.0381,38.9541]},"properties":{"s":96.4,"pub":true}},{"type":"Feature","geometry":{"type":"Point","coordinates":[-108.0381,38.9599]},"properties":{"s":67.9,"pub":true}},{"type":"Feature","geometry":{"type":"Point","coordinates":[-108.0381,38.9657]},"properties":{"s":67.9,"pub":true}},{"type":"Feature","geometry":{"type":"Point","coordinates":[-108.0381,38.9715]},"properties":{"s":67.9,"pub":true}},{"type":"Feature","geometry":{"type":"Point","coordinates":[-108.0381,38.9773]},"properties":{"s":64.3,"pub":true}},{"type":"Feature","geometry":{"type":"Point","coordinates":[-108.0381,38.9831]},"properties":{"s":64.3,"pub":true}},{"type":"Feature","geometry":{"type":"Point","coordinates":[-108.0381,38.9889]},"properties":{"s":64.3,"pub":true}},{"type":"Feature","geometry":{"type":"Point","coordinates":[-108.0381,39.0121]},"properties":{"s":64.3,"pub":true}},{"type":"Feature","geometry":{"type":"Point","coordinates":[-108.0381,39.0179]},"properties":{"s":64.3,"pub":true}},{"type":"Feature","geometry":{"type":"Point","coordinates":[-108.0306,38.9077]},"properties":{"s":25.0,"pub":true}},{"type":"Feature","geometry":{"type":"Point","coordinates":[-108.0306,38.9135]},"properties":{"s":25.0,"pub":true}},{"type":"Feature","geometry":{"type":"Point","coordinates":[-108.0306,38.9193]},"properties":{"s":25.0,"pub":true}},{"type":"Feature","geometry":{"type":"Point","coordinates":[-108.0306,38.9251]},"properties":{"s":25.0,"pub":true}},{"type":"Feature","geometry":{"type":"Point","coordinates":[-108.0306,38.9309]},"properties":{"s":25.0,"pub":true}},{"type":"Feature","geometry":{"type":"Point","coordinates":[-108.0306,38.9367]},"properties":{"s":25.0,"pub":false}},{"type":"Feature","geometry":{"type":"Point","coordinates":[-108.0306,38.9425]},"properties":{"s":25.0,"pub":false}},{"type":"Feature","geometry":{"type":"Point","coordinates":[-108.0306,38.9483]},"properties":{"s":96.4,"pub":true}},{"type":"Feature","geometry":{"type":"Point","coordinates":[-108.0306,38.9541]},"properties":{"s":96.4,"pub":true}},{"type":"Feature","geometry":{"type":"Point","coordinates":[-108.0306,38.9599]},"properties":{"s":96.4,"pub":false}},{"type":"Feature","geometry":{"type":"Point","coordinates":[-108.0306,38.9657]},"properties":{"s":96.4,"pub":false}},{"type":"Feature","geometry":{"type":"Point","coordinates":[-108.0306,38.9715]},"properties":{"s":96.4,"pub":false}},{"type":"Feature","geometry":{"type":"Point","coordinates":[-108.0306,38.9773]},"properties":{"s":92.9,"pub":true}},{"type":"Feature","geometry":{"type":"Point","coordinates":[-108.0306,38.9831]},"properties":{"s":64.3,"pub":true}},{"type":"Feature","geometry":{"type":"Point","coordinates":[-108.0306,38.9889]},"properties":{"s":64.3,"pub":true}},{"type":"Feature","geometry":{"type":"Point","coordinates":[-108.0306,38.9947]},"properties":{"s":64.3,"pub":true}},{"type":"Feature","geometry":{"type":"Point","coordinates":[-108.0306,39.0121]},"properties":{"s":64.3,"pub":true}},{"type":"Feature","geometry":{"type":"Point","coordinates":[-108.0306,39.0179]},"properties":{"s":64.3,"pub":true}},{"type":"Feature","geometry":{"type":"Point","coordinates":[-108.0306,39.0237]},"properties":{"s":64.3,"pub":true}},{"type":"Feature","geometry":{"type":"Point","coordinates":[-108.0231,38.9193]},"properties":{"s":25.0,"pub":false}},{"type":"Feature","geometry":{"type":"Point","coordinates":[-108.0231,38.9251]},"properties":{"s":25.0,"pub":false}},{"type":"Feature","geometry":{"type":"Point","coordinates":[-108.0231,38.9309]},"properties":{"s":25.0,"pub":false}},{"type":"Feature","geometry":{"type":"Point","coordinates":[-108.0231,38.9367]},"properties":{"s":25.0,"pub":false}},{"type":"Feature","geometry":{"type":"Point","coordinates":[-108.0231,38.9425]},"properties":{"s":25.0,"pub":false}},{"type":"Feature","geometry":{"type":"Point","coordinates":[-108.0231,38.9483]},"properties":{"s":96.4,"pub":true}},{"type":"Feature","geometry":{"type":"Point","coordinates":[-108.0231,38.9541]},"properties":{"s":96.4,"pub":true}},{"type":"Feature","geometry":{"type":"Point","coordinates":[-108.0231,38.9599]},"properties":{"s":96.4,"pub":false}},{"type":"Feature","geometry":{"type":"Point","coordinates":[-108.0231,38.9657]},"properties":{"s":96.4,"pub":false}},{"type":"Feature","geometry":{"type":"Point","coordinates":[-108.0231,38.9715]},"properties":{"s":96.4,"pub":false}},{"type":"Feature","geometry":{"type":"Point","coordinates":[-108.0231,38.9773]},"properties":{"s":92.9,"pub":true}},{"type":"Feature","geometry":{"type":"Point","coordinates":[-108.0231,38.9831]},"properties":{"s":64.3,"pub":true}},{"type":"Feature","geometry":{"type":"Point","coordinates":[-108.0231,38.9889]},"properties":{"s":64.3,"pub":true}},{"type":"Feature","geometry":{"type":"Point","coordinates":[-108.0231,38.9947]},"properties":{"s":64.3,"pub":true}},{"type":"Feature","geometry":{"type":"Point","coordinates":[-108.0231,39.0005]},"properties":{"s":67.9,"pub":true}},{"type":"Feature","geometry":{"type":"Point","coordinates":[-108.0231,39.0063]},"properties":{"s":64.3,"pub":true}},{"type":"Feature","geometry":{"type":"Point","coordinates":[-108.0231,39.0179]},"properties":{"s":64.3,"pub":true}},{"type":"Feature","geometry":{"type":"Point","coordinates":[-108.0231,39.0237]},"properties":{"s":64.3,"pub":true}},{"type":"Feature","geometry":{"type":"Point","coordinates":[-108.0156,38.9251]},"properties":{"s":25.0,"pub":false}},{"type":"Feature","geometry":{"type":"Point","coordinates":[-108.0156,38.9309]},"properties":{"s":25.0,"pub":false}},{"type":"Feature","geometry":{"type":"Point","coordinates":[-108.0156,38.9367]},"properties":{"s":25.0,"pub":false}},{"type":"Feature","geometry":{"type":"Point","coordinates":[-108.0156,38.9425]},"properties":{"s":25.0,"pub":false}},{"type":"Feature","geometry":{"type":"Point","coordinates":[-108.0156,38.9483]},"properties":{"s":53.6,"pub":true}},{"type":"Feature","geometry":{"type":"Point","coordinates":[-108.0156,38.9541]},"properties":{"s":96.4,"pub":true}},{"type":"Feature","geometry":{"type":"Point","coordinates":[-108.0156,38.9599]},"properties":{"s":96.4,"pub":false}},{"type":"Feature","geometry":{"type":"Point","coordinates":[-108.0156,38.9657]},"properties":{"s":96.4,"pub":false}},{"type":"Feature","geometry":{"type":"Point","coordinates":[-108.0156,38.9715]},"properties":{"s":96.4,"pub":false}},{"type":"Feature","geometry":{"type":"Point","coordinates":[-108.0156,38.9773]},"properties":{"s":92.9,"pub":true}},{"type":"Feature","geometry":{"type":"Point","coordinates":[-108.0156,38.9831]},"properties":{"s":64.3,"pub":true}},{"type":"Feature","geometry":{"type":"Point","coordinates":[-108.0156,38.9889]},"properties":{"s":67.9,"pub":true}},{"type":"Feature","geometry":{"type":"Point","coordinates":[-108.0156,38.9947]},"properties":{"s":67.9,"pub":true}},{"type":"Feature","geometry":{"type":"Point","coordinates":[-108.0156,39.0005]},"properties":{"s":67.9,"pub":true}},{"type":"Feature","geometry":{"type":"Point","coordinates":[-108.0156,39.0063]},"properties":{"s":67.9,"pub":true}},{"type":"Feature","geometry":{"type":"Point","coordinates":[-108.0081,38.9019]},"properties":{"s":39.3,"pub":false}},{"type":"Feature","geometry":{"type":"Point","coordinates":[-108.0081,38.9077]},"properties":{"s":39.3,"pub":false}},{"type":"Feature","geometry":{"type":"Point","coordinates":[-108.0081,38.9135]},"properties":{"s":39.3,"pub":false}},{"type":"Feature","geometry":{"type":"Point","coordinates":[-108.0081,38.9193]},"properties":{"s":39.3,"pub":false}},{"type":"Feature","geometry":{"type":"Point","coordinates":[-108.0081,38.9367]},"properties":{"s":25.0,"pub":false}},{"type":"Feature","geometry":{"type":"Point","coordinates":[-108.0081,38.9425]},"properties":{"s":25.0,"pub":true}},{"type":"Feature","geometry":{"type":"Point","coordinates":[-108.0081,38.9483]},"properties":{"s":25.0,"pub":false}},{"type":"Feature","geometry":{"type":"Point","coordinates":[-108.0081,38.9541]},"properties":{"s":96.4,"pub":false}},{"type":"Feature","geometry":{"type":"Point","coordinates":[-108.0081,38.9599]},"properties":{"s":96.4,"pub":true}},{"type":"Feature","geometry":{"type":"Point","coordinates":[-108.0081,38.9657]},"properties":{"s":96.4,"pub":false}},{"type":"Feature","geometry":{"type":"Point","coordinates":[-108.0081,38.9715]},"properties":{"s":96.4,"pub":false}},{"type":"Feature","geometry":{"type":"Point","coordinates":[-108.0081,38.9773]},"properties":{"s":100.0,"pub":true}},{"type":"Feature","geometry":{"type":"Point","coordinates":[-108.0081,38.9831]},"properties":{"s":96.4,"pub":true}},{"type":"Feature","geometry":{"type":"Point","coordinates":[-108.0081,38.9889]},"properties":{"s":67.9,"pub":true}},{"type":"Feature","geometry":{"type":"Point","coordinates":[-108.0081,38.9947]},"properties":{"s":67.9,"pub":true}},{"type":"Feature","geometry":{"type":"Point","coordinates":[-108.0081,39.0005]},"properties":{"s":67.9,"pub":true}},{"type":"Feature","geometry":{"type":"Point","coordinates":[-108.0081,39.0063]},"properties":{"s":67.9,"pub":true}},{"type":"Feature","geometry":{"type":"Point","coordinates":[-108.0081,39.0121]},"properties":{"s":67.9,"pub":true}},{"type":"Feature","geometry":{"type":"Point","coordinates":[-108.0081,39.0179]},"properties":{"s":64.3,"pub":true}},{"type":"Feature","geometry":{"type":"Point","coordinates":[-108.0081,39.0237]},"properties":{"s":64.3,"pub":true}},{"type":"Feature","geometry":{"type":"Point","coordinates":[-108.0006,38.8961]},"properties":{"s":39.3,"pub":false}},{"type":"Feature","geometry":{"type":"Point","coordinates":[-108.0006,38.9019]},"properties":{"s":39.3,"pub":false}},{"type":"Feature","geometry":{"type":"Point","coordinates":[-108.0006,38.9077]},"properties":{"s":39.3,"pub":false}},{"type":"Feature","geometry":{"type":"Point","coordinates":[-108.0006,38.9135]},"properties":{"s":39.3,"pub":false}},{"type":"Feature","geometry":{"type":"Point","coordinates":[-108.0006,38.9193]},"properties":{"s":39.3,"pub":false}},{"type":"Feature","geometry":{"type":"Point","coordinates":[-108.0006,38.9425]},"properties":{"s":25.0,"pub":false}},{"type":"Feature","geometry":{"type":"Point","coordinates":[-108.0006,38.9483]},"properties":{"s":25.0,"pub":false}},{"type":"Feature","geometry":{"type":"Point","coordinates":[-108.0006,38.9541]},"properties":{"s":25.0,"pub":false}},{"type":"Feature","geometry":{"type":"Point","coordinates":[-108.0006,38.9599]},"properties":{"s":96.4,"pub":false}},{"type":"Feature","geometry":{"type":"Point","coordinates":[-108.0006,38.9657]},"properties":{"s":100.0,"pub":false}},{"type":"Feature","geometry":{"type":"Point","coordinates":[-108.0006,38.9715]},"properties":{"s":100.0,"pub":false}},{"type":"Feature","geometry":{"type":"Point","coordinates":[-108.0006,38.9773]},"properties":{"s":100.0,"pub":true}},{"type":"Feature","geometry":{"type":"Point","coordinates":[-108.0006,38.9831]},"properties":{"s":96.4,"pub":true}},{"type":"Feature","geometry":{"type":"Point","coordinates":[-108.0006,38.9889]},"properties":{"s":67.9,"pub":true}},{"type":"Feature","geometry":{"type":"Point","coordinates":[-108.0006,38.9947]},"properties":{"s":67.9,"pub":true}},{"type":"Feature","geometry":{"type":"Point","coordinates":[-108.0006,39.0005]},"properties":{"s":67.9,"pub":true}},{"type":"Feature","geometry":{"type":"Point","coordinates":[-108.0006,39.0063]},"properties":{"s":67.9,"pub":true}},{"type":"Feature","geometry":{"type":"Point","coordinates":[-108.0006,39.0121]},"properties":{"s":25.0,"pub":true}},{"type":"Feature","geometry":{"type":"Point","coordinates":[-107.9931,38.8903]},"properties":{"s":39.3,"pub":false}},{"type":"Feature","geometry":{"type":"Point","coordinates":[-107.9931,38.8961]},"properties":{"s":39.3,"pub":false}},{"type":"Feature","geometry":{"type":"Point","coordinates":[-107.9931,38.9019]},"properties":{"s":39.3,"pub":false}},{"type":"Feature","geometry":{"type":"Point","coordinates":[-107.9931,38.9077]},"properties":{"s":39.3,"pub":false}},{"type":"Feature","geometry":{"type":"Point","coordinates":[-107.9931,38.9135]},"properties":{"s":39.3,"pub":false}},{"type":"Feature","geometry":{"type":"Point","coordinates":[-107.9931,38.9193]},"properties":{"s":39.3,"pub":false}},{"type":"Feature","geometry":{"type":"Point","coordinates":[-107.9931,38.9483]},"properties":{"s":25.0,"pub":false}},{"type":"Feature","geometry":{"type":"Point","coordinates":[-107.9931,38.9541]},"properties":{"s":25.0,"pub":false}},{"type":"Feature","geometry":{"type":"Point","coordinates":[-107.9931,38.9599]},"properties":{"s":28.6,"pub":false}},{"type":"Feature","geometry":{"type":"Point","coordinates":[-107.9931,38.9657]},"properties":{"s":100.0,"pub":false}},{"type":"Feature","geometry":{"type":"Point","coordinates":[-107.9931,38.9715]},"properties":{"s":100.0,"pub":false}},{"type":"Feature","geometry":{"type":"Point","coordinates":[-107.9931,38.9773]},"properties":{"s":100.0,"pub":true}},{"type":"Feature","geometry":{"type":"Point","coordinates":[-107.9931,38.9831]},"properties":{"s":100.0,"pub":true}},{"type":"Feature","geometry":{"type":"Point","coordinates":[-107.9931,38.9889]},"properties":{"s":96.4,"pub":true}},{"type":"Feature","geometry":{"type":"Point","coordinates":[-107.9931,38.9947]},"properties":{"s":67.9,"pub":true}},{"type":"Feature","geometry":{"type":"Point","coordinates":[-107.9931,39.0005]},"properties":{"s":67.9,"pub":true}},{"type":"Feature","geometry":{"type":"Point","coordinates":[-107.9931,39.0063]},"properties":{"s":25.0,"pub":true}},{"type":"Feature","geometry":{"type":"Point","coordinates":[-107.9856,38.8903]},"properties":{"s":39.3,"pub":false}},{"type":"Feature","geometry":{"type":"Point","coordinates":[-107.9856,38.8961]},"properties":{"s":39.3,"pub":false}},{"type":"Feature","geometry":{"type":"Point","coordinates":[-107.9856,38.9019]},"properties":{"s":39.3,"pub":false}},{"type":"Feature","geometry":{"type":"Point","coordinates":[-107.9856,38.9077]},"properties":{"s":39.3,"pub":false}},{"type":"Feature","geometry":{"type":"Point","coordinates":[-107.9856,38.9135]},"properties":{"s":39.3,"pub":false}},{"type":"Feature","geometry":{"type":"Point","coordinates":[-107.9856,38.9193]},"properties":{"s":39.3,"pub":false}},{"type":"Feature","geometry":{"type":"Point","coordinates":[-107.9856,38.9599]},"properties":{"s":28.6,"pub":false}},{"type":"Feature","geometry":{"type":"Point","coordinates":[-107.9856,38.9657]},"properties":{"s":28.6,"pub":false}},{"type":"Feature","geometry":{"type":"Point","coordinates":[-107.9856,38.9715]},"properties":{"s":100.0,"pub":false}},{"type":"Feature","geometry":{"type":"Point","coordinates":[-107.9856,38.9773]},"properties":{"s":100.0,"pub":false}},{"type":"Feature","geometry":{"type":"Point","coordinates":[-107.9856,38.9831]},"properties":{"s":100.0,"pub":false}},{"type":"Feature","geometry":{"type":"Point","coordinates":[-107.9856,38.9889]},"properties":{"s":100.0,"pub":true}},{"type":"Feature","geometry":{"type":"Point","coordinates":[-107.9856,38.9947]},"properties":{"s":96.4,"pub":true}},{"type":"Feature","geometry":{"type":"Point","coordinates":[-107.9856,39.0005]},"properties":{"s":25.0,"pub":true}},{"type":"Feature","geometry":{"type":"Point","coordinates":[-107.9781,38.9019]},"properties":{"s":39.3,"pub":false}},{"type":"Feature","geometry":{"type":"Point","coordinates":[-107.9781,38.9599]},"properties":{"s":28.6,"pub":false}},{"type":"Feature","geometry":{"type":"Point","coordinates":[-107.9781,38.9657]},"properties":{"s":28.6,"pub":false}},{"type":"Feature","geometry":{"type":"Point","coordinates":[-107.9781,38.9715]},"properties":{"s":28.6,"pub":false}},{"type":"Feature","geometry":{"type":"Point","coordinates":[-107.9781,38.9773]},"properties":{"s":71.4,"pub":false}},{"type":"Feature","geometry":{"type":"Point","coordinates":[-107.9781,38.9831]},"properties":{"s":100.0,"pub":false}},{"type":"Feature","geometry":{"type":"Point","coordinates":[-107.9781,38.9889]},"properties":{"s":100.0,"pub":true}},{"type":"Feature","geometry":{"type":"Point","coordinates":[-107.9781,38.9947]},"properties":{"s":100.0,"pub":true}},{"type":"Feature","geometry":{"type":"Point","coordinates":[-107.9706,38.9657]},"properties":{"s":28.6,"pub":false}},{"type":"Feature","geometry":{"type":"Point","coordinates":[-107.9706,38.9715]},"properties":{"s":28.6,"pub":false}},{"type":"Feature","geometry":{"type":"Point","coordinates":[-107.9706,38.9773]},"properties":{"s":28.6,"pub":false}},{"type":"Feature","geometry":{"type":"Point","coordinates":[-107.9706,38.9831]},"properties":{"s":28.6,"pub":false}},{"type":"Feature","geometry":{"type":"Point","coordinates":[-107.9706,38.9889]},"properties":{"s":25.0,"pub":true}},{"type":"Feature","geometry":{"type":"Point","coordinates":[-107.9706,38.9947]},"properties":{"s":25.0,"pub":true}},{"type":"Feature","geometry":{"type":"Point","coordinates":[-107.9631,38.9657]},"properties":{"s":28.6,"pub":false}},{"type":"Feature","geometry":{"type":"Point","coordinates":[-107.9631,38.9715]},"properties":{"s":25.0,"pub":false}},{"type":"Feature","geometry":{"type":"Point","coordinates":[-107.9631,38.9773]},"properties":{"s":25.0,"pub":true}},{"type":"Feature","geometry":{"type":"Point","coordinates":[-107.9631,38.9831]},"properties":{"s":25.0,"pub":false}},{"type":"Feature","geometry":{"type":"Point","coordinates":[-107.9631,38.9889]},"properties":{"s":25.0,"pub":false}},{"type":"Feature","geometry":{"type":"Point","coordinates":[-107.9631,38.9947]},"properties":{"s":25.0,"pub":false}},{"type":"Feature","geometry":{"type":"Point","coordinates":[-107.9556,38.9657]},"properties":{"s":25.0,"pub":false}},{"type":"Feature","geometry":{"type":"Point","coordinates":[-107.9556,38.9715]},"properties":{"s":25.0,"pub":false}},{"type":"Feature","geometry":{"type":"Point","coordinates":[-107.9556,38.9773]},"properties":{"s":25.0,"pub":false}},{"type":"Feature","geometry":{"type":"Point","coordinates":[-107.9556,38.9831]},"properties":{"s":25.0,"pub":false}},{"type":"Feature","geometry":{"type":"Point","coordinates":[-107.9556,38.9889]},"properties":{"s":25.0,"pub":false}},{"type":"Feature","geometry":{"type":"Point","coordinates":[-107.9556,38.9947]},"properties":{"s":25.0,"pub":false}},{"type":"Feature","geometry":{"type":"Point","coordinates":[-107.9481,38.9657]},"properties":{"s":25.0,"pub":false}},{"type":"Feature","geometry":{"type":"Point","coordinates":[-107.9481,38.9715]},"properties":{"s":25.0,"pub":false}},{"type":"Feature","geometry":{"type":"Point","coordinates":[-107.9481,38.9773]},"properties":{"s":25.0,"pub":false}},{"type":"Feature","geometry":{"type":"Point","coordinates":[-107.9481,38.9831]},"properties":{"s":25.0,"pub":false}},{"type":"Feature","geometry":{"type":"Point","coordinates":[-107.9481,38.9889]},"properties":{"s":25.0,"pub":false}},{"type":"Feature","geometry":{"type":"Point","coordinates":[-107.9481,38.9947]},"properties":{"s":25.0,"pub":false}},{"type":"Feature","geometry":{"type":"Point","coordinates":[-107.9481,39.0005]},"properties":{"s":25.0,"pub":false}},{"type":"Feature","geometry":{"type":"Point","coordinates":[-107.9406,38.9657]},"properties":{"s":25.0,"pub":false}},{"type":"Feature","geometry":{"type":"Point","coordinates":[-107.9406,38.9773]},"properties":{"s":25.0,"pub":false}},{"type":"Feature","geometry":{"type":"Point","coordinates":[-107.9406,38.9831]},"properties":{"s":25.0,"pub":false}},{"type":"Feature","geometry":{"type":"Point","coordinates":[-107.9406,38.9889]},"properties":{"s":25.0,"pub":false}},{"type":"Feature","geometry":{"type":"Point","coordinates":[-107.9406,38.9947]},"properties":{"s":25.0,"pub":false}},{"type":"Feature","geometry":{"type":"Point","coordinates":[-107.9406,39.0005]},"properties":{"s":25.0,"pub":false}},{"type":"Feature","geometry":{"type":"Point","coordinates":[-107.9331,38.9773]},"properties":{"s":25.0,"pub":false}},{"type":"Feature","geometry":{"type":"Point","coordinates":[-107.9331,38.9947]},"properties":{"s":25.0,"pub":false}},{"type":"Feature","geometry":{"type":"Point","coordinates":[-107.9331,39.0005]},"properties":{"s":25.0,"pub":false}}]}