{"type":"FeatureCollection","features":[{"type":"Feature","geometry":{"type":"Point","coordinates":[-107.301,40.5916]},"properties":{"s":70.0,"pub":false}},{"type":"Feature","geometry":{"type":"Point","coordinates":[-107.2935,40.58]},"properties":{"s":75.0,"pub":true}},{"type":"Feature","geometry":{"type":"Point","coordinates":[-107.2935,40.5858]},"properties":{"s":75.0,"pub":true}},{"type":"Feature","geometry":{"type":"Point","coordinates":[-107.2935,40.5916]},"properties":{"s":70.0,"pub":true}},{"type":"Feature","geometry":{"type":"Point","coordinates":[-107.2935,40.5974]},"properties":{"s":70.0,"pub":true}},{"type":"Feature","geometry":{"type":"Point","coordinates":[-107.2935,40.6554]},"properties":{"s":67.5,"pub":false}},{"type":"Feature","geometry":{"type":"Point","coordinates":[-107.2935,40.6612]},"properties":{"s":67.5,"pub":false}},{"type":"Feature","geometry":{"type":"Point","coordinates":[-107.286,40.5684]},"properties":{"s":75.0,"pub":false}},{"type":"Feature","geometry":{"type":"Point","coordinates":[-107.286,40.5742]},"properties":{"s":75.0,"pub":false}},{"type":"Feature","geometry":{"type":"Point","coordinates":[-107.286,40.58]},"properties":{"s":75.0,"pub":true}},{"type":"Feature","geometry":{"type":"Point","coordinates":[-107.286,40.5858]},"properties":{"s":70.0,"pub":true}},{"type":"Feature","geometry":{"type":"Point","coordinates":[-107.286,40.5916]},"properties":{"s":70.0,"pub":true}},{"type":"Feature","geometry":{"type":"Point","coordinates":[-107.286,40.5974]},"properties":{"s":70.0,"pub":false}},{"type":"Feature","geometry":{"type":"Point","coordinates":[-107.286,40.6032]},"properties":{"s":70.0,"pub":false}},{"type":"Feature","geometry":{"type":"Point","coordinates":[-107.286,40.609]},"properties":{"s":70.0,"pub":false}},{"type":"Feature","geometry":{"type":"Point","coordinates":[-107.286,40.6148]},"properties":{"s":70.0,"pub":false}},{"type":"Feature","geometry":{"type":"Point","coordinates":[-107.286,40.6206]},"properties":{"s":70.0,"pub":false}},{"type":"Feature","geometry":{"type":"Point","coordinates":[-107.286,40.6496]},"properties":{"s":67.5,"pub":false}},{"type":"Feature","geometry":{"type":"Point","coordinates":[-107.286,40.6554]},"properties":{"s":67.5,"pub":false}},{"type":"Feature","geometry":{"type":"Point","coordinates":[-107.286,40.6612]},"properties":{"s":67.5,"pub":false}},{"type":"Feature","geometry":{"type":"Point","coordinates":[-107.286,40.667]},"properties":{"s":67.5,"pub":false}},{"type":"Feature","geometry":{"type":"Point","coordinates":[-107.2785,40.5568]},"properties":{"s":75.0,"pub":false}},{"type":"Feature","geometry":{"type":"Point","coordinates":[-107.2785,40.5626]},"properties":{"s":75.0,"pub":false}},{"type":"Feature","geometry":{"type":"Point","coordinates":[-107.2785,40.5684]},"properties":{"s":75.0,"pub":false}},{"type":"Feature","geometry":{"type":"Point","coordinates":[-107.2785,40.5742]},"properties":{"s":75.0,"pub":false}},{"type":"Feature","geometry":{"type":"Point","coordinates":[-107.2785,40.58]},"properties":{"s":70.0,"pub":true}},{"type":"Feature","geometry":{"type":"Point","coordinates":[-107.2785,40.5858]},"properties":{"s":70.0,"pub":true}},{"type":"Feature","geometry":{"type":"Point","coordinates":[-107.2785,40.5916]},"properties":{"s":70.0,"pub":false}},{"type":"Feature","geometry":{"type":"Point","coordinates":[-107.2785,40.5974]},"properties":{"s":70.0,"pub":false}},{"type":"Feature","geometry":{"type":"Point","coordinates":[-107.2785,40.6032]},"properties":{"s":70.0,"pub":false}},{"type":"Feature","geometry":{"type":"Point","coordinates":[-107.2785,40.609]},"properties":{"s":70.0,"pub":false}},{"type":"Feature","geometry":{"type":"Point","coordinates":[-107.2785,40.6148]},"properties":{"s":70.0,"pub":false}},{"type":"Feature","geometry":{"type":"Point","coordinates":[-107.2785,40.6206]},"properties":{"s":70.0,"pub":false}},{"type":"Feature","geometry":{"type":"Point","coordinates":[-107.2785,40.6264]},"properties":{"s":70.0,"pub":false}},{"type":"Feature","geometry":{"type":"Point","coordinates":[-107.2785,40.6496]},"properties":{"s":67.5,"pub":false}},{"type":"Feature","geometry":{"type":"Point","coordinates":[-107.2785,40.6554]},"properties":{"s":67.5,"pub":false}},{"type":"Feature","geometry":{"type":"Point","coordinates":[-107.2785,40.6612]},"properties":{"s":67.5,"pub":false}},{"type":"Feature","geometry":{"type":"Point","coordinates":[-107.2785,40.667]},"properties":{"s":67.5,"pub":false}},{"type":"Feature","geometry":{"type":"Point","coordinates":[-107.2785,40.6728]},"properties":{"s":67.5,"pub":false}},{"type":"Feature","geometry":{"type":"Point","coordinates":[-107.271,40.551]},"properties":{"s":75.0,"pub":false}},{"type":"Feature","geometry":{"type":"Point","coordinates":[-107.271,40.5568]},"properties":{"s":75.0,"pub":false}},{"type":"Feature","geometry":{"type":"Point","coordinates":[-107.271,40.5626]},"properties":{"s":75.0,"pub":true}},{"type":"Feature","geometry":{"type":"Point","coordinates":[-107.271,40.5684]},"properties":{"s":75.0,"pub":true}},{"type":"Feature","geometry":{"type":"Point","coordinates":[-107.271,40.5742]},"properties":{"s":70.0,"pub":true}},{"type":"Feature","geometry":{"type":"Point","coordinates":[-107.271,40.58]},"properties":{"s":70.0,"pub":true}},{"type":"Feature","geometry":{"type":"Point","coordinates":[-107.271,40.5858]},"properties":{"s":70.0,"pub":false}},{"type":"Feature","geometry":{"type":"Point","coordinates":[-107.271,40.5916]},"properties":{"s":70.0,"pub":true}},{"type":"Feature","geometry":{"type":"Point","coordinates":[-107.271,40.5974]},"properties":{"s":70.0,"pub":false}},{"type":"Feature","geometry":{"type":"Point","coordinates":[-107.271,40.6032]},"properties":{"s":70.0,"pub":false}},{"type":"Feature","geometry":{"type":"Point","coordinates":[-107.271,40.609]},"properties":{"s":70.0,"pub":false}},{"type":"Feature","geometry":{"type":"Point","coordinates":[-107.271,40.6148]},"properties":{"s":70.0,"pub":false}},{"type":"Feature","geometry":{"type":"Point","coordinates":[-107.271,40.6206]},"properties":{"s":70.0,"pub":false}},{"type":"Feature","geometry":{"type":"Point","coordinates":[-107.271,40.6264]},"properties":{"s":70.0,"pub":false}},{"type":"Feature","geometry":{"type":"Point","coordinates":[-107.271,40.6438]},"properties":{"s":70.0,"pub":false}},{"type":"Feature","geometry":{"type":"Point","coordinates":[-107.271,40.6496]},"properties":{"s":67.5,"pub":false}},{"type":"Feature","geometry":{"type":"Point","coordinates":[-107.271,40.6554]},"properties":{"s":67.5,"pub":false}},{"type":"Feature","geometry":{"type":"Point","coordinates":[-107.271,40.6612]},"properties":{"s":67.5,"pub":false}},{"type":"Feature","geometry":{"type":"Point","coordinates":[-107.271,40.667]},"properties":{"s":67.5,"pub":false}},{"type":"Feature","geometry":{"type":"Point","coordinates":[-107.271,40.6728]},"properties":{"s":67.5,"pub":false}},{"type":"Feature","geometry":{"type":"Point","coordinates":[-107.2635,40.5452]},"properties":{"s":75.0,"pub":false}},{"type":"Feature","geometry":{"type":"Point","coordinates":[-107.2635,40.551]},"properties":{"s":75.0,"pub":false}},{"type":"Feature","geometry":{"type":"Point","coordinates":[-107.2635,40.5568]},"properties":{"s":75.0,"pub":false}},{"type":"Feature","geometry":{"type":"Point","coordinates":[-107.2635,40.5626]},"properties":{"s":75.0,"pub":true}},{"type":"Feature","geometry":{"type":"Point","coordinates":[-107.2635,40.5684]},"properties":{"s":70.0,"pub":true}},{"type":"Feature","geometry":{"type":"Point","coordinates":[-107.2635,40.5742]},"properties":{"s":70.0,"pub":true}},{"type":"Feature","geometry":{"type":"Point","coordinates":[-107.2635,40.58]},"properties":{"s":70.0,"pub":true}},{"type":"Feature","geometry":{"type":"Point","coordinates":[-107.2635,40.5858]},"properties":{"s":70.0,"pub":true}},{"type":"Feature","geometry":{"type":"Point","coordinates":[-107.2635,40.5916]},"properties":{"s":70.0,"pub":true}},{"type":"Feature","geometry":{"type":"Point","coordinates":[-107.2635,40.5974]},"properties":{"s":70.0,"pub":false}},{"type":"Feature","geometry":{"type":"Point","coordinates":[-107.2635,40.6032]},"properties":{"s":70.0,"pub":false}},{"type":"Feature","geometry":{"type":"Point","coordinates":[-107.2635,40.609]},"properties":{"s":70.0,"pub":false}},{"type":"Feature","geometry":{"type":"Point","coordinates":[-107.2635,40.6148]},"properties":{"s":70.0,"pub":false}},{"type":"Feature","geometry":{"type":"Point","coordinates":[-107.2635,40.6206]},"properties":{"s":70.0,"pub":false}},{"type":"Feature","geometry":{"type":"Point","coordinates":[-107.2635,40.6264]},"properties":{"s":70.0,"pub":false}},{"type":"Feature","geometry":{"type":"Point","coordinates":[-107.2635,40.6322]},"properties":{"s":70.0,"pub":false}},{"type":"Feature","geometry":{"type":"Point","coordinates":[-107.2635,40.638]},"properties":{"s":70.0,"pub":false}},{"type":"Feature","geometry":{"type":"Point","coordinates":[-107.2635,40.6438]},"properties":{"s":70.0,"pub":false}},{"type":"Feature","geometry":{"type":"Point","coordinates":[-107.2635,40.6496]},"properties":{"s":67.5,"pub":false}},{"type":"Feature","geometry":{"type":"Point","coordinates":[-107.2635,40.6554]},"properties":{"s":67.5,"pub":false}},{"type":"Feature","geometry":{"type":"Point","coordinates":[-107.2635,40.6612]},"properties":{"s":67.5,"pub":false}},{"type":"Feature","geometry":{"type":"Point","coordinates":[-107.2635,40.667]},"properties":{"s":67.5,"pub":false}},{"type":"Feature","geometry":{"type":"Point","coordinates":[-107.2635,40.6728]},"properties":{"s":67.5,"pub":false}},{"type":"Feature","geometry":{"type":"Point","coordinates":[-107.2635,40.6786]},"properties":{"s":67.5,"pub":false}},{"type":"Feature","geometry":{"type":"Point","coordinates":[-107.256,40.5394]},"properties":{"s":75.0,"pub":false}},{"type":"Feature","geometry":{"type":"Point","coordinates":[-107.256,40.5452]},"properties":{"s":75.0,"pub":false}},{"type":"Feature","geometry":{"type":"Point","coordinates":[-107.256,40.551]},"properties":{"s":75.0,"pub":false}},{"type":"Feature","geometry":{"type":"Point","coordinates":[-107.256,40.5568]},"properties":{"s":75.0,"pub":true}},{"type":"Feature","geometry":{"type":"Point","coordinates":[-107.256,40.5626]},"properties":{"s":70.0,"pub":true}},{"type":"Feature","geometry":{"type":"Point","coordinates":[-107.256,40.5684]},"properties":{"s":70.0,"pub":true}},{"type":"Feature","geometry":{"type":"Point","coordinates":[-107.256,40.5742]},"properties":{"s":70.0,"pub":true}},{"type":"Feature","geometry":{"type":"Point","coordinates":[-107.256,40.58]},"properties":{"s":70.0,"pub":true}},{"type":"Feature","geometry":{"type":"Point","coordinates":[-107.256,40.5858]},"properties":{"s":70.0,"pub":true}},{"type":"Feature","geometry":{"type":"Point","coordinates":[-107.256,40.5916]},"properties":{"s":70.0,"pub":true}},{"type":"Feature","geometry":{"type":"Point","coordinates":[-107.256,40.5974]},"properties":{"s":70.0,"pub":true}},{"type":"Feature","geometry":{"type":"Point","coordinates":[-107.256,40.6032]},"properties":{"s":70.0,"pub":true}},{"type":"Feature","geometry":{"type":"Point","coordinates":[-107.256,40.609]},"properties":{"s":70.0,"pub":false}},{"type":"Feature","geometry":{"type":"Point","coordinates":[-107.256,40.6148]},"properties":{"s":70.0,"pub":false}},{"type":"Feature","geometry":{"type":"Point","coordinates":[-107.256,40.6206]},"properties":{"s":70.0,"pub":false}},{"type":"Feature","geometry":{"type":"Point","coordinates":[-107.256,40.6264]},"properties":{"s":70.0,"pub":false}},{"type":"Feature","geometry":{"type":"Point","coordinates":[-107.256,40.6322]},"properties":{"s":70.0,"pub":false}},{"type":"Feature","geometry":{"type":"Point","coordinates":[-107.256,40.638]},"properties":{"s":70.0,"pub":false}},{"type":"Feature","geometry":{"type":"Point","coordinates":[-107.256,40.6438]},"properties":{"s":70.0,"pub":false}},{"type":"Feature","geometry":{"type":"Point","coordinates":[-107.256,40.6496]},"properties":{"s":67.5,"pub":false}},{"type":"Feature","geometry":{"type":"Point","coordinates":[-107.256,40.6554]},"properties":{"s":67.5,"pub":false}},{"type":"Feature","geometry":{"type":"Point","coordinates":[-107.256,40.6612]},"properties":{"s":67.5,"pub":false}},{"type":"Feature","geometry":{"type":"Point","coordinates":[-107.256,40.667]},"properties":{"s":67.5,"pub":false}},{"type":"Feature","geometry":{"type":"Point","coordinates":[-107.256,40.6728]},"properties":{"s":67.5,"pub":false}},{"type":"Feature","geometry":{"type":"Point","coordinates":[-107.256,40.6786]},"properties":{"s":67.5,"pub":false}},{"type":"Feature","geometry":{"type":"Point","coordinates":[-107.2485,40.5336]},"properties":{"s":75.0,"pub":false}},{"type":"Feature","geometry":{"type":"Point","coordinates":[-107.2485,40.5394]},"properties":{"s":75.0,"pub":false}},{"type":"Feature","geometry":{"type":"Point","coordinates":[-107.2485,40.5452]},"properties":{"s":75.0,"pub":false}},{"type":"Feature","geometry":{"type":"Point","coordinates":[-107.2485,40.551]},"properties":{"s":75.0,"pub":false}},{"type":"Feature","geometry":{"type":"Point","coordinates":[-107.2485,40.5568]},"properties":{"s":70.0,"pub":true}},{"type":"Feature","geometry":{"type":"Point","coordinates":[-107.2485,40.5626]},"properties":{"s":70.0,"pub":true}},{"type":"Feature","geometry":{"type":"Point","coordinates":[-107.2485,40.5684]},"properties":{"s":70.0,"pub":true}},{"type":"Feature","geometry":{"type":"Point","coordinates":[-107.2485,40.5742]},"properties":{"s":70.0,"pub":true}},{"type":"Feature","geometry":{"type":"Point","coordinates":[-107.2485,40.58]},"properties":{"s":70.0,"pub":true}},{"type":"Feature","geometry":{"type":"Point","coordinates":[-107.2485,40.5858]},"properties":{"s":70.0,"pub":true}},{"type":"Feature","geometry":{"type":"Point","coordinates":[-107.2485,40.5916]},"properties":{"s":70.0,"pub":true}},{"type":"Feature","geometry":{"type":"Point","coordinates":[-107.2485,40.5974]},"properties":{"s":70.0,"pub":true}},{"type":"Feature","geometry":{"type":"Point","coordinates":[-107.2485,40.6032]},"properties":{"s":70.0,"pub":true}},{"type":"Feature","geometry":{"type":"Point","coordinates":[-107.2485,40.609]},"properties":{"s":70.0,"pub":false}},{"type":"Feature","geometry":{"type":"Point","coordinates":[-107.2485,40.6148]},"properties":{"s":70.0,"pub":false}},{"type":"Feature","geometry":{"type":"Point","coordinates":[-107.2485,40.6206]},"properties":{"s":70.0,"pub":false}},{"type":"Feature","geometry":{"type":"Point","coordinates":[-107.2485,40.6264]},"properties":{"s":70.0,"pub":false}},{"type":"Feature","geometry":{"type":"Point","coordinates":[-107.2485,40.6322]},"properties":{"s":70.0,"pub":false}},{"type":"Feature","geometry":{"type":"Point","coordinates":[-107.2485,40.638]},"properties":{"s":70.0,"pub":false}},{"type":"Feature","geometry":{"type":"Point","coordinates":[-107.2485,40.6438]},"properties":{"s":70.0,"pub":false}},{"type":"Feature","geometry":{"type":"Point","coordinates":[-107.2485,40.6496]},"properties":{"s":67.5,"pub":false}},{"type":"Feature","geometry":{"type":"Point","coordinates":[-107.2485,40.6554]},"properties":{"s":67.5,"pub":false}},{"type":"Feature","geometry":{"type":"Point","coordinates":[-107.2485,40.6612]},"properties":{"s":67.5,"pub":false}},{"type":"Feature","geometry":{"type":"Point","coordinates":[-107.2485,40.667]},"properties":{"s":67.5,"pub":false}},{"type":"Feature","geometry":{"type":"Point","coordinates":[-107.2485,40.6728]},"properties":{"s":67.5,"pub":false}},{"type":"Feature","geometry":{"type":"Point","coordinates":[-107.2485,40.6786]},"properties":{"s":67.5,"pub":false}},{"type":"Feature","geometry":{"type":"Point","coordinates":[-107.241,40.5278]},"properties":{"s":75.0,"pub":false}},{"type":"Feature","geometry":{"type":"Point","coordinates":[-107.241,40.5336]},"properties":{"s":75.0,"pub":false}},{"type":"Feature","geometry":{"type":"Point","coordinates":[-107.241,40.5394]},"properties":{"s":75.0,"pub":false}},{"type":"Feature","geometry":{"type":"Point","coordinates":[-107.241,40.5452]},"properties":{"s":75.0,"pub":false}},{"type":"Feature","geometry":{"type":"Point","coordinates":[-107.241,40.551]},"properties":{"s":75.0,"pub":false}},{"type":"Feature","geometry":{"type":"Point","coordinates":[-107.241,40.5568]},"properties":{"s":70.0,"pub":true}},{"type":"Feature","geometry":{"type":"Point","coordinates":[-107.241,40.5626]},"properties":{"s":70.0,"pub":true}},{"type":"Feature","geometry":{"type":"Point","coordinates":[-107.241,40.5684]},"properties":{"s":70.0,"pub":true}},{"type":"Feature","geometry":{"type":"Point","coordinates":[-107.241,40.5742]},"properties":{"s":70.0,"pub":true}},{"type":"Feature","geometry":{"type":"Point","coordinates":[-107.241,40.58]},"properties":{"s":70.0,"pub":true}},{"type":"Feature","geometry":{"type":"Point","coordinates":[-107.241,40.5858]},"properties":{"s":70.0,"pub":true}},{"type":"Feature","geometry":{"type":"Point","coordinates":[-107.241,40.5916]},"properties":{"s":70.0,"pub":true}},{"type":"Feature","geometry":{"type":"Point","coordinates":[-107.241,40.5974]},"properties":{"s":70.0,"pub":true}},{"type":"Feature","geometry":{"type":"Point","coordinates":[-107.241,40.6032]},"properties":{"s":70.0,"pub":true}},{"type":"Feature","geometry":{"type":"Point","coordinates":[-107.241,40.609]},"properties":{"s":70.0,"pub":false}},{"type":"Feature","geometry":{"type":"Point","coordinates":[-107.241,40.6148]},"properties":{"s":70.0,"pub":false}},{"type":"Feature","geometry":{"type":"Point","coordinates":[-107.241,40.6206]},"properties":{"s":70.0,"pub":false}},{"type":"Feature","geometry":{"type":"Point","coordinates":[-107.241,40.6264]},"properties":{"s":70.0,"pub":false}},{"type":"Feature","geometry":{"type":"Point","coordinates":[-107.241,40.6322]},"properties":{"s":70.0,"pub":false}},{"type":"Feature","geometry":{"type":"Point","coordinates":[-107.241,40.638]},"properties":{"s":70.0,"pub":false}},{"type":"Feature","geometry":{"type":"Point","coordinates":[-107.241,40.6438]},"properties":{"s":70.0,"pub":false}},{"type":"Feature","geometry":{"type":"Point","coordinates":[-107.241,40.6496]},"properties":{"s":67.5,"pub":false}},{"type":"Feature","geometry":{"type":"Point","coordinates":[-107.241,40.6554]},"properties":{"s":67.5,"pub":false}},{"type":"Feature","geometry":{"type":"Point","coordinates":[-107.241,40.6612]},"properties":{"s":67.5,"pub":false}},{"type":"Feature","geometry":{"type":"Point","coordinates":[-107.241,40.667]},"properties":{"s":67.5,"pub":false}},{"type":"Feature","geometry":{"type":"Point","coordinates":[-107.241,40.6728]},"properties":{"s":67.5,"pub":false}},{"type":"Feature","geometry":{"type":"Point","coordinates":[-107.241,40.6786]},"properties":{"s":67.5,"pub":false}},{"type":"Feature","geometry":{"type":"Point","coordinates":[-107.241,40.6844]},"properties":{"s":67.5,"pub":false}},{"type":"Feature","geometry":{"type":"Point","coordinates":[-107.2335,40.522]},"properties":{"s":77.5,"pub":false}},{"type":"Feature","geometry":{"type":"Point","coordinates":[-107.2335,40.5278]},"properties":{"s":75.0,"pub":false}},{"type":"Feature","geometry":{"type":"Point","coordinates":[-107.2335,40.5336]},"properties":{"s":75.0,"pub":false}},{"type":"Feature","geometry":{"type":"Point","coordinates":[-107.2335,40.5394]},"properties":{"s":75.0,"pub":true}},{"type":"Feature","geometry":{"type":"Point","coordinates":[-107.2335,40.5452]},"properties":{"s":75.0,"pub":true}},{"type":"Feature","geometry":{"type":"Point","coordinates":[-107.2335,40.551]},"properties":{"s":70.0,"pub":true}},{"type":"Feature","geometry":{"type":"Point","coordinates":[-107.2335,40.5568]},"properties":{"s":70.0,"pub":true}},{"type":"Feature","geometry":{"type":"Point","coordinates":[-107.2335,40.5626]},"properties":{"s":70.0,"pub":true}},{"type":"Feature","geometry":{"type":"Point","coordinates":[-107.2335,40.5684]},"properties":{"s":70.0,"pub":true}},{"type":"Feature","geometry":{"type":"Point","coordinates":[-107.2335,40.5742]},"properties":{"s":70.0,"pub":true}},{"type":"Feature","geometry":{"type":"Point","coordinates":[-107.2335,40.58]},"properties":{"s":70.0,"pub":true}},{"type":"Feature","geometry":{"type":"Point","coordinates":[-107.2335,40.5858]},"properties":{"s":70.0,"pub":true}},{"type":"Feature","geometry":{"type":"Point","coordinates":[-107.2335,40.5916]},"properties":{"s":70.0,"pub":true}},{"type":"Feature","geometry":{"type":"Point","coordinates":[-107.2335,40.5974]},"properties":{"s":70.0,"pub":true}},{"type":"Feature","geometry":{"type":"Point","coordinates":[-107.2335,40.6032]},"properties":{"s":70.0,"pub":true}},{"type":"Feature","geometry":{"type":"Point","coordinates":[-107.2335,40.609]},"properties":{"s":70.0,"pub":false}},{"type":"Feature","geometry":{"type":"Point","coordinates":[-107.2335,40.6148]},"properties":{"s":70.0,"pub":false}},{"type":"Feature","geometry":{"type":"Point","coordinates":[-107.2335,40.6206]},"properties":{"s":70.0,"pub":false}},{"type":"Feature","geometry":{"type":"Point","coordinates":[-107.2335,40.6264]},"properties":{"s":70.0,"pub":false}},{"type":"Feature","geometry":{"type":"Point","coordinates":[-107.2335,40.6322]},"properties":{"s":70.0,"pub":false}},{"type":"Feature","geometry":{"type":"Point","coordinates":[-107.2335,40.638]},"properties":{"s":70.0,"pub":false}},{"type":"Feature","geometry":{"type":"Point","coordinates":[-107.2335,40.6438]},"properties":{"s":70.0,"pub":false}},{"type":"Feature","geometry":{"type":"Point","coordinates":[-107.2335,40.6496]},"properties":{"s":67.5,"pub":false}},{"type":"Feature","geometry":{"type":"Point","coordinates":[-107.2335,40.6554]},"properties":{"s":67.5,"pub":false}},{"type":"Feature","geometry":{"type":"Point","coordinates":[-107.2335,40.6612]},"properties":{"s":67.5,"pub":false}},{"type":"Feature","geometry":{"type":"Point","coordinates":[-107.2335,40.667]},"properties":{"s":67.5,"pub":false}},{"type":"Feature","geometry":{"type":"Point","coordinates":[-107.2335,40.6728]},"properties":{"s":67.5,"pub":false}},{"type":"Feature","geometry":{"type":"Point","coordinates":[-107.2335,40.6786]},"properties":{"s":67.5,"pub":false}},{"type":"Feature","geometry":{"type":"Point","coordinates":[-107.2335,40.6844]},"properties":{"s":67.5,"pub":false}},{"type":"Feature","geometry":{"type":"Point","coordinates":[-107.2335,40.6902]},"properties":{"s":67.5,"pub":false}},{"type":"Feature","geometry":{"type":"Point","coordinates":[-107.226,40.522]},"properties":{"s":97.5,"pub":false}},{"type":"Feature","geometry":{"type":"Point","coordinates":[-107.226,40.5278]},"properties":{"s":75.0,"pub":false}},{"type":"Feature","geometry":{"type":"Point","coordinates":[-107.226,40.5336]},"properties":{"s":75.0,"pub":false}},{"type":"Feature","geometry":{"type":"Point","coordinates":[-107.226,40.5394]},"properties":{"s":75.0,"pub":true}},{"type":"Feature","geometry":{"type":"Point","coordinates":[-107.226,40.5452]},"properties":{"s":70.0,"pub":true}},{"type":"Feature","geometry":{"type":"Point","coordinates":[-107.226,40.551]},"properties":{"s":70.0,"pub":true}},{"type":"Feature","geometry":{"type":"Point","coordinates":[-107.226,40.5568]},"properties":{"s":70.0,"pub":true}},{"type":"Feature","geometry":{"type":"Point","coordinates":[-107.226,40.5626]},"properties":{"s":70.0,"pub":true}},{"type":"Feature","geometry":{"type":"Point","coordinates":[-107.226,40.5684]},"properties":{"s":70.0,"pub":true}},{"type":"Feature","geometry":{"type":"Point","coordinates":[-107.226,40.5742]},"properties":{"s":70.0,"pub":true}},{"type":"Feature","geometry":{"type":"Point","coordinates":[-107.226,40.58]},"properties":{"s":70.0,"pub":true}},{"type":"Feature","geometry":{"type":"Point","coordinates":[-107.226,40.5858]},"properties":{"s":70.0,"pub":true}},{"type":"Feature","geometry":{"type":"Point","coordinates":[-107.226,40.5916]},"properties":{"s":70.0,"pub":true}},{"type":"Feature","geometry":{"type":"Point","coordinates":[-107.226,40.5974]},"properties":{"s":70.0,"pub":true}},{"type":"Feature","geometry":{"type":"Point","coordinates":[-107.226,40.6032]},"properties":{"s":70.0,"pub":false}},{"type":"Feature","geometry":{"type":"Point","coordinates":[-107.226,40.609]},"properties":{"s":70.0,"pub":false}},{"type":"Feature","geometry":{"type":"Point","coordinates":[-107.226,40.6148]},"properties":{"s":70.0,"pub":false}},{"type":"Feature","geometry":{"type":"Point","coordinates":[-107.226,40.6206]},"properties":{"s":70.0,"pub":false}},{"type":"Feature","geometry":{"type":"Point","coordinates":[-107.226,40.6264]},"properties":{"s":70.0,"pub":false}},{"type":"Feature","geometry":{"type":"Point","coordinates":[-107.226,40.6322]},"properties":{"s":70.0,"pub":false}},{"type":"Feature","geometry":{"type":"Point","coordinates":[-107.226,40.638]},"properties":{"s":70.0,"pub":true}},{"type":"Feature","geometry":{"type":"Point","coordinates":[-107.226,40.6438]},"properties":{"s":70.0,"pub":false}},{"type":"Feature","geometry":{"type":"Point","coordinates":[-107.226,40.6496]},"properties":{"s":67.5,"pub":false}},{"type":"Feature","geometry":{"type":"Point","coordinates":[-107.226,40.6554]},"properties":{"s":67.5,"pub":false}},{"type":"Feature","geometry":{"type":"Point","coordinates":[-107.226,40.6612]},"properties":{"s":67.5,"pub":false}},{"type":"Feature","geometry":{"type":"Point","coordinates":[-107.226,40.667]},"properties":{"s":67.5,"pub":false}},{"type":"Feature","geometry":{"type":"Point","coordinates":[-107.226,40.6728]},"properties":{"s":67.5,"pub":false}},{"type":"Feature","geometry":{"type":"Point","coordinates":[-107.226,40.6786]},"properties":{"s":67.5,"pub":false}},{"type":"Feature","geometry":{"type":"Point","coordinates":[-107.226,40.6844]},"properties":{"s":67.5,"pub":false}},{"type":"Feature","geometry":{"type":"Point","coordinates":[-107.226,40.6902]},"properties":{"s":67.5,"pub":false}},{"type":"Feature","geometry":{"type":"Point","coordinates":[-107.226,40.696]},"properties":{"s":67.5,"pub":false}},{"type":"Feature","geometry":{"type":"Point","coordinates":[-107.2185,40.5162]},"properties":{"s":77.5,"pub":false}},{"type":"Feature","geometry":{"type":"Point","coordinates":[-107.2185,40.522]},"properties":{"s":97.5,"pub":false}},{"type":"Feature","geometry":{"type":"Point","coordinates":[-107.2185,40.5278]},"properties":{"s":70.0,"pub":false}},{"type":"Feature","geometry":{"type":"Point","coordinates":[-107.2185,40.5336]},"properties":{"s":70.0,"pub":false}},{"type":"Feature","geometry":{"type":"Point","coordinates":[-107.2185,40.5394]},"properties":{"s":70.0,"pub":false}},{"type":"Feature","geometry":{"type":"Point","coordinates":[-107.2185,40.5452]},"properties":{"s":70.0,"pub":false}},{"type":"Feature","geometry":{"type":"Point","coordinates":[-107.2185,40.551]},"properties":{"s":70.0,"pub":false}},{"type":"Feature","geometry":{"type":"Point","coordinates":[-107.2185,40.5568]},"properties":{"s":70.0,"pub":false}},{"type":"Feature","geometry":{"type":"Point","coordinates":[-107.2185,40.5626]},"properties":{"s":70.0,"pub":true}},{"type":"Feature","geometry":{"type":"Point","coordinates":[-107.2185,40.5684]},"properties":{"s":70.0,"pub":true}},{"type":"Feature","geometry":{"type":"Point","coordinates":[-107.2185,40.5742]},"properties":{"s":70.0,"pub":true}},{"type":"Feature","geometry":{"type":"Point","coordinates":[-107.2185,40.58]},"properties":{"s":70.0,"pub":true}},{"type":"Feature","geometry":{"type":"Point","coordinates":[-107.2185,40.5858]},"properties":{"s":70.0,"pub":true}},{"type":"Feature","geometry":{"type":"Point","coordinates":[-107.2185,40.5916]},"properties":{"s":70.0,"pub":true}},{"type":"Feature","geometry":{"type":"Point","coordinates":[-107.2185,40.5974]},"properties":{"s":70.0,"pub":false}},{"type":"Feature","geometry":{"type":"Point","coordinates":[-107.2185,40.6032]},"properties":{"s":70.0,"pub":true}},{"type":"Feature","geometry":{"type":"Point","coordinates":[-107.2185,40.609]},"properties":{"s":70.0,"pub":true}},{"type":"Feature","geometry":{"type":"Point","coordinates":[-107.2185,40.6148]},"properties":{"s":70.0,"pub":true}},{"type":"Feature","geometry":{"type":"Point","coordinates":[-107.2185,40.6206]},"properties":{"s":70.0,"pub":false}},{"type":"Feature","geometry":{"type":"Point","coordinates":[-107.2185,40.6264]},"properties":{"s":70.0,"pub":false}},{"type":"Feature","geometry":{"type":"Point","coordinates":[-107.2185,40.6322]},"properties":{"s":70.0,"pub":false}},{"type":"Feature","geometry":{"type":"Point","coordinates":[-107.2185,40.638]},"properties":{"s":70.0,"pub":true}},{"type":"Feature","geometry":{"type":"Point","coordinates":[-107.2185,40.6438]},"properties":{"s":70.0,"pub":false}},{"type":"Feature","geometry":{"type":"Point","coordinates":[-107.2185,40.6496]},"properties":{"s":67.5,"pub":false}},{"type":"Feature","geometry":{"type":"Point","coordinates":[-107.2185,40.6554]},"properties":{"s":67.5,"pub":false}},{"type":"Feature","geometry":{"type":"Point","coordinates":[-107.2185,40.6612]},"properties":{"s":67.5,"pub":false}},{"type":"Feature","geometry":{"type":"Point","coordinates":[-107.2185,40.667]},"properties":{"s":67.5,"pub":false}},{"type":"Feature","geometry":{"type":"Point","coordinates":[-107.2185,40.6728]},"properties":{"s":67.5,"pub":false}},{"type":"Feature","geometry":{"type":"Point","coordinates":[-107.2185,40.6786]},"properties":{"s":67.5,"pub":false}},{"type":"Feature","geometry":{"type":"Point","coordinates":[-107.2185,40.6844]},"properties":{"s":67.5,"pub":false}},{"type":"Feature","geometry":{"type":"Point","coordinates":[-107.2185,40.6902]},"properties":{"s":67.5,"pub":false}},{"type":"Feature","geometry":{"type":"Point","coordinates":[-107.2185,40.696]},"properties":{"s":67.5,"pub":false}},{"type":"Feature","geometry":{"type":"Point","coordinates":[-107.2185,40.7018]},"properties":{"s":67.5,"pub":false}},{"type":"Feature","geometry":{"type":"Point","coordinates":[-107.2185,40.7076]},"properties":{"s":67.5,"pub":false}},{"type":"Feature","geometry":{"type":"Point","coordinates":[-107.2185,40.7134]},"properties":{"s":67.5,"pub":true}},{"type":"Feature","geometry":{"type":"Point","coordinates":[-107.211,40.5104]},"properties":{"s":77.5,"pub":false}},{"type":"Feature","geometry":{"type":"Point","coordinates":[-107.211,40.5162]},"properties":{"s":97.5,"pub":false}},{"type":"Feature","geometry":{"type":"Point","coordinates":[-107.211,40.522]},"properties":{"s":97.5,"pub":false}},{"type":"Feature","geometry":{"type":"Point","coordinates":[-107.211,40.5278]},"properties":{"s":70.0,"pub":false}},{"type":"Feature","geometry":{"type":"Point","coordinates":[-107.211,40.5336]},"properties":{"s":70.0,"pub":false}},{"type":"Feature","geometry":{"type":"Point","coordinates":[-107.211,40.5394]},"properties":{"s":70.0,"pub":false}},{"type":"Feature","geometry":{"type":"Point","coordinates":[-107.211,40.5452]},"properties":{"s":70.0,"pub":false}},{"type":"Feature","geometry":{"type":"Point","coordinates":[-107.211,40.551]},"properties":{"s":70.0,"pub":false}},{"type":"Feature","geometry":{"type":"Point","coordinates":[-107.211,40.5568]},"properties":{"s":70.0,"pub":false}},{"type":"Feature","geometry":{"type":"Point","coordinates":[-107.211,40.5626]},"properties":{"s":70.0,"pub":false}},{"type":"Feature","geometry":{"type":"Point","coordinates":[-107.211,40.5684]},"properties":{"s":70.0,"pub":false}},{"type":"Feature","geometry":{"type":"Point","coordinates":[-107.211,40.5742]},"properties":{"s":70.0,"pub":true}},{"type":"Feature","geometry":{"type":"Point","coordinates":[-107.211,40.58]},"properties":{"s":70.0,"pub":true}},{"type":"Feature","geometry":{"type":"Point","coordinates":[-107.211,40.5858]},"properties":{"s":70.0,"pub":true}},{"type":"Feature","geometry":{"type":"Point","coordinates":[-107.211,40.5916]},"properties":{"s":70.0,"pub":true}},{"type":"Feature","geometry":{"type":"Point","coordinates":[-107.211,40.5974]},"properties":{"s":70.0,"pub":false}},{"type":"Feature","geometry":{"type":"Point","coordinates":[-107.211,40.6032]},"properties":{"s":70.0,"pub":true}},{"type":"Feature","geometry":{"type":"Point","coordinates":[-107.211,40.609]},"properties":{"s":70.0,"pub":true}},{"type":"Feature","geometry":{"type":"Point","coordinates":[-107.211,40.6148]},"properties":{"s":70.0,"pub":true}},{"type":"Feature","geometry":{"type":"Point","coordinates":[-107.211,40.6206]},"properties":{"s":70.0,"pub":false}},{"type":"Feature","geometry":{"type":"Point","coordinates":[-107.211,40.6264]},"properties":{"s":70.0,"pub":false}},{"type":"Feature","geometry":{"type":"Point","coordinates":[-107.211,40.6322]},"properties":{"s":70.0,"pub":false}},{"type":"Feature","geometry":{"type":"Point","coordinates":[-107.211,40.638]},"properties":{"s":70.0,"pub":true}},{"type":"Feature","geometry":{"type":"Point","coordinates":[-107.211,40.6438]},"properties":{"s":70.0,"pub":false}},{"type":"Feature","geometry":{"type":"Point","coordinates":[-107.211,40.6496]},"properties":{"s":67.5,"pub":false}},{"type":"Feature","geometry":{"type":"Point","coordinates":[-107.211,40.6554]},"properties":{"s":67.5,"pub":false}},{"type":"Feature","geometry":{"type":"Point","coordinates":[-107.211,40.6612]},"properties":{"s":67.5,"pub":false}},{"type":"Feature","geometry":{"type":"Point","coordinates":[-107.211,40.667]},"properties":{"s":67.5,"pub":false}},{"type":"Feature","geometry":{"type":"Point","coordinates":[-107.211,40.6728]},"properties":{"s":67.5,"pub":false}},{"type":"Feature","geometry":{"type":"Point","coordinates":[-107.211,40.6786]},"properties":{"s":67.5,"pub":false}},{"type":"Feature","geometry":{"type":"Point","coordinates":[-107.211,40.6844]},"properties":{"s":67.5,"pub":false}},{"type":"Feature","geometry":{"type":"Point","coordinates":[-107.211,40.6902]},"properties":{"s":67.5,"pub":false}},{"type":"Feature","geometry":{"type":"Point","coordinates":[-107.211,40.696]},"properties":{"s":67.5,"pub":false}},{"type":"Feature","geometry":{"type":"Point","coordinates":[-107.211,40.7018]},"properties":{"s":67.5,"pub":false}},{"type":"Feature","geometry":{"type":"Point","coordinates":[-107.211,40.7076]},"properties":{"s":67.5,"pub":true}},{"type":"Feature","geometry":{"type":"Point","coordinates":[-107.211,40.7134]},"properties":{"s":67.5,"pub":true}},{"type":"Feature","geometry":{"type":"Point","coordinates":[-107.2035,40.5046]},"properties":{"s":77.5,"pub":false}},{"type":"Feature","geometry":{"type":"Point","coordinates":[-107.2035,40.5104]},"properties":{"s":77.5,"pub":false}},{"type":"Feature","geometry":{"type":"Point","coordinates":[-107.2035,40.5162]},"properties":{"s":97.5,"pub":false}},{"type":"Feature","geometry":{"type":"Point","coordinates":[-107.2035,40.522]},"properties":{"s":97.5,"pub":false}},{"type":"Feature","geometry":{"type":"Point","coordinates":[-107.2035,40.5278]},"properties":{"s":70.0,"pub":false}},{"type":"Feature","geometry":{"type":"Point","coordinates":[-107.2035,40.5336]},"properties":{"s":70.0,"pub":false}},{"type":"Feature","geometry":{"type":"Point","coordinates":[-107.2035,40.5394]},"properties":{"s":70.0,"pub":false}},{"type":"Feature","geometry":{"type":"Point","coordinates":[-107.2035,40.5452]},"properties":{"s":70.0,"pub":false}},{"type":"Feature","geometry":{"type":"Point","coordinates":[-107.2035,40.551]},"properties":{"s":70.0,"pub":false}},{"type":"Feature","geometry":{"type":"Point","coordinates":[-107.2035,40.5568]},"properties":{"s":70.0,"pub":false}},{"type":"Feature","geometry":{"type":"Point","coordinates":[-107.2035,40.5626]},"properties":{"s":70.0,"pub":false}},{"type":"Feature","geometry":{"type":"Point","coordinates":[-107.2035,40.5684]},"properties":{"s":70.0,"pub":false}},{"type":"Feature","geometry":{"type":"Point","coordinates":[-107.2035,40.5742]},"properties":{"s":70.0,"pub":false}},{"type":"Feature","geometry":{"type":"Point","coordinates":[-107.2035,40.58]},"properties":{"s":70.0,"pub":false}},{"type":"Feature","geometry":{"type":"Point","coordinates":[-107.2035,40.5858]},"properties":{"s":70.0,"pub":false}},{"type":"Feature","geometry":{"type":"Point","coordinates":[-107.2035,40.5916]},"properties":{"s":70.0,"pub":true}},{"type":"Feature","geometry":{"type":"Point","coordinates":[-107.2035,40.5974]},"properties":{"s":70.0,"pub":true}},{"type":"Feature","geometry":{"type":"Point","coordinates":[-107.2035,40.6032]},"properties":{"s":70.0,"pub":true}},{"type":"Feature","geometry":{"type":"Point","coordinates":[-107.2035,40.609]},"properties":{"s":70.0,"pub":true}},{"type":"Feature","geometry":{"type":"Point","coordinates":[-107.2035,40.6148]},"properties":{"s":70.0,"pub":true}},{"type":"Feature","geometry":{"type":"Point","coordinates":[-107.2035,40.6206]},"properties":{"s":70.0,"pub":false}},{"type":"Feature","geometry":{"type":"Point","coordinates":[-107.2035,40.6264]},"properties":{"s":70.0,"pub":false}},{"type":"Feature","geometry":{"type":"Point","coordinates":[-107.2035,40.6322]},"properties":{"s":70.0,"pub":false}},{"type":"Feature","geometry":{"type":"Point","coordinates":[-107.2035,40.638]},"properties":{"s":70.0,"pub":true}},{"type":"Feature","geometry":{"type":"Point","coordinates":[-107.2035,40.6438]},"properties":{"s":70.0,"pub":false}},{"type":"Feature","geometry":{"type":"Point","coordinates":[-107.2035,40.6496]},"properties":{"s":67.5,"pub":false}},{"type":"Feature","geometry":{"type":"Point","coordinates":[-107.2035,40.6554]},"properties":{"s":67.5,"pub":false}},{"type":"Feature","geometry":{"type":"Point","coordinates":[-107.2035,40.6612]},"properties":{"s":67.5,"pub":false}},{"type":"Feature","geometry":{"type":"Point","coordinates":[-107.2035,40.667]},"properties":{"s":67.5,"pub":false}},{"type":"Feature","geometry":{"type":"Point","coordinates":[-107.2035,40.6728]},"properties":{"s":67.5,"pub":false}},{"type":"Feature","geometry":{"type":"Point","coordinates":[-107.2035,40.6786]},"properties":{"s":67.5,"pub":false}},{"type":"Feature","geometry":{"type":"Point","coordinates":[-107.2035,40.6844]},"properties":{"s":67.5,"pub":false}},{"type":"Feature","geometry":{"type":"Point","coordinates":[-107.2035,40.6902]},"properties":{"s":67.5,"pub":false}},{"type":"Feature","geometry":{"type":"Point","coordinates":[-107.2035,40.696]},"properties":{"s":67.5,"pub":false}},{"type":"Feature","geometry":{"type":"Point","coordinates":[-107.2035,40.7018]},"properties":{"s":67.5,"pub":false}},{"type":"Feature","geometry":{"type":"Point","coordinates":[-107.2035,40.7076]},"properties":{"s":67.5,"pub":true}},{"type":"Feature","geometry":{"type":"Point","coordinates":[-107.2035,40.7134]},"properties":{"s":67.5,"pub":true}},{"type":"Feature","geometry":{"type":"Point","coordinates":[-107.2035,40.7192]},"properties":{"s":67.5,"pub":true}},{"type":"Feature","geometry":{"type":"Point","coordinates":[-107.196,40.5046]},"properties":{"s":77.5,"pub":false}},{"type":"Feature","geometry":{"type":"Point","coordinates":[-107.196,40.5104]},"properties":{"s":97.5,"pub":false}},{"type":"Feature","geometry":{"type":"Point","coordinates":[-107.196,40.5162]},"properties":{"s":97.5,"pub":false}},{"type":"Feature","geometry":{"type":"Point","coordinates":[-107.196,40.522]},"properties":{"s":67.5,"pub":false}},{"type":"Feature","geometry":{"type":"Point","coordinates":[-107.196,40.5278]},"properties":{"s":70.0,"pub":false}},{"type":"Feature","geometry":{"type":"Point","coordinates":[-107.196,40.5336]},"properties":{"s":70.0,"pub":false}},{"type":"Feature","geometry":{"type":"Point","coordinates":[-107.196,40.5394]},"properties":{"s":70.0,"pub":false}},{"type":"Feature","geometry":{"type":"Point","coordinates":[-107.196,40.5452]},"properties":{"s":70.0,"pub":false}},{"type":"Feature","geometry":{"type":"Point","coordinates":[-107.196,40.551]},"properties":{"s":70.0,"pub":false}},{"type":"Feature","geometry":{"type":"Point","coordinates":[-107.196,40.5568]},"properties":{"s":70.0,"pub":false}},{"type":"Feature","geometry":{"type":"Point","coordinates":[-107.196,40.5626]},"properties":{"s":70.0,"pub":false}},{"type":"Feature","geometry":{"type":"Point","coordinates":[-107.196,40.5684]},"properties":{"s":70.0,"pub":false}},{"type":"Feature","geometry":{"type":"Point","coordinates":[-107.196,40.5742]},"properties":{"s":70.0,"pub":false}},{"type":"Feature","geometry":{"type":"Point","coordinates":[-107.196,40.58]},"properties":{"s":70.0,"pub":false}},{"type":"Feature","geometry":{"type":"Point","coordinates":[-107.196,40.5858]},"properties":{"s":70.0,"pub":false}},{"type":"Feature","geometry":{"type":"Point","coordinates":[-107.196,40.5916]},"properties":{"s":70.0,"pub":false}},{"type":"Feature","geometry":{"type":"Point","coordinates":[-107.196,40.5974]},"properties":{"s":70.0,"pub":false}},{"type":"Feature","geometry":{"type":"Point","coordinates":[-107.196,40.6032]},"properties":{"s":70.0,"pub":false}},{"type":"Feature","geometry":{"type":"Point","coordinates":[-107.196,40.609]},"properties":{"s":70.0,"pub":false}},{"type":"Feature","geometry":{"type":"Point","coordinates":[-107.196,40.6148]},"properties":{"s":70.0,"pub":false}},{"type":"Feature","geometry":{"type":"Point","coordinates":[-107.196,40.6206]},"properties":{"s":70.0,"pub":false}},{"type":"Feature","geometry":{"type":"Point","coordinates":[-107.196,40.6264]},"properties":{"s":70.0,"pub":false}},{"type":"Feature","geometry":{"type":"Point","coordinates":[-107.196,40.6322]},"properties":{"s":70.0,"pub":true}},{"type":"Feature","geometry":{"type":"Point","coordinates":[-107.196,40.638]},"properties":{"s":70.0,"pub":true}},{"type":"Feature","geometry":{"type":"Point","coordinates":[-107.196,40.6438]},"properties":{"s":70.0,"pub":false}},{"type":"Feature","geometry":{"type":"Point","coordinates":[-107.196,40.6496]},"properties":{"s":67.5,"pub":false}},{"type":"Feature","geometry":{"type":"Point","coordinates":[-107.196,40.6554]},"properties":{"s":67.5,"pub":false}},{"type":"Feature","geometry":{"type":"Point","coordinates":[-107.196,40.6612]},"properties":{"s":67.5,"pub":false}},{"type":"Feature","geometry":{"type":"Point","coordinates":[-107.196,40.667]},"properties":{"s":67.5,"pub":false}},{"type":"Feature","geometry":{"type":"Point","coordinates":[-107.196,40.6728]},"properties":{"s":67.5,"pub":false}},{"type":"Feature","geometry":{"type":"Point","coordinates":[-107.196,40.6786]},"properties":{"s":67.5,"pub":false}},{"type":"Feature","geometry":{"type":"Point","coordinates":[-107.196,40.6844]},"properties":{"s":67.5,"pub":false}},{"type":"Feature","geometry":{"type":"Point","coordinates":[-107.196,40.6902]},"properties":{"s":67.5,"pub":true}},{"type":"Feature","geometry":{"type":"Point","coordinates":[-107.196,40.696]},"properties":{"s":67.5,"pub":true}},{"type":"Feature","geometry":{"type":"Point","coordinates":[-107.196,40.7018]},"properties":{"s":67.5,"pub":true}},{"type":"Feature","geometry":{"type":"Point","coordinates":[-107.196,40.7076]},"properties":{"s":67.5,"pub":true}},{"type":"Feature","geometry":{"type":"Point","coordinates":[-107.196,40.7134]},"properties":{"s":67.5,"pub":true}},{"type":"Feature","geometry":{"type":"Point","coordinates":[-107.196,40.7192]},"properties":{"s":67.5,"pub":true}},{"type":"Feature","geometry":{"type":"Point","coordinates":[-107.196,40.725]},"properties":{"s":67.5,"pub":true}},{"type":"Feature","geometry":{"type":"Point","coordinates":[-107.1885,40.5046]},"properties":{"s":97.5,"pub":false}},{"type":"Feature","geometry":{"type":"Point","coordinates":[-107.1885,40.5104]},"properties":{"s":97.5,"pub":false}},{"type":"Feature","geometry":{"type":"Point","coordinates":[-107.1885,40.5162]},"properties":{"s":97.5,"pub":false}},{"type":"Feature","geometry":{"type":"Point","coordinates":[-107.1885,40.522]},"properties":{"s":70.0,"pub":false}},{"type":"Feature","geometry":{"type":"Point","coordinates":[-107.1885,40.5278]},"properties":{"s":70.0,"pub":false}},{"type":"Feature","geometry":{"type":"Point","coordinates":[-107.1885,40.5336]},"properties":{"s":70.0,"pub":false}},{"type":"Feature","geometry":{"type":"Point","coordinates":[-107.1885,40.5394]},"properties":{"s":70.0,"pub":false}},{"type":"Feature","geometry":{"type":"Point","coordinates":[-107.1885,40.5452]},"properties":{"s":70.0,"pub":false}},{"type":"Feature","geometry":{"type":"Point","coordinates":[-107.1885,40.551]},"properties":{"s":70.0,"pub":false}},{"type":"Feature","geometry":{"type":"Point","coordinates":[-107.1885,40.5568]},"properties":{"s":70.0,"pub":false}},{"type":"Feature","geometry":{"type":"Point","coordinates":[-107.1885,40.5626]},"properties":{"s":70.0,"pub":false}},{"type":"Feature","geometry":{"type":"Point","coordinates":[-107.1885,40.5684]},"properties":{"s":70.0,"pub":false}},{"type":"Feature","geometry":{"type":"Point","coordinates":[-107.1885,40.5742]},"properties":{"s":70.0,"pub":false}},{"type":"Feature","geometry":{"type":"Point","coordinates":[-107.1885,40.58]},"properties":{"s":70.0,"pub":false}},{"type":"Feature","geometry":{"type":"Point","coordinates":[-107.1885,40.5858]},"properties":{"s":70.0,"pub":false}},{"type":"Feature","geometry":{"type":"Point","coordinates":[-107.1885,40.5916]},"properties":{"s":70.0,"pub":false}},{"type":"Feature","geometry":{"type":"Point","coordinates":[-107.1885,40.5974]},"properties":{"s":70.0,"pub":false}},{"type":"Feature","geometry":{"type":"Point","coordinates":[-107.1885,40.6032]},"properties":{"s":70.0,"pub":false}},{"type":"Feature","geometry":{"type":"Point","coordinates":[-107.1885,40.609]},"properties":{"s":70.0,"pub":false}},{"type":"Feature","geometry":{"type":"Point","coordinates":[-107.1885,40.6148]},"properties":{"s":70.0,"pub":false}},{"type":"Feature","geometry":{"type":"Point","coordinates":[-107.1885,40.6206]},"properties":{"s":70.0,"pub":false}},{"type":"Feature","geometry":{"type":"Point","coordinates":[-107.1885,40.6264]},"properties":{"s":70.0,"pub":false}},{"type":"Feature","geometry":{"type":"Point","coordinates":[-107.1885,40.6322]},"properties":{"s":70.0,"pub":false}},{"type":"Feature","geometry":{"type":"Point","coordinates":[-107.1885,40.638]},"properties":{"s":70.0,"pub":false}},{"type":"Feature","geometry":{"type":"Point","coordinates":[-107.1885,40.6438]},"properties":{"s":70.0,"pub":false}},{"type":"Feature","geometry":{"type":"Point","coordinates":[-107.1885,40.6496]},"properties":{"s":67.5,"pub":false}},{"type":"Feature","geometry":{"type":"Point","coordinates":[-107.1885,40.6554]},"properties":{"s":67.5,"pub":false}},{"type":"Feature","geometry":{"type":"Point","coordinates":[-107.1885,40.6612]},"properties":{"s":67.5,"pub":false}},{"type":"Feature","geometry":{"type":"Point","coordinates":[-107.1885,40.667]},"properties":{"s":67.5,"pub":false}},{"type":"Feature","geometry":{"type":"Point","coordinates":[-107.1885,40.6728]},"properties":{"s":67.5,"pub":false}},{"type":"Feature","geometry":{"type":"Point","coordinates":[-107.1885,40.6786]},"properties":{"s":67.5,"pub":false}},{"type":"Feature","geometry":{"type":"Point","coordinates":[-107.1885,40.6844]},"properties":{"s":67.5,"pub":false}},{"type":"Feature","geometry":{"type":"Point","coordinates":[-107.1885,40.6902]},"properties":{"s":67.5,"pub":true}},{"type":"Feature","geometry":{"type":"Point","coordinates":[-107.1885,40.696]},"properties":{"s":67.5,"pub":true}},{"type":"Feature","geometry":{"type":"Point","coordinates":[-107.1885,40.7018]},"properties":{"s":67.5,"pub":true}},{"type":"Feature","geometry":{"type":"Point","coordinates":[-107.1885,40.7076]},"properties":{"s":67.5,"pub":true}},{"type":"Feature","geometry":{"type":"Point","coordinates":[-107.1885,40.7134]},"properties":{"s":67.5,"pub":true}},{"type":"Feature","geometry":{"type":"Point","coordinates":[-107.1885,40.7192]},"properties":{"s":67.5,"pub":true}},{"type":"Feature","geometry":{"type":"Point","coordinates":[-107.1885,40.725]},"properties":{"s":67.5,"pub":true}},{"type":"Feature","geometry":{"type":"Point","coordinates":[-107.181,40.4988]},"properties":{"s":97.5,"pub":false}},{"type":"Feature","geometry":{"type":"Point","coordinates":[-107.181,40.5046]},"properties":{"s":97.5,"pub":false}},{"type":"Feature","geometry":{"type":"Point","coordinates":[-107.181,40.5104]},"properties":{"s":97.5,"pub":false}},{"type":"Feature","geometry":{"type":"Point","coordinates":[-107.181,40.5162]},"properties":{"s":70.0,"pub":false}},{"type":"Feature","geometry":{"type":"Point","coordinates":[-107.181,40.522]},"properties":{"s":70.0,"pub":false}},{"type":"Feature","geometry":{"type":"Point","coordinates":[-107.181,40.5278]},"properties":{"s":70.0,"pub":false}},{"type":"Feature","geometry":{"type":"Point","coordinates":[-107.181,40.5336]},"properties":{"s":70.0,"pub":false}},{"type":"Feature","geometry":{"type":"Point","coordinates":[-107.181,40.5394]},"properties":{"s":70.0,"pub":false}},{"type":"Feature","geometry":{"type":"Point","coordinates":[-107.181,40.5452]},"properties":{"s":70.0,"pub":false}},{"type":"Feature","geometry":{"type":"Point","coordinates":[-107.181,40.551]},"properties":{"s":70.0,"pub":false}},{"type":"Feature","geometry":{"type":"Point","coordinates":[-107.181,40.5568]},"properties":{"s":70.0,"pub":false}},{"type":"Feature","geometry":{"type":"Point","coordinates":[-107.181,40.5626]},"properties":{"s":70.0,"pub":false}},{"type":"Feature","geometry":{"type":"Point","coordinates":[-107.181,40.5684]},"properties":{"s":70.0,"pub":false}},{"type":"Feature","geometry":{"type":"Point","coordinates":[-107.181,40.5742]},"properties":{"s":70.0,"pub":false}},{"type":"Feature","geometry":{"type":"Point","coordinates":[-107.181,40.58]},"properties":{"s":70.0,"pub":false}},{"type":"Feature","geometry":{"type":"Point","coordinates":[-107.181,40.5858]},"properties":{"s":70.0,"pub":false}},{"type":"Feature","geometry":{"type":"Point","coordinates":[-107.181,40.5916]},"properties":{"s":70.0,"pub":false}},{"type":"Feature","geometry":{"type":"Point","coordinates":[-107.181,40.5974]},"properties":{"s":70.0,"pub":false}},{"type":"Feature","geometry":{"type":"Point","coordinates":[-107.181,40.6032]},"properties":{"s":70.0,"pub":false}},{"type":"Feature","geometry":{"type":"Point","coordinates":[-107.181,40.609]},"properties":{"s":70.0,"pub":false}},{"type":"Feature","geometry":{"type":"Point","coordinates":[-107.181,40.6148]},"properties":{"s":70.0,"pub":false}},{"type":"Feature","geometry":{"type":"Point","coordinates":[-107.181,40.6206]},"properties":{"s":70.0,"pub":false}},{"type":"Feature","geometry":{"type":"Point","coordinates":[-107.181,40.6264]},"properties":{"s":70.0,"pub":false}},{"type":"Feature","geometry":{"type":"Point","coordinates":[-107.181,40.6322]},"properties":{"s":70.0,"pub":false}},{"type":"Feature","geometry":{"type":"Point","coordinates":[-107.181,40.638]},"properties":{"s":70.0,"pub":false}},{"type":"Feature","geometry":{"type":"Point","coordinates":[-107.181,40.6438]},"properties":{"s":67.5,"pub":false}},{"type":"Feature","geometry":{"type":"Point","coordinates":[-107.181,40.6496]},"properties":{"s":67.5,"pub":false}},{"type":"Feature","geometry":{"type":"Point","coordinates":[-107.181,40.6554]},"properties":{"s":67.5,"pub":false}},{"type":"Feature","geometry":{"type":"Point","coordinates":[-107.181,40.6612]},"properties":{"s":67.5,"pub":false}},{"type":"Feature","geometry":{"type":"Point","coordinates":[-107.181,40.667]},"properties":{"s":67.5,"pub":false}},{"type":"Feature","geometry":{"type":"Point","coordinates":[-107.181,40.6728]},"properties":{"s":67.5,"pub":false}},{"type":"Feature","geometry":{"type":"Point","coordinates":[-107.181,40.6786]},"properties":{"s":67.5,"pub":false}},{"type":"Feature","geometry":{"type":"Point","coordinates":[-107.181,40.6844]},"properties":{"s":67.5,"pub":false}},{"type":"Feature","geometry":{"type":"Point","coordinates":[-107.181,40.6902]},"properties":{"s":67.5,"pub":true}},{"type":"Feature","geometry":{"type":"Point","coordinates":[-107.181,40.696]},"properties":{"s":67.5,"pub":true}},{"type":"Feature","geometry":{"type":"Point","coordinates":[-107.181,40.7018]},"properties":{"s":67.5,"pub":true}},{"type":"Feature","geometry":{"type":"Point","coordinates":[-107.181,40.7076]},"properties":{"s":67.5,"pub":true}},{"type":"Feature","geometry":{"type":"Point","coordinates":[-107.181,40.7134]},"properties":{"s":67.5,"pub":true}},{"type":"Feature","geometry":{"type":"Point","coordinates":[-107.181,40.7192]},"properties":{"s":67.5,"pub":true}},{"type":"Feature","geometry":{"type":"Point","coordinates":[-107.181,40.725]},"properties":{"s":67.5,"pub":true}},{"type":"Feature","geometry":{"type":"Point","coordinates":[-107.181,40.7308]},"properties":{"s":67.5,"pub":true}},{"type":"Feature","geometry":{"type":"Point","coordinates":[-107.1735,40.493]},"properties":{"s":67.5,"pub":false}},{"type":"Feature","geometry":{"type":"Point","coordinates":[-107.1735,40.4988]},"properties":{"s":97.5,"pub":false}},{"type":"Feature","geometry":{"type":"Point","coordinates":[-107.1735,40.5046]},"properties":{"s":97.5,"pub":false}},{"type":"Feature","geometry":{"type":"Point","coordinates":[-107.1735,40.5104]},"properties":{"s":100.0,"pub":false}},{"type":"Feature","geometry":{"type":"Point","coordinates":[-107.1735,40.5162]},"properties":{"s":70.0,"pub":false}},{"type":"Feature","geometry":{"type":"Point","coordinates":[-107.1735,40.522]},"properties":{"s":70.0,"pub":false}},{"type":"Feature","geometry":{"type":"Point","coordinates":[-107.1735,40.5278]},"properties":{"s":70.0,"pub":false}},{"type":"Feature","geometry":{"type":"Point","coordinates":[-107.1735,40.5336]},"properties":{"s":70.0,"pub":false}},{"type":"Feature","geometry":{"type":"Point","coordinates":[-107.1735,40.5394]},"properties":{"s":70.0,"pub":false}},{"type":"Feature","geometry":{"type":"Point","coordinates":[-107.1735,40.5452]},"properties":{"s":70.0,"pub":false}},{"type":"Feature","geometry":{"type":"Point","coordinates":[-107.1735,40.551]},"properties":{"s":70.0,"pub":false}},{"type":"Feature","geometry":{"type":"Point","coordinates":[-107.1735,40.5568]},"properties":{"s":70.0,"pub":false}},{"type":"Feature","geometry":{"type":"Point","coordinates":[-107.1735,40.5626]},"properties":{"s":70.0,"pub":false}},{"type":"Feature","geometry":{"type":"Point","coordinates":[-107.1735,40.5684]},"properties":{"s":70.0,"pub":false}},{"type":"Feature","geometry":{"type":"Point","coordinates":[-107.1735,40.5742]},"properties":{"s":70.0,"pub":false}},{"type":"Feature","geometry":{"type":"Point","coordinates":[-107.1735,40.58]},"properties":{"s":70.0,"pub":false}},{"type":"Feature","geometry":{"type":"Point","coordinates":[-107.1735,40.5858]},"properties":{"s":70.0,"pub":false}},{"type":"Feature","geometry":{"type":"Point","coordinates":[-107.1735,40.5916]},"properties":{"s":70.0,"pub":false}},{"type":"Feature","geometry":{"type":"Point","coordinates":[-107.1735,40.5974]},"properties":{"s":70.0,"pub":false}},{"type":"Feature","geometry":{"type":"Point","coordinates":[-107.1735,40.6032]},"properties":{"s":70.0,"pub":false}},{"type":"Feature","geometry":{"type":"Point","coordinates":[-107.1735,40.609]},"properties":{"s":70.0,"pub":false}},{"type":"Feature","geometry":{"type":"Point","coordinates":[-107.1735,40.6148]},"properties":{"s":70.0,"pub":false}},{"type":"Feature","geometry":{"type":"Point","coordinates":[-107.1735,40.6206]},"properties":{"s":70.0,"pub":false}},{"type":"Feature","geometry":{"type":"Point","coordinates":[-107.1735,40.6264]},"properties":{"s":70.0,"pub":false}},{"type":"Feature","geometry":{"type":"Point","coordinates":[-107.1735,40.6322]},"properties":{"s":70.0,"pub":false}},{"type":"Feature","geometry":{"type":"Point","coordinates":[-107.1735,40.638]},"properties":{"s":70.0,"pub":false}},{"type":"Feature","geometry":{"type":"Point","coordinates":[-107.1735,40.6438]},"properties":{"s":67.5,"pub":false}},{"type":"Feature","geometry":{"type":"Point","coordinates":[-107.1735,40.6496]},"properties":{"s":67.5,"pub":false}},{"type":"Feature","geometry":{"type":"Point","coordinates":[-107.1735,40.6554]},"properties":{"s":67.5,"pub":false}},{"type":"Feature","geometry":{"type":"Point","coordinates":[-107.1735,40.6612]},"properties":{"s":67.5,"pub":false}},{"type":"Feature","geometry":{"type":"Point","coordinates":[-107.1735,40.667]},"properties":{"s":67.5,"pub":false}},{"type":"Feature","geometry":{"type":"Point","coordinates":[-107.1735,40.6728]},"properties":{"s":67.5,"pub":false}},{"type":"Feature","geometry":{"type":"Point","coordinates":[-107.1735,40.6786]},"properties":{"s":67.5,"pub":false}},{"type":"Feature","geometry":{"type":"Point","coordinates":[-107.1735,40.6844]},"properties":{"s":67.5,"pub":false}},{"type":"Feature","geometry":{"type":"Point","coordinates":[-107.1735,40.6902]},"properties":{"s":67.5,"pub":true}},{"type":"Feature","geometry":{"type":"Point","coordinates":[-107.1735,40.696]},"properties":{"s":67.5,"pub":true}},{"type":"Feature","geometry":{"type":"Point","coordinates":[-107.1735,40.7018]},"properties":{"s":67.5,"pub":true}},{"type":"Feature","geometry":{"type":"Point","coordinates":[-107.1735,40.7076]},"properties":{"s":67.5,"pub":true}},{"type":"Feature","geometry":{"type":"Point","coordinates":[-107.1735,40.7134]},"properties":{"s":67.5,"pub":true}},{"type":"Feature","geometry":{"type":"Point","coordinates":[-107.1735,40.7192]},"properties":{"s":67.5,"pub":true}},{"type":"Feature","geometry":{"type":"Point","coordinates":[-107.1735,40.725]},"properties":{"s":67.5,"pub":true}},{"type":"Feature","geometry":{"type":"Point","coordinates":[-107.1735,40.7308]},"properties":{"s":67.5,"pub":true}},{"type":"Feature","geometry":{"type":"Point","coordinates":[-107.166,40.493]},"properties":{"s":97.5,"pub":false}},{"type":"Feature","geometry":{"type":"Point","coordinates":[-107.166,40.4988]},"properties":{"s":100.0,"pub":false}},{"type":"Feature","geometry":{"type":"Point","coordinates":[-107.166,40.5046]},"properties":{"s":100.0,"pub":false}},{"type":"Feature","geometry":{"type":"Point","coordinates":[-107.166,40.5104]},"properties":{"s":70.0,"pub":false}},{"type":"Feature","geometry":{"type":"Point","coordinates":[-107.166,40.5162]},"properties":{"s":70.0,"pub":false}},{"type":"Feature","geometry":{"type":"Point","coordinates":[-107.166,40.522]},"properties":{"s":70.0,"pub":false}},{"type":"Feature","geometry":{"type":"Point","coordinates":[-107.166,40.5278]},"properties":{"s":70.0,"pub":false}},{"type":"Feature","geometry":{"type":"Point","coordinates":[-107.166,40.5336]},"properties":{"s":70.0,"pub":false}},{"type":"Feature","geometry":{"type":"Point","coordinates":[-107.166,40.5394]},"properties":{"s":70.0,"pub":false}},{"type":"Feature","geometry":{"type":"Point","coordinates":[-107.166,40.5452]},"properties":{"s":70.0,"pub":false}},{"type":"Feature","geometry":{"type":"Point","coordinates":[-107.166,40.551]},"properties":{"s":70.0,"pub":false}},{"type":"Feature","geometry":{"type":"Point","coordinates":[-107.166,40.5568]},"properties":{"s":70.0,"pub":false}},{"type":"Feature","geometry":{"type":"Point","coordinates":[-107.166,40.5626]},"properties":{"s":70.0,"pub":false}},{"type":"Feature","geometry":{"type":"Point","coordinates":[-107.166,40.5684]},"properties":{"s":70.0,"pub":false}},{"type":"Feature","geometry":{"type":"Point","coordinates":[-107.166,40.5742]},"properties":{"s":70.0,"pub":false}},{"type":"Feature","geometry":{"type":"Point","coordinates":[-107.166,40.58]},"properties":{"s":70.0,"pub":false}},{"type":"Feature","geometry":{"type":"Point","coordinates":[-107.166,40.5858]},"properties":{"s":70.0,"pub":false}},{"type":"Feature","geometry":{"type":"Point","coordinates":[-107.166,40.5916]},"properties":{"s":70.0,"pub":false}},{"type":"Feature","geometry":{"type":"Point","coordinates":[-107.166,40.5974]},"properties":{"s":70.0,"pub":false}},{"type":"Feature","geometry":{"type":"Point","coordinates":[-107.166,40.6032]},"properties":{"s":70.0,"pub":false}},{"type":"Feature","geometry":{"type":"Point","coordinates":[-107.166,40.609]},"properties":{"s":70.0,"pub":false}},{"type":"Feature","geometry":{"type":"Point","coordinates":[-107.166,40.6148]},"properties":{"s":70.0,"pub":false}},{"type":"Feature","geometry":{"type":"Point","coordinates":[-107.166,40.6206]},"properties":{"s":70.0,"pub":false}},{"type":"Feature","geometry":{"type":"Point","coordinates":[-107.166,40.6264]},"properties":{"s":70.0,"pub":false}},{"type":"Feature","geometry":{"type":"Point","coordinates":[-107.166,40.6322]},"properties":{"s":70.0,"pub":false}},{"type":"Feature","geometry":{"type":"Point","coordinates":[-107.166,40.638]},"properties":{"s":70.0,"pub":false}},{"type":"Feature","geometry":{"type":"Point","coordinates":[-107.166,40.6438]},"properties":{"s":67.5,"pub":false}},{"type":"Feature","geometry":{"type":"Point","coordinates":[-107.166,40.6496]},"properties":{"s":67.5,"pub":false}},{"type":"Feature","geometry":{"type":"Point","coordinates":[-107.166,40.6554]},"properties":{"s":67.5,"pub":false}},{"type":"Feature","geometry":{"type":"Point","coordinates":[-107.166,40.6612]},"properties":{"s":67.5,"pub":false}},{"type":"Feature","geometry":{"type":"Point","coordinates":[-107.166,40.667]},"properties":{"s":67.5,"pub":false}},{"type":"Feature","geometry":{"type":"Point","coordinates":[-107.166,40.6728]},"properties":{"s":67.5,"pub":false}},{"type":"Feature","geometry":{"type":"Point","coordinates":[-107.166,40.6786]},"properties":{"s":67.5,"pub":false}},{"type":"Feature","geometry":{"type":"Point","coordinates":[-107.166,40.6844]},"properties":{"s":67.5,"pub":false}},{"type":"Feature","geometry":{"type":"Point","coordinates":[-107.166,40.6902]},"properties":{"s":67.5,"pub":true}},{"type":"Feature","geometry":{"type":"Point","coordinates":[-107.166,40.696]},"properties":{"s":67.5,"pub":true}},{"type":"Feature","geometry":{"type":"Point","coordinates":[-107.166,40.7018]},"properties":{"s":67.5,"pub":true}},{"type":"Feature","geometry":{"type":"Point","coordinates":[-107.166,40.7076]},"properties":{"s":67.5,"pub":true}},{"type":"Feature","geometry":{"type":"Point","coordinates":[-107.166,40.7134]},"properties":{"s":67.5,"pub":true}},{"type":"Feature","geometry":{"type":"Point","coordinates":[-107.166,40.7192]},"properties":{"s":67.5,"pub":true}},{"type":"Feature","geometry":{"type":"Point","coordinates":[-107.166,40.725]},"properties":{"s":67.5,"pub":true}},{"type":"Feature","geometry":{"type":"Point","coordinates":[-107.166,40.7308]},"properties":{"s":67.5,"pub":true}},{"type":"Feature","geometry":{"type":"Point","coordinates":[-107.1585,40.493]},"properties":{"s":67.5,"pub":false}},{"type":"Feature","geometry":{"type":"Point","coordinates":[-107.1585,40.4988]},"properties":{"s":100.0,"pub":false}},{"type":"Feature","geometry":{"type":"Point","coordinates":[-107.1585,40.5046]},"properties":{"s":70.0,"pub":false}},{"type":"Feature","geometry":{"type":"Point","coordinates":[-107.1585,40.5104]},"properties":{"s":70.0,"pub":false}},{"type":"Feature","geometry":{"type":"Point","coordinates":[-107.1585,40.5162]},"properties":{"s":70.0,"pub":false}},{"type":"Feature","geometry":{"type":"Point","coordinates":[-107.1585,40.522]},"properties":{"s":70.0,"pub":false}},{"type":"Feature","geometry":{"type":"Point","coordinates":[-107.1585,40.5278]},"properties":{"s":70.0,"pub":false}},{"type":"Feature","geometry":{"type":"Point","coordinates":[-107.1585,40.5336]},"properties":{"s":70.0,"pub":false}},{"type":"Feature","geometry":{"type":"Point","coordinates":[-107.1585,40.5394]},"properties":{"s":70.0,"pub":false}},{"type":"Feature","geometry":{"type":"Point","coordinates":[-107.1585,40.5452]},"properties":{"s":70.0,"pub":false}},{"type":"Feature","geometry":{"type":"Point","coordinates":[-107.1585,40.551]},"properties":{"s":70.0,"pub":false}},{"type":"Feature","geometry":{"type":"Point","coordinates":[-107.1585,40.5568]},"properties":{"s":70.0,"pub":false}},{"type":"Feature","geometry":{"type":"Point","coordinates":[-107.1585,40.5626]},"properties":{"s":70.0,"pub":true}},{"type":"Feature","geometry":{"type":"Point","coordinates":[-107.1585,40.5684]},"properties":{"s":70.0,"pub":true}},{"type":"Feature","geometry":{"type":"Point","coordinates":[-107.1585,40.5742]},"properties":{"s":70.0,"pub":false}},{"type":"Feature","geometry":{"type":"Point","coordinates":[-107.1585,40.58]},"properties":{"s":70.0,"pub":false}},{"type":"Feature","geometry":{"type":"Point","coordinates":[-107.1585,40.5858]},"properties":{"s":70.0,"pub":false}},{"type":"Feature","geometry":{"type":"Point","coordinates":[-107.1585,40.5916]},"properties":{"s":70.0,"pub":false}},{"type":"Feature","geometry":{"type":"Point","coordinates":[-107.1585,40.5974]},"properties":{"s":70.0,"pub":false}},{"type":"Feature","geometry":{"type":"Point","coordinates":[-107.1585,40.6032]},"properties":{"s":70.0,"pub":false}},{"type":"Feature","geometry":{"type":"Point","coordinates":[-107.1585,40.609]},"properties":{"s":70.0,"pub":false}},{"type":"Feature","geometry":{"type":"Point","coordinates":[-107.1585,40.6148]},"properties":{"s":70.0,"pub":false}},{"type":"Feature","geometry":{"type":"Point","coordinates":[-107.1585,40.6206]},"properties":{"s":70.0,"pub":false}},{"type":"Feature","geometry":{"type":"Point","coordinates":[-107.1585,40.6264]},"properties":{"s":70.0,"pub":false}},{"type":"Feature","geometry":{"type":"Point","coordinates":[-107.1585,40.6322]},"properties":{"s":70.0,"pub":false}},{"type":"Feature","geometry":{"type":"Point","coordinates":[-107.1585,40.638]},"properties":{"s":70.0,"pub":false}},{"type":"Feature","geometry":{"type":"Point","coordinates":[-107.1585,40.6438]},"properties":{"s":67.5,"pub":true}},{"type":"Feature","geometry":{"type":"Point","coordinates":[-107.1585,40.6496]},"properties":{"s":67.5,"pub":true}},{"type":"Feature","geometry":{"type":"Point","coordinates":[-107.1585,40.6554]},"properties":{"s":67.5,"pub":true}},{"type":"Feature","geometry":{"type":"Point","coordinates":[-107.1585,40.6612]},"properties":{"s":67.5,"pub":false}},{"type":"Feature","geometry":{"type":"Point","coordinates":[-107.1585,40.667]},"properties":{"s":67.5,"pub":false}},{"type":"Feature","geometry":{"type":"Point","coordinates":[-107.1585,40.6728]},"properties":{"s":67.5,"pub":false}},{"type":"Feature","geometry":{"type":"Point","coordinates":[-107.1585,40.6786]},"properties":{"s":67.5,"pub":false}},{"type":"Feature","geometry":{"type":"Point","coordinates":[-107.1585,40.6844]},"properties":{"s":67.5,"pub":false}},{"type":"Feature","geometry":{"type":"Point","coordinates":[-107.1585,40.6902]},"properties":{"s":67.5,"pub":true}},{"type":"Feature","geometry":{"type":"Point","coordinates":[-107.1585,40.696]},"properties":{"s":67.5,"pub":true}},{"type":"Feature","geometry":{"type":"Point","coordinates":[-107.1585,40.7018]},"properties":{"s":67.5,"pub":true}},{"type":"Feature","geometry":{"type":"Point","coordinates":[-107.1585,40.7076]},"properties":{"s":67.5,"pub":true}},{"type":"Feature","geometry":{"type":"Point","coordinates":[-107.1585,40.7134]},"properties":{"s":67.5,"pub":true}},{"type":"Feature","geometry":{"type":"Point","coordinates":[-107.1585,40.7192]},"properties":{"s":67.5,"pub":true}},{"type":"Feature","geometry":{"type":"Point","coordinates":[-107.1585,40.725]},"properties":{"s":67.5,"pub":true}},{"type":"Feature","geometry":{"type":"Point","coordinates":[-107.1585,40.7308]},"properties":{"s":67.5,"pub":true}},{"type":"Feature","geometry":{"type":"Point","coordinates":[-107.1585,40.7366]},"properties":{"s":67.5,"pub":true}},{"type":"Feature","geometry":{"type":"Point","coordinates":[-107.151,40.4872]},"properties":{"s":72.5,"pub":false}},{"type":"Feature","geometry":{"type":"Point","coordinates":[-107.151,40.493]},"properties":{"s":75.0,"pub":false}},{"type":"Feature","geometry":{"type":"Point","coordinates":[-107.151,40.4988]},"properties":{"s":70.0,"pub":false}},{"type":"Feature","geometry":{"type":"Point","coordinates":[-107.151,40.5046]},"properties":{"s":70.0,"pub":false}},{"type":"Feature","geometry":{"type":"Point","coordinates":[-107.151,40.5104]},"properties":{"s":70.0,"pub":false}},{"type":"Feature","geometry":{"type":"Point","coordinates":[-107.151,40.5162]},"properties":{"s":70.0,"pub":false}},{"type":"Feature","geometry":{"type":"Point","coordinates":[-107.151,40.522]},"properties":{"s":70.0,"pub":false}},{"type":"Feature","geometry":{"type":"Point","coordinates":[-107.151,40.5278]},"properties":{"s":70.0,"pub":false}},{"type":"Feature","geometry":{"type":"Point","coordinates":[-107.151,40.5336]},"properties":{"s":70.0,"pub":false}},{"type":"Feature","geometry":{"type":"Point","coordinates":[-107.151,40.5394]},"properties":{"s":70.0,"pub":false}},{"type":"Feature","geometry":{"type":"Point","coordinates":[-107.151,40.5452]},"properties":{"s":70.0,"pub":false}},{"type":"Feature","geometry":{"type":"Point","coordinates":[-107.151,40.551]},"properties":{"s":70.0,"pub":false}},{"type":"Feature","geometry":{"type":"Point","coordinates":[-107.151,40.5568]},"properties":{"s":70.0,"pub":false}},{"type":"Feature","geometry":{"type":"Point","coordinates":[-107.151,40.5626]},"properties":{"s":70.0,"pub":true}},{"type":"Feature","geometry":{"type":"Point","coordinates":[-107.151,40.5684]},"properties":{"s":70.0,"pub":true}},{"type":"Feature","geometry":{"type":"Point","coordinates":[-107.151,40.5742]},"properties":{"s":70.0,"pub":false}},{"type":"Feature","geometry":{"type":"Point","coordinates":[-107.151,40.58]},"properties":{"s":70.0,"pub":false}},{"type":"Feature","geometry":{"type":"Point","coordinates":[-107.151,40.5858]},"properties":{"s":70.0,"pub":false}},{"type":"Feature","geometry":{"type":"Point","coordinates":[-107.151,40.5916]},"properties":{"s":70.0,"pub":false}},{"type":"Feature","geometry":{"type":"Point","coordinates":[-107.151,40.5974]},"properties":{"s":70.0,"pub":false}},{"type":"Feature","geometry":{"type":"Point","coordinates":[-107.151,40.6032]},"properties":{"s":70.0,"pub":false}},{"type":"Feature","geometry":{"type":"Point","coordinates":[-107.151,40.609]},"properties":{"s":70.0,"pub":false}},{"type":"Feature","geometry":{"type":"Point","coordinates":[-107.151,40.6148]},"properties":{"s":70.0,"pub":false}},{"type":"Feature","geometry":{"type":"Point","coordinates":[-107.151,40.6206]},"properties":{"s":70.0,"pub":false}},{"type":"Feature","geometry":{"type":"Point","coordinates":[-107.151,40.6264]},"properties":{"s":70.0,"pub":false}},{"type":"Feature","geometry":{"type":"Point","coordinates":[-107.151,40.6322]},"properties":{"s":70.0,"pub":false}},{"type":"Feature","geometry":{"type":"Point","coordinates":[-107.151,40.638]},"properties":{"s":70.0,"pub":false}},{"type":"Feature","geometry":{"type":"Point","coordinates":[-107.151,40.6438]},"properties":{"s":67.5,"pub":true}},{"type":"Feature","geometry":{"type":"Point","coordinates":[-107.151,40.6496]},"properties":{"s":67.5,"pub":true}},{"type":"Feature","geometry":{"type":"Point","coordinates":[-107.151,40.6554]},"properties":{"s":67.5,"pub":true}},{"type":"Feature","geometry":{"type":"Point","coordinates":[-107.151,40.6612]},"properties":{"s":67.5,"pub":false}},{"type":"Feature","geometry":{"type":"Point","coordinates":[-107.151,40.667]},"properties":{"s":67.5,"pub":false}},{"type":"Feature","geometry":{"type":"Point","coordinates":[-107.151,40.6728]},"properties":{"s":67.5,"pub":false}},{"type":"Feature","geometry":{"type":"Point","coordinates":[-107.151,40.6786]},"properties":{"s":67.5,"pub":false}},{"type":"Feature","geometry":{"type":"Point","coordinates":[-107.151,40.6844]},"properties":{"s":67.5,"pub":false}},{"type":"Feature","geometry":{"type":"Point","coordinates":[-107.151,40.6902]},"properties":{"s":67.5,"pub":true}},{"type":"Feature","geometry":{"type":"Point","coordinates":[-107.151,40.696]},"properties":{"s":67.5,"pub":true}},{"type":"Feature","geometry":{"type":"Point","coordinates":[-107.151,40.7018]},"properties":{"s":67.5,"pub":true}},{"type":"Feature","geometry":{"type":"Point","coordinates":[-107.151,40.7076]},"properties":{"s":67.5,"pub":true}},{"type":"Feature","geometry":{"type":"Point","coordinates":[-107.151,40.7134]},"properties":{"s":67.5,"pub":true}},{"type":"Feature","geometry":{"type":"Point","coordinates":[-107.151,40.7192]},"properties":{"s":67.5,"pub":true}},{"type":"Feature","geometry":{"type":"Point","coordinates":[-107.151,40.725]},"properties":{"s":67.5,"pub":true}},{"type":"Feature","geometry":{"type":"Point","coordinates":[-107.151,40.7308]},"properties":{"s":67.5,"pub":true}},{"type":"Feature","geometry":{"type":"Point","coordinates":[-107.151,40.7366]},"properties":{"s":67.5,"pub":true}},{"type":"Feature","geometry":{"type":"Point","coordinates":[-107.1435,40.4872]},"properties":{"s":72.5,"pub":false}},{"type":"Feature","geometry":{"type":"Point","coordinates":[-107.1435,40.493]},"properties":{"s":75.0,"pub":false}},{"type":"Feature","geometry":{"type":"Point","coordinates":[-107.1435,40.4988]},"properties":{"s":75.0,"pub":false}},{"type":"Feature","geometry":{"type":"Point","coordinates":[-107.1435,40.5046]},"properties":{"s":70.0,"pub":false}},{"type":"Feature","geometry":{"type":"Point","coordinates":[-107.1435,40.5104]},"properties":{"s":70.0,"pub":false}},{"type":"Feature","geometry":{"type":"Point","coordinates":[-107.1435,40.5162]},"properties":{"s":70.0,"pub":false}},{"type":"Feature","geometry":{"type":"Point","coordinates":[-107.1435,40.522]},"properties":{"s":70.0,"pub":false}},{"type":"Feature","geometry":{"type":"Point","coordinates":[-107.1435,40.5278]},"properties":{"s":70.0,"pub":false}},{"type":"Feature","geometry":{"type":"Point","coordinates":[-107.1435,40.5336]},"properties":{"s":70.0,"pub":false}},{"type":"Feature","geometry":{"type":"Point","coordinates":[-107.1435,40.5394]},"properties":{"s":70.0,"pub":false}},{"type":"Feature","geometry":{"type":"Point","coordinates":[-107.1435,40.5452]},"properties":{"s":70.0,"pub":false}},{"type":"Feature","geometry":{"type":"Point","coordinates":[-107.1435,40.551]},"properties":{"s":70.0,"pub":false}},{"type":"Feature","geometry":{"type":"Point","coordinates":[-107.1435,40.5568]},"properties":{"s":70.0,"pub":false}},{"type":"Feature","geometry":{"type":"Point","coordinates":[-107.1435,40.5626]},"properties":{"s":70.0,"pub":false}},{"type":"Feature","geometry":{"type":"Point","coordinates":[-107.1435,40.5684]},"properties":{"s":70.0,"pub":false}},{"type":"Feature","geometry":{"type":"Point","coordinates":[-107.1435,40.5742]},"properties":{"s":70.0,"pub":false}},{"type":"Feature","geometry":{"type":"Point","coordinates":[-107.1435,40.58]},"properties":{"s":70.0,"pub":false}},{"type":"Feature","geometry":{"type":"Point","coordinates":[-107.1435,40.5858]},"properties":{"s":70.0,"pub":false}},{"type":"Feature","geometry":{"type":"Point","coordinates":[-107.1435,40.5916]},"properties":{"s":70.0,"pub":false}},{"type":"Feature","geometry":{"type":"Point","coordinates":[-107.1435,40.5974]},"properties":{"s":70.0,"pub":false}},{"type":"Feature","geometry":{"type":"Point","coordinates":[-107.1435,40.6032]},"properties":{"s":70.0,"pub":false}},{"type":"Feature","geometry":{"type":"Point","coordinates":[-107.1435,40.609]},"properties":{"s":70.0,"pub":true}},{"type":"Feature","geometry":{"type":"Point","coordinates":[-107.1435,40.6148]},"properties":{"s":70.0,"pub":false}},{"type":"Feature","geometry":{"type":"Point","coordinates":[-107.1435,40.6206]},"properties":{"s":70.0,"pub":false}},{"type":"Feature","geometry":{"type":"Point","coordinates":[-107.1435,40.6264]},"properties":{"s":70.0,"pub":false}},{"type":"Feature","geometry":{"type":"Point","coordinates":[-107.1435,40.6322]},"properties":{"s":70.0,"pub":false}},{"type":"Feature","geometry":{"type":"Point","coordinates":[-107.1435,40.638]},"properties":{"s":70.0,"pub":false}},{"type":"Feature","geometry":{"type":"Point","coordinates":[-107.1435,40.6438]},"properties":{"s":70.0,"pub":false}},{"type":"Feature","geometry":{"type":"Point","coordinates":[-107.1435,40.6496]},"properties":{"s":67.5,"pub":false}},{"type":"Feature","geometry":{"type":"Point","coordinates":[-107.1435,40.6554]},"properties":{"s":67.5,"pub":false}},{"type":"Feature","geometry":{"type":"Point","coordinates":[-107.1435,40.6612]},"properties":{"s":67.5,"pub":false}},{"type":"Feature","geometry":{"type":"Point","coordinates":[-107.1435,40.667]},"properties":{"s":67.5,"pub":false}},{"type":"Feature","geometry":{"type":"Point","coordinates":[-107.1435,40.6728]},"properties":{"s":67.5,"pub":false}},{"type":"Feature","geometry":{"type":"Point","coordinates":[-107.1435,40.6786]},"properties":{"s":67.5,"pub":false}},{"type":"Feature","geometry":{"type":"Point","coordinates":[-107.1435,40.6844]},"properties":{"s":67.5,"pub":false}},{"type":"Feature","geometry":{"type":"Point","coordinates":[-107.1435,40.6902]},"properties":{"s":67.5,"pub":true}},{"type":"Feature","geometry":{"type":"Point","coordinates":[-107.1435,40.696]},"properties":{"s":67.5,"pub":true}},{"type":"Feature","geometry":{"type":"Point","coordinates":[-107.1435,40.7018]},"properties":{"s":67.5,"pub":true}},{"type":"Feature","geometry":{"type":"Point","coordinates":[-107.1435,40.7076]},"properties":{"s":67.5,"pub":true}},{"type":"Feature","geometry":{"type":"Point","coordinates":[-107.1435,40.7134]},"properties":{"s":67.5,"pub":true}},{"type":"Feature","geometry":{"type":"Point","coordinates":[-107.1435,40.7192]},"properties":{"s":67.5,"pub":true}},{"type":"Feature","geometry":{"type":"Point","coordinates":[-107.1435,40.725]},"properties":{"s":67.5,"pub":true}},{"type":"Feature","geometry":{"type":"Point","coordinates":[-107.1435,40.7308]},"properties":{"s":67.5,"pub":true}},{"type":"Feature","geometry":{"type":"Point","coordinates":[-107.1435,40.7366]},"properties":{"s":67.5,"pub":true}},{"type":"Feature","geometry":{"type":"Point","coordinates":[-107.136,40.4814]},"properties":{"s":72.5,"pub":false}},{"type":"Feature","geometry":{"type":"Point","coordinates":[-107.136,40.4872]},"properties":{"s":72.5,"pub":false}},{"type":"Feature","geometry":{"type":"Point","coordinates":[-107.136,40.493]},"properties":{"s":72.5,"pub":false}},{"type":"Feature","geometry":{"type":"Point","coordinates":[-107.136,40.4988]},"properties":{"s":75.0,"pub":false}},{"type":"Feature","geometry":{"type":"Point","coordinates":[-107.136,40.5046]},"properties":{"s":75.0,"pub":false}},{"type":"Feature","geometry":{"type":"Point","coordinates":[-107.136,40.5104]},"properties":{"s":70.0,"pub":false}},{"type":"Feature","geometry":{"type":"Point","coordinates":[-107.136,40.5162]},"properties":{"s":70.0,"pub":false}},{"type":"Feature","geometry":{"type":"Point","coordinates":[-107.136,40.522]},"properties":{"s":70.0,"pub":false}},{"type":"Feature","geometry":{"type":"Point","coordinates":[-107.136,40.5336]},"properties":{"s":70.0,"pub":false}},{"type":"Feature","geometry":{"type":"Point","coordinates":[-107.136,40.5394]},"properties":{"s":70.0,"pub":false}},{"type":"Feature","geometry":{"type":"Point","coordinates":[-107.136,40.5452]},"properties":{"s":70.0,"pub":false}},{"type":"Feature","geometry":{"type":"Point","coordinates":[-107.136,40.551]},"properties":{"s":70.0,"pub":false}},{"type":"Feature","geometry":{"type":"Point","coordinates":[-107.136,40.5568]},"properties":{"s":70.0,"pub":false}},{"type":"Feature","geometry":{"type":"Point","coordinates":[-107.136,40.5626]},"properties":{"s":70.0,"pub":false}},{"type":"Feature","geometry":{"type":"Point","coordinates":[-107.136,40.5684]},"properties":{"s":70.0,"pub":false}},{"type":"Feature","geometry":{"type":"Point","coordinates":[-107.136,40.5742]},"properties":{"s":70.0,"pub":false}},{"type":"Feature","geometry":{"type":"Point","coordinates":[-107.136,40.58]},"properties":{"s":70.0,"pub":false}},{"type":"Feature","geometry":{"type":"Point","coordinates":[-107.136,40.5858]},"properties":{"s":70.0,"pub":false}},{"type":"Feature","geometry":{"type":"Point","coordinates":[-107.136,40.5916]},"properties":{"s":70.0,"pub":false}},{"type":"Feature","geometry":{"type":"Point","coordinates":[-107.136,40.5974]},"properties":{"s":70.0,"pub":false}},{"type":"Feature","geometry":{"type":"Point","coordinates":[-107.136,40.6032]},"properties":{"s":70.0,"pub":false}},{"type":"Feature","geometry":{"type":"Point","coordinates":[-107.136,40.609]},"properties":{"s":70.0,"pub":true}},{"type":"Feature","geometry":{"type":"Point","coordinates":[-107.136,40.6148]},"properties":{"s":70.0,"pub":false}},{"type":"Feature","geometry":{"type":"Point","coordinates":[-107.136,40.6206]},"properties":{"s":70.0,"pub":false}},{"type":"Feature","geometry":{"type":"Point","coordinates":[-107.136,40.6264]},"properties":{"s":70.0,"pub":false}},{"type":"Feature","geometry":{"type":"Point","coordinates":[-107.136,40.6322]},"properties":{"s":70.0,"pub":false}},{"type":"Feature","geometry":{"type":"Point","coordinates":[-107.136,40.638]},"properties":{"s":70.0,"pub":false}},{"type":"Feature","geometry":{"type":"Point","coordinates":[-107.136,40.6438]},"properties":{"s":70.0,"pub":false}},{"type":"Feature","geometry":{"type":"Point","coordinates":[-107.136,40.6496]},"properties":{"s":67.5,"pub":false}},{"type":"Feature","geometry":{"type":"Point","coordinates":[-107.136,40.6554]},"properties":{"s":67.5,"pub":false}},{"type":"Feature","geometry":{"type":"Point","coordinates":[-107.136,40.6612]},"properties":{"s":67.5,"pub":false}},{"type":"Feature","geometry":{"type":"Point","coordinates":[-107.136,40.667]},"properties":{"s":67.5,"pub":false}},{"type":"Feature","geometry":{"type":"Point","coordinates":[-107.136,40.6728]},"properties":{"s":67.5,"pub":false}},{"type":"Feature","geometry":{"type":"Point","coordinates":[-107.136,40.6786]},"properties":{"s":67.5,"pub":false}},{"type":"Feature","geometry":{"type":"Point","coordinates":[-107.136,40.6844]},"properties":{"s":67.5,"pub":false}},{"type":"Feature","geometry":{"type":"Point","coordinates":[-107.136,40.6902]},"properties":{"s":67.5,"pub":false}},{"type":"Feature","geometry":{"type":"Point","coordinates":[-107.136,40.696]},"properties":{"s":67.5,"pub":false}},{"type":"Feature","geometry":{"type":"Point","coordinates":[-107.136,40.7018]},"properties":{"s":67.5,"pub":false}},{"type":"Feature","geometry":{"type":"Point","coordinates":[-107.136,40.7076]},"properties":{"s":67.5,"pub":true}},{"type":"Feature","geometry":{"type":"Point","coordinates":[-107.136,40.7134]},"properties":{"s":67.5,"pub":true}},{"type":"Feature","geometry":{"type":"Point","coordinates":[-107.136,40.7192]},"properties":{"s":67.5,"pub":true}},{"type":"Feature","geometry":{"type":"Point","coordinates":[-107.136,40.725]},"properties":{"s":67.5,"pub":true}},{"type":"Feature","geometry":{"type":"Point","coordinates":[-107.136,40.7308]},"properties":{"s":67.5,"pub":true}},{"type":"Feature","geometry":{"type":"Point","coordinates":[-107.136,40.7366]},"properties":{"s":67.5,"pub":true}},{"type":"Feature","geometry":{"type":"Point","coordinates":[-107.1285,40.5394]},"properties":{"s":70.0,"pub":false}},{"type":"Feature","geometry":{"type":"Point","coordinates":[-107.1285,40.5452]},"properties":{"s":70.0,"pub":false}},{"type":"Feature","geometry":{"type":"Point","coordinates":[-107.1285,40.551]},"properties":{"s":70.0,"pub":false}},{"type":"Feature","geometry":{"type":"Point","coordinates":[-107.1285,40.5568]},"properties":{"s":70.0,"pub":false}},{"type":"Feature","geometry":{"type":"Point","coordinates":[-107.1285,40.5626]},"properties":{"s":70.0,"pub":false}},{"type":"Feature","geometry":{"type":"Point","coordinates":[-107.1285,40.5684]},"properties":{"s":70.0,"pub":false}},{"type":"Feature","geometry":{"type":"Point","coordinates":[-107.1285,40.5742]},"properties":{"s":70.0,"pub":false}},{"type":"Feature","geometry":{"type":"Point","coordinates":[-107.1285,40.58]},"properties":{"s":70.0,"pub":false}},{"type":"Feature","geometry":{"type":"Point","coordinates":[-107.1285,40.6032]},"properties":{"s":67.5,"pub":false}},{"type":"Feature","geometry":{"type":"Point","coordinates":[-107.1285,40.609]},"properties":{"s":70.0,"pub":true}},{"type":"Feature","geometry":{"type":"Point","coordinates":[-107.1285,40.6148]},"properties":{"s":70.0,"pub":false}},{"type":"Feature","geometry":{"type":"Point","coordinates":[-107.1285,40.6206]},"properties":{"s":70.0,"pub":false}},{"type":"Feature","geometry":{"type":"Point","coordinates":[-107.1285,40.6264]},"properties":{"s":70.0,"pub":false}},{"type":"Feature","geometry":{"type":"Point","coordinates":[-107.1285,40.6322]},"properties":{"s":70.0,"pub":false}},{"type":"Feature","geometry":{"type":"Point","coordinates":[-107.1285,40.638]},"properties":{"s":70.0,"pub":false}},{"type":"Feature","geometry":{"type":"Point","coordinates":[-107.1285,40.6438]},"properties":{"s":70.0,"pub":false}},{"type":"Feature","geometry":{"type":"Point","coordinates":[-107.1285,40.6496]},"properties":{"s":67.5,"pub":false}},{"type":"Feature","geometry":{"type":"Point","coordinates":[-107.1285,40.6554]},"properties":{"s":67.5,"pub":false}},{"type":"Feature","geometry":{"type":"Point","coordinates":[-107.1285,40.6612]},"properties":{"s":67.5,"pub":false}},{"type":"Feature","geometry":{"type":"Point","coordinates":[-107.1285,40.667]},"properties":{"s":67.5,"pub":false}},{"type":"Feature","geometry":{"type":"Point","coordinates":[-107.1285,40.6728]},"properties":{"s":67.5,"pub":false}},{"type":"Feature","geometry":{"type":"Point","coordinates":[-107.1285,40.6786]},"properties":{"s":67.5,"pub":false}},{"type":"Feature","geometry":{"type":"Point","coordinates":[-107.1285,40.6844]},"properties":{"s":67.5,"pub":false}},{"type":"Feature","geometry":{"type":"Point","coordinates":[-107.1285,40.6902]},"properties":{"s":67.5,"pub":true}},{"type":"Feature","geometry":{"type":"Point","coordinates":[-107.1285,40.696]},"properties":{"s":67.5,"pub":true}},{"type":"Feature","geometry":{"type":"Point","coordinates":[-107.1285,40.7018]},"properties":{"s":67.5,"pub":true}},{"type":"Feature","geometry":{"type":"Point","coordinates":[-107.1285,40.7076]},"properties":{"s":67.5,"pub":true}},{"type":"Feature","geometry":{"type":"Point","coordinates":[-107.1285,40.7134]},"properties":{"s":67.5,"pub":true}},{"type":"Feature","geometry":{"type":"Point","coordinates":[-107.1285,40.7192]},"properties":{"s":67.5,"pub":true}},{"type":"Feature","geometry":{"type":"Point","coordinates":[-107.1285,40.725]},"properties":{"s":67.5,"pub":true}},{"type":"Feature","geometry":{"type":"Point","coordinates":[-107.1285,40.7308]},"properties":{"s":67.5,"pub":true}},{"type":"Feature","geometry":{"type":"Point","coordinates":[-107.1285,40.7888]},"properties":{"s":67.5,"pub":true}},{"type":"Feature","geometry":{"type":"Point","coordinates":[-107.1285,40.7946]},"properties":{"s":67.5,"pub":true}},{"type":"Feature","geometry":{"type":"Point","coordinates":[-107.121,40.5452]},"properties":{"s":70.0,"pub":false}},{"type":"Feature","geometry":{"type":"Point","coordinates":[-107.121,40.551]},"properties":{"s":70.0,"pub":false}},{"type":"Feature","geometry":{"type":"Point","coordinates":[-107.121,40.5568]},"properties":{"s":70.0,"pub":false}},{"type":"Feature","geometry":{"type":"Point","coordinates":[-107.121,40.5626]},"properties":{"s":70.0,"pub":false}},{"type":"Feature","geometry":{"type":"Point","coordinates":[-107.121,40.5742]},"properties":{"s":70.0,"pub":false}},{"type":"Feature","geometry":{"type":"Point","coordinates":[-107.121,40.58]},"properties":{"s":70.0,"pub":false}},{"type":"Feature","geometry":{"type":"Point","coordinates":[-107.121,40.6206]},"properties":{"s":70.0,"pub":false}},{"type":"Feature","geometry":{"type":"Point","coordinates":[-107.121,40.6264]},"properties":{"s":70.0,"pub":false}},{"type":"Feature","geometry":{"type":"Point","coordinates":[-107.121,40.6322]},"properties":{"s":70.0,"pub":false}},{"type":"Feature","geometry":{"type":"Point","coordinates":[-107.121,40.638]},"properties":{"s":70.0,"pub":false}},{"type":"Feature","geometry":{"type":"Point","coordinates":[-107.121,40.6438]},"properties":{"s":67.5,"pub":false}},{"type":"Feature","geometry":{"type":"Point","coordinates":[-107.121,40.6496]},"properties":{"s":67.5,"pub":false}},{"type":"Feature","geometry":{"type":"Point","coordinates":[-107.121,40.6554]},"properties":{"s":67.5,"pub":false}},{"type":"Feature","geometry":{"type":"Point","coordinates":[-107.121,40.6612]},"properties":{"s":67.5,"pub":true}},{"type":"Feature","geometry":{"type":"Point","coordinates":[-107.121,40.667]},"properties":{"s":67.5,"pub":false}},{"type":"Feature","geometry":{"type":"Point","coordinates":[-107.121,40.6728]},"properties":{"s":67.5,"pub":false}},{"type":"Feature","geometry":{"type":"Point","coordinates":[-107.121,40.6786]},"properties":{"s":67.5,"pub":false}},{"type":"Feature","geometry":{"type":"Point","coordinates":[-107.121,40.6844]},"properties":{"s":67.5,"pub":false}},{"type":"Feature","geometry":{"type":"Point","coordinates":[-107.121,40.6902]},"properties":{"s":67.5,"pub":true}},{"type":"Feature","geometry":{"type":"Point","coordinates":[-107.121,40.696]},"properties":{"s":67.5,"pub":true}},{"type":"Feature","geometry":{"type":"Point","coordinates":[-107.121,40.7018]},"properties":{"s":67.5,"pub":true}},{"type":"Feature","geometry":{"type":"Point","coordinates":[-107.121,40.7076]},"properties":{"s":67.5,"pub":true}},{"type":"Feature","geometry":{"type":"Point","coordinates":[-107.121,40.7134]},"properties":{"s":67.5,"pub":true}},{"type":"Feature","geometry":{"type":"Point","coordinates":[-107.121,40.7192]},"properties":{"s":67.5,"pub":true}},{"type":"Feature","geometry":{"type":"Point","coordinates":[-107.121,40.725]},"properties":{"s":67.5,"pub":true}},{"type":"Feature","geometry":{"type":"Point","coordinates":[-107.121,40.7308]},"properties":{"s":67.5,"pub":true}},{"type":"Feature","geometry":{"type":"Point","coordinates":[-107.1135,40.551]},"properties":{"s":70.0,"pub":false}},{"type":"Feature","geometry":{"type":"Point","coordinates":[-107.1135,40.5568]},"properties":{"s":70.0,"pub":false}},{"type":"Feature","geometry":{"type":"Point","coordinates":[-107.1135,40.6264]},"properties":{"s":70.0,"pub":false}},{"type":"Feature","geometry":{"type":"Point","coordinates":[-107.1135,40.6438]},"properties":{"s":67.5,"pub":false}},{"type":"Feature","geometry":{"type":"Point","coordinates":[-107.1135,40.6496]},"properties":{"s":67.5,"pub":false}},{"type":"Feature","geometry":{"type":"Point","coordinates":[-107.1135,40.6554]},"properties":{"s":67.5,"pub":false}},{"type":"Feature","geometry":{"type":"Point","coordinates":[-107.1135,40.6612]},"properties":{"s":67.5,"pub":false}},{"type":"Feature","geometry":{"type":"Point","coordinates":[-107.1135,40.667]},"properties":{"s":67.5,"pub":false}},{"type":"Feature","geometry":{"type":"Point","coordinates":[-107.1135,40.6728]},"properties":{"s":67.5,"pub":false}},{"type":"Feature","geometry":{"type":"Point","coordinates":[-107.1135,40.6786]},"properties":{"s":67.5,"pub":false}},{"type":"Feature","geometry":{"type":"Point","coordinates":[-107.1135,40.6844]},"properties":{"s":67.5,"pub":false}},{"type":"Feature","geometry":{"type":"Point","coordinates":[-107.1135,40.6902]},"properties":{"s":67.5,"pub":true}},{"type":"Feature","geometry":{"type":"Point","coordinates":[-107.1135,40.696]},"properties":{"s":67.5,"pub":true}},{"type":"Feature","geometry":{"type":"Point","coordinates":[-107.1135,40.7018]},"properties":{"s":67.5,"pub":true}},{"type":"Feature","geometry":{"type":"Point","coordinates":[-107.1135,40.7076]},"properties":{"s":67.5,"pub":true}},{"type":"Feature","geometry":{"type":"Point","coordinates":[-107.1135,40.7134]},"properties":{"s":67.5,"pub":true}},{"type":"Feature","geometry":{"type":"Point","coordinates":[-107.1135,40.7192]},"properties":{"s":67.5,"pub":true}},{"type":"Feature","geometry":{"type":"Point","coordinates":[-107.1135,40.725]},"properties":{"s":67.5,"pub":true}},{"type":"Feature","geometry":{"type":"Point","coordinates":[-107.1135,40.7308]},"properties":{"s":67.5,"pub":true}},{"type":"Feature","geometry":{"type":"Point","coordinates":[-107.106,40.551]},"properties":{"s":70.0,"pub":false}},{"type":"Feature","geometry":{"type":"Point","coordinates":[-107.106,40.5568]},"properties":{"s":70.0,"pub":false}},{"type":"Feature","geometry":{"type":"Point","coordinates":[-107.106,40.6496]},"properties":{"s":67.5,"pub":false}},{"type":"Feature","geometry":{"type":"Point","coordinates":[-107.106,40.6554]},"properties":{"s":67.5,"pub":false}},{"type":"Feature","geometry":{"type":"Point","coordinates":[-107.106,40.6612]},"properties":{"s":67.5,"pub":false}},{"type":"Feature","geometry":{"type":"Point","coordinates":[-107.106,40.667]},"properties":{"s":67.5,"pub":false}},{"type":"Feature","geometry":{"type":"Point","coordinates":[-107.106,40.6786]},"properties":{"s":67.5,"pub":false}},{"type":"Feature","geometry":{"type":"Point","coordinates":[-107.106,40.6844]},"properties":{"s":67.5,"pub":false}},{"type":"Feature","geometry":{"type":"Point","coordinates":[-107.106,40.6902]},"properties":{"s":67.5,"pub":true}},{"type":"Feature","geometry":{"type":"Point","coordinates":[-107.106,40.696]},"properties":{"s":67.5,"pub":true}},{"type":"Feature","geometry":{"type":"Point","coordinates":[-107.106,40.7018]},"properties":{"s":67.5,"pub":true}},{"type":"Feature","geometry":{"type":"Point","coordinates":[-107.106,40.7076]},"properties":{"s":67.5,"pub":true}},{"type":"Feature","geometry":{"type":"Point","coordinates":[-107.106,40.7134]},"properties":{"s":67.5,"pub":true}},{"type":"Feature","geometry":{"type":"Point","coordinates":[-107.106,40.7192]},"properties":{"s":67.5,"pub":true}},{"type":"Feature","geometry":{"type":"Point","coordinates":[-107.106,40.725]},"properties":{"s":67.5,"pub":true}},{"type":"Feature","geometry":{"type":"Point","coordinates":[-107.0985,40.6554]},"properties":{"s":67.5,"pub":false}},{"type":"Feature","geometry":{"type":"Point","coordinates":[-107.0985,40.6612]},"properties":{"s":67.5,"pub":false}},{"type":"Feature","geometry":{"type":"Point","coordinates":[-107.0985,40.6902]},"properties":{"s":67.5,"pub":true}},{"type":"Feature","geometry":{"type":"Point","coordinates":[-107.0985,40.696]},"properties":{"s":67.5,"pub":true}},{"type":"Feature","geometry":{"type":"Point","coordinates":[-107.0985,40.7018]},"properties":{"s":67.5,"pub":true}},{"type":"Feature","geometry":{"type":"Point","coordinates":[-107.0985,40.7076]},"properties":{"s":67.5,"pub":true}},{"type":"Feature","geometry":{"type":"Point","coordinates":[-107.0985,40.7134]},"properties":{"s":67.5,"pub":true}},{"type":"Feature","geometry":{"type":"Point","coordinates":[-107.0985,40.7192]},"properties":{"s":67.5,"pub":true}},{"type":"Feature","geometry":{"type":"Point","coordinates":[-107.0985,40.725]},"properties":{"s":67.5,"pub":true}},{"type":"Feature","geometry":{"type":"Point","coordinates":[-107.091,40.6902]},"properties":{"s":67.5,"pub":true}},{"type":"Feature","geometry":{"type":"Point","coordinates":[-107.091,40.696]},"properties":{"s":67.5,"pub":true}},{"type":"Feature","geometry":{"type":"Point","coordinates":[-107.091,40.7018]},"properties":{"s":67.5,"pub":true}},{"type":"Feature","geometry":{"type":"Point","coordinates":[-107.091,40.7076]},"properties":{"s":67.5,"pub":false}},{"type":"Feature","geometry":{"type":"Point","coordinates":[-107.091,40.7134]},"properties":{"s":67.5,"pub":true}},{"type":"Feature","geometry":{"type":"Point","coordinates":[-107.091,40.7192]},"properties":{"s":67.5,"pub":true}},{"type":"Feature","geometry":{"type":"Point","coordinates":[-107.0835,40.696]},"properties":{"s":67.5,"pub":false}},{"type":"Feature","geometry":{"type":"Point","coordinates":[-107.0835,40.7018]},"properties":{"s":67.5,"pub":false}},{"type":"Feature","geometry":{"type":"Point","coordinates":[-107.0835,40.7076]},"properties":{"s":67.5,"pub":false}},{"type":"Feature","geometry":{"type":"Point","coordinates":[-107.0835,40.7134]},"properties":{"s":67.5,"pub":true}},{"type":"Feature","geometry":{"type":"Point","coordinates":[-107.0835,40.7192]},"properties":{"s":67.5,"pub":true}},{"type":"Feature","geometry":{"type":"Point","coordinates":[-107.076,40.7134]},"properties":{"s":67.5,"pub":false}}]}