{"type":"FeatureCollection","features":[{"type":"Feature","geometry":{"type":"Point","coordinates":[-105.8571,39.5214]},"properties":{"s":46.2,"pub":true}},{"type":"Feature","geometry":{"type":"Point","coordinates":[-105.8571,39.5272]},"properties":{"s":46.2,"pub":true}},{"type":"Feature","geometry":{"type":"Point","coordinates":[-105.8496,39.5214]},"properties":{"s":46.2,"pub":true}},{"type":"Feature","geometry":{"type":"Point","coordinates":[-105.8421,39.5214]},"properties":{"s":46.2,"pub":true}},{"type":"Feature","geometry":{"type":"Point","coordinates":[-105.8346,39.5272]},"properties":{"s":46.2,"pub":true}},{"type":"Feature","geometry":{"type":"Point","coordinates":[-105.8271,39.4982]},"properties":{"s":46.2,"pub":true}},{"type":"Feature","geometry":{"type":"Point","coordinates":[-105.8271,39.504]},"properties":{"s":46.2,"pub":true}},{"type":"Feature","geometry":{"type":"Point","coordinates":[-105.8271,39.5272]},"properties":{"s":46.2,"pub":true}},{"type":"Feature","geometry":{"type":"Point","coordinates":[-105.8271,39.5794]},"properties":{"s":46.2,"pub":true}},{"type":"Feature","geometry":{"type":"Point","coordinates":[-105.8196,39.4924]},"properties":{"s":46.2,"pub":true}},{"type":"Feature","geometry":{"type":"Point","coordinates":[-105.8196,39.4982]},"properties":{"s":46.2,"pub":true}},{"type":"Feature","geometry":{"type":"Point","coordinates":[-105.8196,39.504]},"properties":{"s":46.2,"pub":true}},{"type":"Feature","geometry":{"type":"Point","coordinates":[-105.8196,39.5272]},"properties":{"s":46.2,"pub":true}},{"type":"Feature","geometry":{"type":"Point","coordinates":[-105.8196,39.533]},"properties":{"s":46.2,"pub":true}},{"type":"Feature","geometry":{"type":"Point","coordinates":[-105.8121,39.4866]},"properties":{"s":46.2,"pub":true}},{"type":"Feature","geometry":{"type":"Point","coordinates":[-105.8121,39.4924]},"properties":{"s":46.2,"pub":true}},{"type":"Feature","geometry":{"type":"Point","coordinates":[-105.8121,39.4982]},"properties":{"s":46.2,"pub":true}},{"type":"Feature","geometry":{"type":"Point","coordinates":[-105.8121,39.504]},"properties":{"s":46.2,"pub":true}},{"type":"Feature","geometry":{"type":"Point","coordinates":[-105.8121,39.533]},"properties":{"s":46.2,"pub":true}},{"type":"Feature","geometry":{"type":"Point","coordinates":[-105.8121,39.5388]},"properties":{"s":66.7,"pub":true}},{"type":"Feature","geometry":{"type":"Point","coordinates":[-105.8121,39.5446]},"properties":{"s":66.7,"pub":true}},{"type":"Feature","geometry":{"type":"Point","coordinates":[-105.8121,39.5504]},"properties":{"s":35.9,"pub":true}},{"type":"Feature","geometry":{"type":"Point","coordinates":[-105.8046,39.4866]},"properties":{"s":46.2,"pub":true}},{"type":"Feature","geometry":{"type":"Point","coordinates":[-105.8046,39.4924]},"properties":{"s":46.2,"pub":true}},{"type":"Feature","geometry":{"type":"Point","coordinates":[-105.8046,39.4982]},"properties":{"s":46.2,"pub":true}},{"type":"Feature","geometry":{"type":"Point","coordinates":[-105.8046,39.504]},"properties":{"s":46.2,"pub":true}},{"type":"Feature","geometry":{"type":"Point","coordinates":[-105.8046,39.533]},"properties":{"s":35.9,"pub":true}},{"type":"Feature","geometry":{"type":"Point","coordinates":[-105.8046,39.5388]},"properties":{"s":35.9,"pub":true}},{"type":"Feature","geometry":{"type":"Point","coordinates":[-105.8046,39.5446]},"properties":{"s":35.9,"pub":true}},{"type":"Feature","geometry":{"type":"Point","coordinates":[-105.8046,39.5504]},"properties":{"s":35.9,"pub":true}},{"type":"Feature","geometry":{"type":"Point","coordinates":[-105.7971,39.4866]},"properties":{"s":46.2,"pub":true}},{"type":"Feature","geometry":{"type":"Point","coordinates":[-105.7971,39.4924]},"properties":{"s":46.2,"pub":true}},{"type":"Feature","geometry":{"type":"Point","coordinates":[-105.7971,39.4982]},"properties":{"s":46.2,"pub":true}},{"type":"Feature","geometry":{"type":"Point","coordinates":[-105.7971,39.5272]},"properties":{"s":35.9,"pub":true}},{"type":"Feature","geometry":{"type":"Point","coordinates":[-105.7971,39.533]},"properties":{"s":35.9,"pub":true}},{"type":"Feature","geometry":{"type":"Point","coordinates":[-105.7971,39.5388]},"properties":{"s":35.9,"pub":true}},{"type":"Feature","geometry":{"type":"Point","coordinates":[-105.7971,39.5446]},"properties":{"s":35.9,"pub":true}},{"type":"Feature","geometry":{"type":"Point","coordinates":[-105.7896,39.4808]},"properties":{"s":46.2,"pub":true}},{"type":"Feature","geometry":{"type":"Point","coordinates":[-105.7896,39.4866]},"properties":{"s":46.2,"pub":true}},{"type":"Feature","geometry":{"type":"Point","coordinates":[-105.7896,39.4924]},"properties":{"s":46.2,"pub":true}},{"type":"Feature","geometry":{"type":"Point","coordinates":[-105.7896,39.4982]},"properties":{"s":46.2,"pub":true}},{"type":"Feature","geometry":{"type":"Point","coordinates":[-105.7896,39.5272]},"properties":{"s":35.9,"pub":true}},{"type":"Feature","geometry":{"type":"Point","coordinates":[-105.7896,39.533]},"properties":{"s":35.9,"pub":true}},{"type":"Feature","geometry":{"type":"Point","coordinates":[-105.7896,39.5388]},"properties":{"s":35.9,"pub":true}},{"type":"Feature","geometry":{"type":"Point","coordinates":[-105.7896,39.5446]},"properties":{"s":35.9,"pub":true}},{"type":"Feature","geometry":{"type":"Point","coordinates":[-105.7896,39.5504]},"properties":{"s":35.9,"pub":true}},{"type":"Feature","geometry":{"type":"Point","coordinates":[-105.7821,39.4808]},"properties":{"s":46.2,"pub":true}},{"type":"Feature","geometry":{"type":"Point","coordinates":[-105.7821,39.4866]},"properties":{"s":46.2,"pub":true}},{"type":"Feature","geometry":{"type":"Point","coordinates":[-105.7821,39.4924]},"properties":{"s":46.2,"pub":true}},{"type":"Feature","geometry":{"type":"Point","coordinates":[-105.7821,39.5272]},"properties":{"s":35.9,"pub":true}},{"type":"Feature","geometry":{"type":"Point","coordinates":[-105.7821,39.533]},"properties":{"s":35.9,"pub":true}},{"type":"Feature","geometry":{"type":"Point","coordinates":[-105.7821,39.5388]},"properties":{"s":35.9,"pub":true}},{"type":"Feature","geometry":{"type":"Point","coordinates":[-105.7821,39.5446]},"properties":{"s":35.9,"pub":true}},{"type":"Feature","geometry":{"type":"Point","coordinates":[-105.7821,39.5504]},"properties":{"s":35.9,"pub":true}},{"type":"Feature","geometry":{"type":"Point","coordinates":[-105.7821,39.5562]},"properties":{"s":35.9,"pub":true}},{"type":"Feature","geometry":{"type":"Point","coordinates":[-105.7746,39.4808]},"properties":{"s":46.2,"pub":true}},{"type":"Feature","geometry":{"type":"Point","coordinates":[-105.7746,39.4866]},"properties":{"s":46.2,"pub":true}},{"type":"Feature","geometry":{"type":"Point","coordinates":[-105.7746,39.5272]},"properties":{"s":35.9,"pub":true}},{"type":"Feature","geometry":{"type":"Point","coordinates":[-105.7746,39.533]},"properties":{"s":35.9,"pub":true}},{"type":"Feature","geometry":{"type":"Point","coordinates":[-105.7746,39.5388]},"properties":{"s":35.9,"pub":true}},{"type":"Feature","geometry":{"type":"Point","coordinates":[-105.7746,39.5446]},"properties":{"s":35.9,"pub":true}},{"type":"Feature","geometry":{"type":"Point","coordinates":[-105.7746,39.5504]},"properties":{"s":35.9,"pub":true}},{"type":"Feature","geometry":{"type":"Point","coordinates":[-105.7746,39.5562]},"properties":{"s":35.9,"pub":true}},{"type":"Feature","geometry":{"type":"Point","coordinates":[-105.7746,39.562]},"properties":{"s":35.9,"pub":true}},{"type":"Feature","geometry":{"type":"Point","coordinates":[-105.7671,39.475]},"properties":{"s":46.2,"pub":true}},{"type":"Feature","geometry":{"type":"Point","coordinates":[-105.7671,39.4808]},"properties":{"s":46.2,"pub":true}},{"type":"Feature","geometry":{"type":"Point","coordinates":[-105.7671,39.4866]},"properties":{"s":17.9,"pub":true}},{"type":"Feature","geometry":{"type":"Point","coordinates":[-105.7671,39.4924]},"properties":{"s":17.9,"pub":true}},{"type":"Feature","geometry":{"type":"Point","coordinates":[-105.7671,39.5272]},"properties":{"s":35.9,"pub":true}},{"type":"Feature","geometry":{"type":"Point","coordinates":[-105.7671,39.533]},"properties":{"s":35.9,"pub":true}},{"type":"Feature","geometry":{"type":"Point","coordinates":[-105.7671,39.5388]},"properties":{"s":35.9,"pub":true}},{"type":"Feature","geometry":{"type":"Point","coordinates":[-105.7671,39.5446]},"properties":{"s":35.9,"pub":true}},{"type":"Feature","geometry":{"type":"Point","coordinates":[-105.7671,39.5504]},"properties":{"s":35.9,"pub":true}},{"type":"Feature","geometry":{"type":"Point","coordinates":[-105.7671,39.5562]},"properties":{"s":35.9,"pub":true}},{"type":"Feature","geometry":{"type":"Point","coordinates":[-105.7596,39.475]},"properties":{"s":46.2,"pub":true}},{"type":"Feature","geometry":{"type":"Point","coordinates":[-105.7596,39.4866]},"properties":{"s":17.9,"pub":true}},{"type":"Feature","geometry":{"type":"Point","coordinates":[-105.7596,39.4924]},"properties":{"s":17.9,"pub":true}},{"type":"Feature","geometry":{"type":"Point","coordinates":[-105.7596,39.5272]},"properties":{"s":35.9,"pub":true}},{"type":"Feature","geometry":{"type":"Point","coordinates":[-105.7596,39.533]},"properties":{"s":35.9,"pub":true}},{"type":"Feature","geometry":{"type":"Point","coordinates":[-105.7596,39.5388]},"properties":{"s":35.9,"pub":true}},{"type":"Feature","geometry":{"type":"Point","coordinates":[-105.7596,39.5446]},"properties":{"s":35.9,"pub":true}},{"type":"Feature","geometry":{"type":"Point","coordinates":[-105.7596,39.5504]},"properties":{"s":35.9,"pub":true}},{"type":"Feature","geometry":{"type":"Point","coordinates":[-105.7596,39.562]},"properties":{"s":46.2,"pub":true}},{"type":"Feature","geometry":{"type":"Point","coordinates":[-105.7596,39.5678]},"properties":{"s":46.2,"pub":true}},{"type":"Feature","geometry":{"type":"Point","coordinates":[-105.7521,39.4808]},"properties":{"s":17.9,"pub":true}},{"type":"Feature","geometry":{"type":"Point","coordinates":[-105.7521,39.4866]},"properties":{"s":17.9,"pub":true}},{"type":"Feature","geometry":{"type":"Point","coordinates":[-105.7521,39.4924]},"properties":{"s":17.9,"pub":true}},{"type":"Feature","geometry":{"type":"Point","coordinates":[-105.7521,39.4982]},"properties":{"s":17.9,"pub":true}},{"type":"Feature","geometry":{"type":"Point","coordinates":[-105.7521,39.5562]},"properties":{"s":46.2,"pub":true}},{"type":"Feature","geometry":{"type":"Point","coordinates":[-105.7521,39.562]},"properties":{"s":46.2,"pub":true}},{"type":"Feature","geometry":{"type":"Point","coordinates":[-105.7521,39.5678]},"properties":{"s":46.2,"pub":true}},{"type":"Feature","geometry":{"type":"Point","coordinates":[-105.7446,39.4808]},"properties":{"s":38.5,"pub":true}},{"type":"Feature","geometry":{"type":"Point","coordinates":[-105.7446,39.4866]},"properties":{"s":38.5,"pub":true}},{"type":"Feature","geometry":{"type":"Point","coordinates":[-105.7446,39.4924]},"properties":{"s":38.5,"pub":true}},{"type":"Feature","geometry":{"type":"Point","coordinates":[-105.7446,39.4982]},"properties":{"s":17.9,"pub":true}},{"type":"Feature","geometry":{"type":"Point","coordinates":[-105.7446,39.5504]},"properties":{"s":46.2,"pub":true}},{"type":"Feature","geometry":{"type":"Point","coordinates":[-105.7446,39.5562]},"properties":{"s":46.2,"pub":true}},{"type":"Feature","geometry":{"type":"Point","coordinates":[-105.7446,39.562]},"properties":{"s":46.2,"pub":true}},{"type":"Feature","geometry":{"type":"Point","coordinates":[-105.7446,39.5678]},"properties":{"s":46.2,"pub":true}},{"type":"Feature","geometry":{"type":"Point","coordinates":[-105.7446,39.5736]},"properties":{"s":46.2,"pub":true}},{"type":"Feature","geometry":{"type":"Point","coordinates":[-105.7371,39.4634]},"properties":{"s":17.9,"pub":true}},{"type":"Feature","geometry":{"type":"Point","coordinates":[-105.7371,39.4692]},"properties":{"s":38.5,"pub":true}},{"type":"Feature","geometry":{"type":"Point","coordinates":[-105.7371,39.475]},"properties":{"s":38.5,"pub":true}},{"type":"Feature","geometry":{"type":"Point","coordinates":[-105.7371,39.4808]},"properties":{"s":38.5,"pub":true}},{"type":"Feature","geometry":{"type":"Point","coordinates":[-105.7371,39.4866]},"properties":{"s":38.5,"pub":true}},{"type":"Feature","geometry":{"type":"Point","coordinates":[-105.7371,39.4924]},"properties":{"s":38.5,"pub":true}},{"type":"Feature","geometry":{"type":"Point","coordinates":[-105.7371,39.4982]},"properties":{"s":17.9,"pub":true}},{"type":"Feature","geometry":{"type":"Point","coordinates":[-105.7371,39.5504]},"properties":{"s":46.2,"pub":true}},{"type":"Feature","geometry":{"type":"Point","coordinates":[-105.7371,39.5562]},"properties":{"s":46.2,"pub":true}},{"type":"Feature","geometry":{"type":"Point","coordinates":[-105.7371,39.562]},"properties":{"s":46.2,"pub":true}},{"type":"Feature","geometry":{"type":"Point","coordinates":[-105.7371,39.5678]},"properties":{"s":46.2,"pub":true}},{"type":"Feature","geometry":{"type":"Point","coordinates":[-105.7371,39.5736]},"properties":{"s":46.2,"pub":true}},{"type":"Feature","geometry":{"type":"Point","coordinates":[-105.7296,39.4634]},"properties":{"s":38.5,"pub":true}},{"type":"Feature","geometry":{"type":"Point","coordinates":[-105.7296,39.4692]},"properties":{"s":38.5,"pub":true}},{"type":"Feature","geometry":{"type":"Point","coordinates":[-105.7296,39.475]},"properties":{"s":38.5,"pub":true}},{"type":"Feature","geometry":{"type":"Point","coordinates":[-105.7296,39.4808]},"properties":{"s":38.5,"pub":true}},{"type":"Feature","geometry":{"type":"Point","coordinates":[-105.7296,39.4866]},"properties":{"s":38.5,"pub":true}},{"type":"Feature","geometry":{"type":"Point","coordinates":[-105.7296,39.4924]},"properties":{"s":38.5,"pub":true}},{"type":"Feature","geometry":{"type":"Point","coordinates":[-105.7296,39.4982]},"properties":{"s":35.9,"pub":true}},{"type":"Feature","geometry":{"type":"Point","coordinates":[-105.7296,39.504]},"properties":{"s":35.9,"pub":true}},{"type":"Feature","geometry":{"type":"Point","coordinates":[-105.7296,39.5098]},"properties":{"s":35.9,"pub":true}},{"type":"Feature","geometry":{"type":"Point","coordinates":[-105.7296,39.562]},"properties":{"s":46.2,"pub":true}},{"type":"Feature","geometry":{"type":"Point","coordinates":[-105.7296,39.5678]},"properties":{"s":46.2,"pub":true}},{"type":"Feature","geometry":{"type":"Point","coordinates":[-105.7296,39.5736]},"properties":{"s":46.2,"pub":true}},{"type":"Feature","geometry":{"type":"Point","coordinates":[-105.7221,39.4576]},"properties":{"s":17.9,"pub":true}},{"type":"Feature","geometry":{"type":"Point","coordinates":[-105.7221,39.4634]},"properties":{"s":38.5,"pub":true}},{"type":"Feature","geometry":{"type":"Point","coordinates":[-105.7221,39.4692]},"properties":{"s":38.5,"pub":true}},{"type":"Feature","geometry":{"type":"Point","coordinates":[-105.7221,39.475]},"properties":{"s":38.5,"pub":true}},{"type":"Feature","geometry":{"type":"Point","coordinates":[-105.7221,39.4808]},"properties":{"s":17.9,"pub":true}},{"type":"Feature","geometry":{"type":"Point","coordinates":[-105.7221,39.4866]},"properties":{"s":38.5,"pub":true}},{"type":"Feature","geometry":{"type":"Point","coordinates":[-105.7221,39.4924]},"properties":{"s":35.9,"pub":true}},{"type":"Feature","geometry":{"type":"Point","coordinates":[-105.7221,39.4982]},"properties":{"s":35.9,"pub":true}},{"type":"Feature","geometry":{"type":"Point","coordinates":[-105.7221,39.504]},"properties":{"s":35.9,"pub":true}},{"type":"Feature","geometry":{"type":"Point","coordinates":[-105.7146,39.4576]},"properties":{"s":17.9,"pub":true}},{"type":"Feature","geometry":{"type":"Point","coordinates":[-105.7146,39.4634]},"properties":{"s":38.5,"pub":true}},{"type":"Feature","geometry":{"type":"Point","coordinates":[-105.7146,39.4692]},"properties":{"s":38.5,"pub":true}},{"type":"Feature","geometry":{"type":"Point","coordinates":[-105.7146,39.475]},"properties":{"s":17.9,"pub":true}},{"type":"Feature","geometry":{"type":"Point","coordinates":[-105.7146,39.4808]},"properties":{"s":17.9,"pub":true}},{"type":"Feature","geometry":{"type":"Point","coordinates":[-105.7146,39.4866]},"properties":{"s":17.9,"pub":true}},{"type":"Feature","geometry":{"type":"Point","coordinates":[-105.7146,39.4982]},"properties":{"s":35.9,"pub":true}},{"type":"Feature","geometry":{"type":"Point","coordinates":[-105.7146,39.504]},"properties":{"s":35.9,"pub":true}},{"type":"Feature","geometry":{"type":"Point","coordinates":[-105.7071,39.4634]},"properties":{"s":17.9,"pub":true}},{"type":"Feature","geometry":{"type":"Point","coordinates":[-105.7071,39.4692]},"properties":{"s":17.9,"pub":true}},{"type":"Feature","geometry":{"type":"Point","coordinates":[-105.7071,39.475]},"properties":{"s":17.9,"pub":true}},{"type":"Feature","geometry":{"type":"Point","coordinates":[-105.7071,39.4808]},"properties":{"s":17.9,"pub":true}},{"type":"Feature","geometry":{"type":"Point","coordinates":[-105.6996,39.4634]},"properties":{"s":17.9,"pub":true}},{"type":"Feature","geometry":{"type":"Point","coordinates":[-105.6996,39.4692]},"properties":{"s":17.9,"pub":true}},{"type":"Feature","geometry":{"type":"Point","coordinates":[-105.6996,39.475]},"properties":{"s":17.9,"pub":true}},{"type":"Feature","geometry":{"type":"Point","coordinates":[-105.6996,39.4808]},"properties":{"s":17.9,"pub":true}},{"type":"Feature","geometry":{"type":"Point","coordinates":[-105.6921,39.4634]},"properties":{"s":17.9,"pub":true}},{"type":"Feature","geometry":{"type":"Point","coordinates":[-105.6921,39.4692]},"properties":{"s":17.9,"pub":true}},{"type":"Feature","geometry":{"type":"Point","coordinates":[-105.6921,39.475]},"properties":{"s":17.9,"pub":true}},{"type":"Feature","geometry":{"type":"Point","coordinates":[-105.6846,39.4634]},"properties":{"s":17.9,"pub":true}},{"type":"Feature","geometry":{"type":"Point","coordinates":[-105.6846,39.4692]},"properties":{"s":17.9,"pub":true}},{"type":"Feature","geometry":{"type":"Point","coordinates":[-105.6771,39.4634]},"properties":{"s":17.9,"pub":true}},{"type":"Feature","geometry":{"type":"Point","coordinates":[-105.6771,39.6084]},"properties":{"s":46.2,"pub":true}},{"type":"Feature","geometry":{"type":"Point","coordinates":[-105.6696,39.5272]},"properties":{"s":46.2,"pub":true}},{"type":"Feature","geometry":{"type":"Point","coordinates":[-105.6696,39.5388]},"properties":{"s":46.2,"pub":true}},{"type":"Feature","geometry":{"type":"Point","coordinates":[-105.6696,39.6026]},"properties":{"s":46.2,"pub":true}},{"type":"Feature","geometry":{"type":"Point","coordinates":[-105.6696,39.6084]},"properties":{"s":46.2,"pub":true}},{"type":"Feature","geometry":{"type":"Point","coordinates":[-105.6696,39.6142]},"properties":{"s":46.2,"pub":true}},{"type":"Feature","geometry":{"type":"Point","coordinates":[-105.6621,39.5272]},"properties":{"s":46.2,"pub":true}},{"type":"Feature","geometry":{"type":"Point","coordinates":[-105.6621,39.533]},"properties":{"s":46.2,"pub":true}},{"type":"Feature","geometry":{"type":"Point","coordinates":[-105.6621,39.5388]},"properties":{"s":46.2,"pub":true}},{"type":"Feature","geometry":{"type":"Point","coordinates":[-105.6621,39.6026]},"properties":{"s":46.2,"pub":true}},{"type":"Feature","geometry":{"type":"Point","coordinates":[-105.6621,39.6084]},"properties":{"s":46.2,"pub":true}},{"type":"Feature","geometry":{"type":"Point","coordinates":[-105.6621,39.6142]},"properties":{"s":46.2,"pub":true}},{"type":"Feature","geometry":{"type":"Point","coordinates":[-105.6546,39.5272]},"properties":{"s":46.2,"pub":true}},{"type":"Feature","geometry":{"type":"Point","coordinates":[-105.6546,39.533]},"properties":{"s":46.2,"pub":true}},{"type":"Feature","geometry":{"type":"Point","coordinates":[-105.6546,39.5388]},"properties":{"s":46.2,"pub":true}},{"type":"Feature","geometry":{"type":"Point","coordinates":[-105.6471,39.475]},"properties":{"s":35.9,"pub":true}},{"type":"Feature","geometry":{"type":"Point","coordinates":[-105.6471,39.4808]},"properties":{"s":35.9,"pub":true}},{"type":"Feature","geometry":{"type":"Point","coordinates":[-105.6471,39.4866]},"properties":{"s":35.9,"pub":true}},{"type":"Feature","geometry":{"type":"Point","coordinates":[-105.6471,39.5272]},"properties":{"s":46.2,"pub":true}},{"type":"Feature","geometry":{"type":"Point","coordinates":[-105.6471,39.533]},"properties":{"s":46.2,"pub":true}},{"type":"Feature","geometry":{"type":"Point","coordinates":[-105.6471,39.5388]},"properties":{"s":46.2,"pub":true}},{"type":"Feature","geometry":{"type":"Point","coordinates":[-105.6396,39.475]},"properties":{"s":35.9,"pub":true}},{"type":"Feature","geometry":{"type":"Point","coordinates":[-105.6396,39.4808]},"properties":{"s":35.9,"pub":true}},{"type":"Feature","geometry":{"type":"Point","coordinates":[-105.6396,39.4866]},"properties":{"s":35.9,"pub":true}},{"type":"Feature","geometry":{"type":"Point","coordinates":[-105.6396,39.5156]},"properties":{"s":46.2,"pub":true}},{"type":"Feature","geometry":{"type":"Point","coordinates":[-105.6396,39.5214]},"properties":{"s":46.2,"pub":true}},{"type":"Feature","geometry":{"type":"Point","coordinates":[-105.6396,39.5272]},"properties":{"s":46.2,"pub":true}},{"type":"Feature","geometry":{"type":"Point","coordinates":[-105.6396,39.533]},"properties":{"s":46.2,"pub":true}},{"type":"Feature","geometry":{"type":"Point","coordinates":[-105.6321,39.475]},"properties":{"s":35.9,"pub":true}},{"type":"Feature","geometry":{"type":"Point","coordinates":[-105.6321,39.4808]},"properties":{"s":43.6,"pub":true}},{"type":"Feature","geometry":{"type":"Point","coordinates":[-105.6321,39.4866]},"properties":{"s":43.6,"pub":true}},{"type":"Feature","geometry":{"type":"Point","coordinates":[-105.6321,39.4924]},"properties":{"s":17.9,"pub":true}},{"type":"Feature","geometry":{"type":"Point","coordinates":[-105.6321,39.5156]},"properties":{"s":46.2,"pub":true}},{"type":"Feature","geometry":{"type":"Point","coordinates":[-105.6321,39.5214]},"properties":{"s":46.2,"pub":true}},{"type":"Feature","geometry":{"type":"Point","coordinates":[-105.6321,39.5272]},"properties":{"s":46.2,"pub":true}},{"type":"Feature","geometry":{"type":"Point","coordinates":[-105.6246,39.4692]},"properties":{"s":23.1,"pub":true}},{"type":"Feature","geometry":{"type":"Point","coordinates":[-105.6246,39.475]},"properties":{"s":43.6,"pub":true}},{"type":"Feature","geometry":{"type":"Point","coordinates":[-105.6246,39.4808]},"properties":{"s":43.6,"pub":true}},{"type":"Feature","geometry":{"type":"Point","coordinates":[-105.6246,39.4866]},"properties":{"s":43.6,"pub":true}},{"type":"Feature","geometry":{"type":"Point","coordinates":[-105.6246,39.4924]},"properties":{"s":17.9,"pub":true}},{"type":"Feature","geometry":{"type":"Point","coordinates":[-105.6246,39.5098]},"properties":{"s":46.2,"pub":true}},{"type":"Feature","geometry":{"type":"Point","coordinates":[-105.6246,39.5156]},"properties":{"s":46.2,"pub":true}},{"type":"Feature","geometry":{"type":"Point","coordinates":[-105.6246,39.5214]},"properties":{"s":46.2,"pub":true}},{"type":"Feature","geometry":{"type":"Point","coordinates":[-105.6171,39.4634]},"properties":{"s":23.1,"pub":true}},{"type":"Feature","geometry":{"type":"Point","coordinates":[-105.6171,39.4692]},"properties":{"s":23.1,"pub":true}},{"type":"Feature","geometry":{"type":"Point","coordinates":[-105.6171,39.475]},"properties":{"s":43.6,"pub":true}},{"type":"Feature","geometry":{"type":"Point","coordinates":[-105.6171,39.4808]},"properties":{"s":43.6,"pub":true}},{"type":"Feature","geometry":{"type":"Point","coordinates":[-105.6171,39.4866]},"properties":{"s":17.9,"pub":true}},{"type":"Feature","geometry":{"type":"Point","coordinates":[-105.6171,39.5098]},"properties":{"s":46.2,"pub":true}},{"type":"Feature","geometry":{"type":"Point","coordinates":[-105.6171,39.5156]},"properties":{"s":46.2,"pub":true}},{"type":"Feature","geometry":{"type":"Point","coordinates":[-105.6096,39.4634]},"properties":{"s":23.1,"pub":true}},{"type":"Feature","geometry":{"type":"Point","coordinates":[-105.6096,39.4692]},"properties":{"s":23.1,"pub":true}},{"type":"Feature","geometry":{"type":"Point","coordinates":[-105.6096,39.475]},"properties":{"s":43.6,"pub":true}},{"type":"Feature","geometry":{"type":"Point","coordinates":[-105.6096,39.4808]},"properties":{"s":23.1,"pub":true}},{"type":"Feature","geometry":{"type":"Point","coordinates":[-105.6096,39.5098]},"properties":{"s":46.2,"pub":true}},{"type":"Feature","geometry":{"type":"Point","coordinates":[-105.6021,39.4576]},"properties":{"s":23.1,"pub":false}},{"type":"Feature","geometry":{"type":"Point","coordinates":[-105.6021,39.4634]},"properties":{"s":23.1,"pub":true}},{"type":"Feature","geometry":{"type":"Point","coordinates":[-105.6021,39.4692]},"properties":{"s":23.1,"pub":true}},{"type":"Feature","geometry":{"type":"Point","coordinates":[-105.6021,39.475]},"properties":{"s":17.9,"pub":true}},{"type":"Feature","geometry":{"type":"Point","coordinates":[-105.6021,39.4808]},"properties":{"s":17.9,"pub":true}},{"type":"Feature","geometry":{"type":"Point","coordinates":[-105.5946,39.4402]},"properties":{"s":17.9,"pub":false}},{"type":"Feature","geometry":{"type":"Point","coordinates":[-105.5946,39.446]},"properties":{"s":23.1,"pub":true}},{"type":"Feature","geometry":{"type":"Point","coordinates":[-105.5946,39.4518]},"properties":{"s":23.1,"pub":false}},{"type":"Feature","geometry":{"type":"Point","coordinates":[-105.5946,39.4576]},"properties":{"s":23.1,"pub":true}},{"type":"Feature","geometry":{"type":"Point","coordinates":[-105.5946,39.4634]},"properties":{"s":23.1,"pub":true}},{"type":"Feature","geometry":{"type":"Point","coordinates":[-105.5946,39.4692]},"properties":{"s":17.9,"pub":true}},{"type":"Feature","geometry":{"type":"Point","coordinates":[-105.5946,39.475]},"properties":{"s":17.9,"pub":true}},{"type":"Feature","geometry":{"type":"Point","coordinates":[-105.5946,39.4808]},"properties":{"s":17.9,"pub":true}},{"type":"Feature","geometry":{"type":"Point","coordinates":[-105.5871,39.4402]},"properties":{"s":23.1,"pub":false}},{"type":"Feature","geometry":{"type":"Point","coordinates":[-105.5871,39.446]},"properties":{"s":23.1,"pub":true}},{"type":"Feature","geometry":{"type":"Point","coordinates":[-105.5871,39.4518]},"properties":{"s":23.1,"pub":false}},{"type":"Feature","geometry":{"type":"Point","coordinates":[-105.5871,39.4576]},"properties":{"s":23.1,"pub":true}},{"type":"Feature","geometry":{"type":"Point","coordinates":[-105.5871,39.4634]},"properties":{"s":17.9,"pub":true}},{"type":"Feature","geometry":{"type":"Point","coordinates":[-105.5871,39.4692]},"properties":{"s":17.9,"pub":true}},{"type":"Feature","geometry":{"type":"Point","coordinates":[-105.5871,39.475]},"properties":{"s":17.9,"pub":true}},{"type":"Feature","geometry":{"type":"Point","coordinates":[-105.5871,39.4808]},"properties":{"s":17.9,"pub":true}},{"type":"Feature","geometry":{"type":"Point","coordinates":[-105.5871,39.4866]},"properties":{"s":17.9,"pub":true}},{"type":"Feature","geometry":{"type":"Point","coordinates":[-105.5871,39.4924]},"properties":{"s":17.9,"pub":true}},{"type":"Feature","geometry":{"type":"Point","coordinates":[-105.5871,39.4982]},"properties":{"s":17.9,"pub":true}},{"type":"Feature","geometry":{"type":"Point","coordinates":[-105.5796,39.4344]},"properties":{"s":38.5,"pub":false}},{"type":"Feature","geometry":{"type":"Point","coordinates":[-105.5796,39.4402]},"properties":{"s":23.1,"pub":true}},{"type":"Feature","geometry":{"type":"Point","coordinates":[-105.5796,39.446]},"properties":{"s":23.1,"pub":true}},{"type":"Feature","geometry":{"type":"Point","coordinates":[-105.5796,39.4518]},"properties":{"s":23.1,"pub":true}},{"type":"Feature","geometry":{"type":"Point","coordinates":[-105.5796,39.4576]},"properties":{"s":23.1,"pub":true}},{"type":"Feature","geometry":{"type":"Point","coordinates":[-105.5796,39.4634]},"properties":{"s":23.1,"pub":true}},{"type":"Feature","geometry":{"type":"Point","coordinates":[-105.5796,39.4692]},"properties":{"s":23.1,"pub":true}},{"type":"Feature","geometry":{"type":"Point","coordinates":[-105.5796,39.475]},"properties":{"s":17.9,"pub":true}},{"type":"Feature","geometry":{"type":"Point","coordinates":[-105.5796,39.4808]},"properties":{"s":17.9,"pub":true}},{"type":"Feature","geometry":{"type":"Point","coordinates":[-105.5796,39.4866]},"properties":{"s":17.9,"pub":true}},{"type":"Feature","geometry":{"type":"Point","coordinates":[-105.5796,39.4924]},"properties":{"s":17.9,"pub":true}},{"type":"Feature","geometry":{"type":"Point","coordinates":[-105.5796,39.4982]},"properties":{"s":17.9,"pub":true}},{"type":"Feature","geometry":{"type":"Point","coordinates":[-105.5721,39.4344]},"properties":{"s":43.6,"pub":true}},{"type":"Feature","geometry":{"type":"Point","coordinates":[-105.5721,39.4402]},"properties":{"s":23.1,"pub":true}},{"type":"Feature","geometry":{"type":"Point","coordinates":[-105.5721,39.446]},"properties":{"s":23.1,"pub":true}},{"type":"Feature","geometry":{"type":"Point","coordinates":[-105.5721,39.4518]},"properties":{"s":23.1,"pub":true}},{"type":"Feature","geometry":{"type":"Point","coordinates":[-105.5721,39.4576]},"properties":{"s":23.1,"pub":true}},{"type":"Feature","geometry":{"type":"Point","coordinates":[-105.5721,39.4634]},"properties":{"s":23.1,"pub":true}},{"type":"Feature","geometry":{"type":"Point","coordinates":[-105.5721,39.4692]},"properties":{"s":17.9,"pub":true}},{"type":"Feature","geometry":{"type":"Point","coordinates":[-105.5721,39.475]},"properties":{"s":17.9,"pub":true}},{"type":"Feature","geometry":{"type":"Point","coordinates":[-105.5721,39.4808]},"properties":{"s":17.9,"pub":true}},{"type":"Feature","geometry":{"type":"Point","coordinates":[-105.5721,39.4866]},"properties":{"s":17.9,"pub":true}},{"type":"Feature","geometry":{"type":"Point","coordinates":[-105.5721,39.4924]},"properties":{"s":17.9,"pub":true}},{"type":"Feature","geometry":{"type":"Point","coordinates":[-105.5721,39.4982]},"properties":{"s":17.9,"pub":true}},{"type":"Feature","geometry":{"type":"Point","coordinates":[-105.5721,39.5272]},"properties":{"s":17.9,"pub":true}},{"type":"Feature","geometry":{"type":"Point","coordinates":[-105.5721,39.533]},"properties":{"s":17.9,"pub":true}},{"type":"Feature","geometry":{"type":"Point","coordinates":[-105.5646,39.4286]},"properties":{"s":38.5,"pub":false}},{"type":"Feature","geometry":{"type":"Point","coordinates":[-105.5646,39.4344]},"properties":{"s":23.1,"pub":false}},{"type":"Feature","geometry":{"type":"Point","coordinates":[-105.5646,39.4402]},"properties":{"s":23.1,"pub":false}},{"type":"Feature","geometry":{"type":"Point","coordinates":[-105.5646,39.446]},"properties":{"s":23.1,"pub":true}},{"type":"Feature","geometry":{"type":"Point","coordinates":[-105.5646,39.4518]},"properties":{"s":23.1,"pub":true}},{"type":"Feature","geometry":{"type":"Point","coordinates":[-105.5646,39.4576]},"properties":{"s":23.1,"pub":true}},{"type":"Feature","geometry":{"type":"Point","coordinates":[-105.5646,39.4634]},"properties":{"s":17.9,"pub":true}},{"type":"Feature","geometry":{"type":"Point","coordinates":[-105.5646,39.4692]},"properties":{"s":17.9,"pub":true}},{"type":"Feature","geometry":{"type":"Point","coordinates":[-105.5646,39.475]},"properties":{"s":17.9,"pub":true}},{"type":"Feature","geometry":{"type":"Point","coordinates":[-105.5646,39.4808]},"properties":{"s":17.9,"pub":true}},{"type":"Feature","geometry":{"type":"Point","coordinates":[-105.5646,39.4866]},"properties":{"s":17.9,"pub":true}},{"type":"Feature","geometry":{"type":"Point","coordinates":[-105.5646,39.4924]},"properties":{"s":17.9,"pub":true}},{"type":"Feature","geometry":{"type":"Point","coordinates":[-105.5646,39.4982]},"properties":{"s":17.9,"pub":true}},{"type":"Feature","geometry":{"type":"Point","coordinates":[-105.5646,39.5214]},"properties":{"s":17.9,"pub":true}},{"type":"Feature","geometry":{"type":"Point","coordinates":[-105.5646,39.5272]},"properties":{"s":17.9,"pub":true}},{"type":"Feature","geometry":{"type":"Point","coordinates":[-105.5646,39.533]},"properties":{"s":17.9,"pub":true}},{"type":"Feature","geometry":{"type":"Point","coordinates":[-105.5571,39.4286]},"properties":{"s":38.5,"pub":false}},{"type":"Feature","geometry":{"type":"Point","coordinates":[-105.5571,39.4344]},"properties":{"s":23.1,"pub":false}},{"type":"Feature","geometry":{"type":"Point","coordinates":[-105.5571,39.4402]},"properties":{"s":23.1,"pub":false}},{"type":"Feature","geometry":{"type":"Point","coordinates":[-105.5571,39.446]},"properties":{"s":23.1,"pub":true}},{"type":"Feature","geometry":{"type":"Point","coordinates":[-105.5571,39.4518]},"properties":{"s":23.1,"pub":true}},{"type":"Feature","geometry":{"type":"Point","coordinates":[-105.5571,39.4576]},"properties":{"s":23.1,"pub":true}},{"type":"Feature","geometry":{"type":"Point","coordinates":[-105.5571,39.4634]},"properties":{"s":17.9,"pub":true}},{"type":"Feature","geometry":{"type":"Point","coordinates":[-105.5571,39.4692]},"properties":{"s":17.9,"pub":true}},{"type":"Feature","geometry":{"type":"Point","coordinates":[-105.5571,39.475]},"properties":{"s":17.9,"pub":true}},{"type":"Feature","geometry":{"type":"Point","coordinates":[-105.5571,39.4808]},"properties":{"s":17.9,"pub":true}},{"type":"Feature","geometry":{"type":"Point","coordinates":[-105.5571,39.4866]},"properties":{"s":17.9,"pub":true}},{"type":"Feature","geometry":{"type":"Point","coordinates":[-105.5571,39.4924]},"properties":{"s":17.9,"pub":true}},{"type":"Feature","geometry":{"type":"Point","coordinates":[-105.5571,39.4982]},"properties":{"s":17.9,"pub":true}},{"type":"Feature","geometry":{"type":"Point","coordinates":[-105.5571,39.5156]},"properties":{"s":17.9,"pub":true}},{"type":"Feature","geometry":{"type":"Point","coordinates":[-105.5571,39.5214]},"properties":{"s":17.9,"pub":true}},{"type":"Feature","geometry":{"type":"Point","coordinates":[-105.5571,39.5272]},"properties":{"s":17.9,"pub":true}},{"type":"Feature","geometry":{"type":"Point","coordinates":[-105.5571,39.533]},"properties":{"s":17.9,"pub":true}},{"type":"Feature","geometry":{"type":"Point","coordinates":[-105.5496,39.4228]},"properties":{"s":38.5,"pub":false}},{"type":"Feature","geometry":{"type":"Point","coordinates":[-105.5496,39.4286]},"properties":{"s":23.1,"pub":false}},{"type":"Feature","geometry":{"type":"Point","coordinates":[-105.5496,39.4344]},"properties":{"s":23.1,"pub":false}},{"type":"Feature","geometry":{"type":"Point","coordinates":[-105.5496,39.4402]},"properties":{"s":23.1,"pub":false}},{"type":"Feature","geometry":{"type":"Point","coordinates":[-105.5496,39.446]},"properties":{"s":23.1,"pub":true}},{"type":"Feature","geometry":{"type":"Point","coordinates":[-105.5496,39.4518]},"properties":{"s":23.1,"pub":true}},{"type":"Feature","geometry":{"type":"Point","coordinates":[-105.5496,39.4576]},"properties":{"s":23.1,"pub":true}},{"type":"Feature","geometry":{"type":"Point","coordinates":[-105.5496,39.4634]},"properties":{"s":17.9,"pub":true}},{"type":"Feature","geometry":{"type":"Point","coordinates":[-105.5496,39.4692]},"properties":{"s":17.9,"pub":true}},{"type":"Feature","geometry":{"type":"Point","coordinates":[-105.5496,39.475]},"properties":{"s":17.9,"pub":true}},{"type":"Feature","geometry":{"type":"Point","coordinates":[-105.5496,39.4808]},"properties":{"s":17.9,"pub":true}},{"type":"Feature","geometry":{"type":"Point","coordinates":[-105.5496,39.4866]},"properties":{"s":17.9,"pub":true}},{"type":"Feature","geometry":{"type":"Point","coordinates":[-105.5496,39.4924]},"properties":{"s":17.9,"pub":true}},{"type":"Feature","geometry":{"type":"Point","coordinates":[-105.5496,39.4982]},"properties":{"s":17.9,"pub":false}},{"type":"Feature","geometry":{"type":"Point","coordinates":[-105.5496,39.5098]},"properties":{"s":17.9,"pub":true}},{"type":"Feature","geometry":{"type":"Point","coordinates":[-105.5496,39.5156]},"properties":{"s":17.9,"pub":true}},{"type":"Feature","geometry":{"type":"Point","coordinates":[-105.5496,39.5214]},"properties":{"s":17.9,"pub":true}},{"type":"Feature","geometry":{"type":"Point","coordinates":[-105.5496,39.5272]},"properties":{"s":17.9,"pub":true}},{"type":"Feature","geometry":{"type":"Point","coordinates":[-105.5496,39.533]},"properties":{"s":17.9,"pub":true}},{"type":"Feature","geometry":{"type":"Point","coordinates":[-105.5496,39.5504]},"properties":{"s":35.9,"pub":true}},{"type":"Feature","geometry":{"type":"Point","coordinates":[-105.5421,39.4228]},"properties":{"s":38.5,"pub":false}},{"type":"Feature","geometry":{"type":"Point","coordinates":[-105.5421,39.4286]},"properties":{"s":23.1,"pub":false}},{"type":"Feature","geometry":{"type":"Point","coordinates":[-105.5421,39.4344]},"properties":{"s":23.1,"pub":true}},{"type":"Feature","geometry":{"type":"Point","coordinates":[-105.5421,39.4402]},"properties":{"s":23.1,"pub":false}},{"type":"Feature","geometry":{"type":"Point","coordinates":[-105.5421,39.446]},"properties":{"s":23.1,"pub":true}},{"type":"Feature","geometry":{"type":"Point","coordinates":[-105.5421,39.4518]},"properties":{"s":23.1,"pub":true}},{"type":"Feature","geometry":{"type":"Point","coordinates":[-105.5421,39.4576]},"properties":{"s":23.1,"pub":true}},{"type":"Feature","geometry":{"type":"Point","coordinates":[-105.5421,39.4634]},"properties":{"s":17.9,"pub":true}},{"type":"Feature","geometry":{"type":"Point","coordinates":[-105.5421,39.4692]},"properties":{"s":17.9,"pub":true}},{"type":"Feature","geometry":{"type":"Point","coordinates":[-105.5421,39.475]},"properties":{"s":17.9,"pub":true}},{"type":"Feature","geometry":{"type":"Point","coordinates":[-105.5421,39.4808]},"properties":{"s":17.9,"pub":true}},{"type":"Feature","geometry":{"type":"Point","coordinates":[-105.5421,39.4866]},"properties":{"s":17.9,"pub":true}},{"type":"Feature","geometry":{"type":"Point","coordinates":[-105.5421,39.4924]},"properties":{"s":17.9,"pub":true}},{"type":"Feature","geometry":{"type":"Point","coordinates":[-105.5421,39.4982]},"properties":{"s":17.9,"pub":false}},{"type":"Feature","geometry":{"type":"Point","coordinates":[-105.5421,39.504]},"properties":{"s":17.9,"pub":false}},{"type":"Feature","geometry":{"type":"Point","coordinates":[-105.5421,39.5098]},"properties":{"s":17.9,"pub":true}},{"type":"Feature","geometry":{"type":"Point","coordinates":[-105.5421,39.5156]},"properties":{"s":17.9,"pub":true}},{"type":"Feature","geometry":{"type":"Point","coordinates":[-105.5421,39.5214]},"properties":{"s":17.9,"pub":true}},{"type":"Feature","geometry":{"type":"Point","coordinates":[-105.5421,39.5272]},"properties":{"s":17.9,"pub":true}},{"type":"Feature","geometry":{"type":"Point","coordinates":[-105.5421,39.533]},"properties":{"s":17.9,"pub":true}},{"type":"Feature","geometry":{"type":"Point","coordinates":[-105.5421,39.5388]},"properties":{"s":35.9,"pub":true}},{"type":"Feature","geometry":{"type":"Point","coordinates":[-105.5421,39.5446]},"properties":{"s":35.9,"pub":true}},{"type":"Feature","geometry":{"type":"Point","coordinates":[-105.5421,39.5504]},"properties":{"s":35.9,"pub":true}},{"type":"Feature","geometry":{"type":"Point","coordinates":[-105.5346,39.4228]},"properties":{"s":38.5,"pub":false}},{"type":"Feature","geometry":{"type":"Point","coordinates":[-105.5346,39.4286]},"properties":{"s":23.1,"pub":true}},{"type":"Feature","geometry":{"type":"Point","coordinates":[-105.5346,39.4344]},"properties":{"s":23.1,"pub":true}},{"type":"Feature","geometry":{"type":"Point","coordinates":[-105.5346,39.4402]},"properties":{"s":23.1,"pub":true}},{"type":"Feature","geometry":{"type":"Point","coordinates":[-105.5346,39.446]},"properties":{"s":23.1,"pub":true}},{"type":"Feature","geometry":{"type":"Point","coordinates":[-105.5346,39.4518]},"properties":{"s":23.1,"pub":true}},{"type":"Feature","geometry":{"type":"Point","coordinates":[-105.5346,39.4576]},"properties":{"s":17.9,"pub":true}},{"type":"Feature","geometry":{"type":"Point","coordinates":[-105.5346,39.4634]},"properties":{"s":17.9,"pub":true}},{"type":"Feature","geometry":{"type":"Point","coordinates":[-105.5346,39.4692]},"properties":{"s":17.9,"pub":true}},{"type":"Feature","geometry":{"type":"Point","coordinates":[-105.5346,39.475]},"properties":{"s":17.9,"pub":true}},{"type":"Feature","geometry":{"type":"Point","coordinates":[-105.5346,39.4808]},"properties":{"s":17.9,"pub":true}},{"type":"Feature","geometry":{"type":"Point","coordinates":[-105.5346,39.4866]},"properties":{"s":17.9,"pub":true}},{"type":"Feature","geometry":{"type":"Point","coordinates":[-105.5346,39.4924]},"properties":{"s":17.9,"pub":true}},{"type":"Feature","geometry":{"type":"Point","coordinates":[-105.5346,39.4982]},"properties":{"s":17.9,"pub":true}},{"type":"Feature","geometry":{"type":"Point","coordinates":[-105.5346,39.504]},"properties":{"s":17.9,"pub":false}},{"type":"Feature","geometry":{"type":"Point","coordinates":[-105.5346,39.5098]},"properties":{"s":17.9,"pub":true}},{"type":"Feature","geometry":{"type":"Point","coordinates":[-105.5346,39.5156]},"properties":{"s":17.9,"pub":true}},{"type":"Feature","geometry":{"type":"Point","coordinates":[-105.5346,39.5214]},"properties":{"s":17.9,"pub":true}},{"type":"Feature","geometry":{"type":"Point","coordinates":[-105.5346,39.5272]},"properties":{"s":17.9,"pub":true}},{"type":"Feature","geometry":{"type":"Point","coordinates":[-105.5346,39.533]},"properties":{"s":17.9,"pub":true}},{"type":"Feature","geometry":{"type":"Point","coordinates":[-105.5346,39.5388]},"properties":{"s":38.5,"pub":true}},{"type":"Feature","geometry":{"type":"Point","coordinates":[-105.5346,39.5446]},"properties":{"s":35.9,"pub":true}},{"type":"Feature","geometry":{"type":"Point","coordinates":[-105.5346,39.5504]},"properties":{"s":35.9,"pub":true}},{"type":"Feature","geometry":{"type":"Point","coordinates":[-105.5346,39.5562]},"properties":{"s":35.9,"pub":true}},{"type":"Feature","geometry":{"type":"Point","coordinates":[-105.5271,39.4228]},"properties":{"s":23.1,"pub":false}},{"type":"Feature","geometry":{"type":"Point","coordinates":[-105.5271,39.4286]},"properties":{"s":23.1,"pub":true}},{"type":"Feature","geometry":{"type":"Point","coordinates":[-105.5271,39.4344]},"properties":{"s":23.1,"pub":true}},{"type":"Feature","geometry":{"type":"Point","coordinates":[-105.5271,39.4402]},"properties":{"s":23.1,"pub":true}},{"type":"Feature","geometry":{"type":"Point","coordinates":[-105.5271,39.446]},"properties":{"s":17.9,"pub":true}},{"type":"Feature","geometry":{"type":"Point","coordinates":[-105.5271,39.4518]},"properties":{"s":17.9,"pub":true}},{"type":"Feature","geometry":{"type":"Point","coordinates":[-105.5271,39.4576]},"properties":{"s":17.9,"pub":true}},{"type":"Feature","geometry":{"type":"Point","coordinates":[-105.5271,39.4634]},"properties":{"s":17.9,"pub":true}},{"type":"Feature","geometry":{"type":"Point","coordinates":[-105.5271,39.4692]},"properties":{"s":17.9,"pub":true}},{"type":"Feature","geometry":{"type":"Point","coordinates":[-105.5271,39.475]},"properties":{"s":17.9,"pub":false}},{"type":"Feature","geometry":{"type":"Point","coordinates":[-105.5271,39.4808]},"properties":{"s":17.9,"pub":false}},{"type":"Feature","geometry":{"type":"Point","coordinates":[-105.5271,39.4866]},"properties":{"s":17.9,"pub":false}},{"type":"Feature","geometry":{"type":"Point","coordinates":[-105.5271,39.4924]},"properties":{"s":17.9,"pub":false}},{"type":"Feature","geometry":{"type":"Point","coordinates":[-105.5271,39.4982]},"properties":{"s":17.9,"pub":false}},{"type":"Feature","geometry":{"type":"Point","coordinates":[-105.5271,39.504]},"properties":{"s":17.9,"pub":false}},{"type":"Feature","geometry":{"type":"Point","coordinates":[-105.5271,39.5098]},"properties":{"s":17.9,"pub":false}},{"type":"Feature","geometry":{"type":"Point","coordinates":[-105.5271,39.5156]},"properties":{"s":17.9,"pub":false}},{"type":"Feature","geometry":{"type":"Point","coordinates":[-105.5271,39.5214]},"properties":{"s":17.9,"pub":true}},{"type":"Feature","geometry":{"type":"Point","coordinates":[-105.5271,39.5272]},"properties":{"s":17.9,"pub":true}},{"type":"Feature","geometry":{"type":"Point","coordinates":[-105.5271,39.533]},"properties":{"s":17.9,"pub":true}},{"type":"Feature","geometry":{"type":"Point","coordinates":[-105.5271,39.5388]},"properties":{"s":38.5,"pub":true}},{"type":"Feature","geometry":{"type":"Point","coordinates":[-105.5271,39.5446]},"properties":{"s":35.9,"pub":true}},{"type":"Feature","geometry":{"type":"Point","coordinates":[-105.5271,39.5504]},"properties":{"s":35.9,"pub":true}},{"type":"Feature","geometry":{"type":"Point","coordinates":[-105.5196,39.417]},"properties":{"s":23.1,"pub":false}},{"type":"Feature","geometry":{"type":"Point","coordinates":[-105.5196,39.4228]},"properties":{"s":23.1,"pub":false}},{"type":"Feature","geometry":{"type":"Point","coordinates":[-105.5196,39.4286]},"properties":{"s":23.1,"pub":true}},{"type":"Feature","geometry":{"type":"Point","coordinates":[-105.5196,39.4344]},"properties":{"s":23.1,"pub":true}},{"type":"Feature","geometry":{"type":"Point","coordinates":[-105.5196,39.4402]},"properties":{"s":17.9,"pub":true}},{"type":"Feature","geometry":{"type":"Point","coordinates":[-105.5196,39.446]},"properties":{"s":17.9,"pub":true}},{"type":"Feature","geometry":{"type":"Point","coordinates":[-105.5196,39.4518]},"properties":{"s":17.9,"pub":true}},{"type":"Feature","geometry":{"type":"Point","coordinates":[-105.5196,39.4576]},"properties":{"s":17.9,"pub":true}},{"type":"Feature","geometry":{"type":"Point","coordinates":[-105.5196,39.4634]},"properties":{"s":17.9,"pub":true}},{"type":"Feature","geometry":{"type":"Point","coordinates":[-105.5196,39.4692]},"properties":{"s":17.9,"pub":true}},{"type":"Feature","geometry":{"type":"Point","coordinates":[-105.5196,39.475]},"properties":{"s":17.9,"pub":false}},{"type":"Feature","geometry":{"type":"Point","coordinates":[-105.5196,39.4808]},"properties":{"s":17.9,"pub":false}},{"type":"Feature","geometry":{"type":"Point","coordinates":[-105.5196,39.4866]},"properties":{"s":17.9,"pub":false}},{"type":"Feature","geometry":{"type":"Point","coordinates":[-105.5196,39.4924]},"properties":{"s":17.9,"pub":false}},{"type":"Feature","geometry":{"type":"Point","coordinates":[-105.5196,39.4982]},"properties":{"s":17.9,"pub":false}},{"type":"Feature","geometry":{"type":"Point","coordinates":[-105.5196,39.504]},"properties":{"s":17.9,"pub":false}},{"type":"Feature","geometry":{"type":"Point","coordinates":[-105.5196,39.5098]},"properties":{"s":17.9,"pub":false}},{"type":"Feature","geometry":{"type":"Point","coordinates":[-105.5196,39.5156]},"properties":{"s":17.9,"pub":false}},{"type":"Feature","geometry":{"type":"Point","coordinates":[-105.5196,39.5214]},"properties":{"s":17.9,"pub":true}},{"type":"Feature","geometry":{"type":"Point","coordinates":[-105.5196,39.5272]},"properties":{"s":17.9,"pub":true}},{"type":"Feature","geometry":{"type":"Point","coordinates":[-105.5196,39.533]},"properties":{"s":17.9,"pub":true}},{"type":"Feature","geometry":{"type":"Point","coordinates":[-105.5196,39.5388]},"properties":{"s":17.9,"pub":true}},{"type":"Feature","geometry":{"type":"Point","coordinates":[-105.5196,39.5446]},"properties":{"s":35.9,"pub":true}},{"type":"Feature","geometry":{"type":"Point","coordinates":[-105.5196,39.5504]},"properties":{"s":35.9,"pub":true}},{"type":"Feature","geometry":{"type":"Point","coordinates":[-105.5121,39.417]},"properties":{"s":23.1,"pub":false}},{"type":"Feature","geometry":{"type":"Point","coordinates":[-105.5121,39.4228]},"properties":{"s":23.1,"pub":false}},{"type":"Feature","geometry":{"type":"Point","coordinates":[-105.5121,39.4286]},"properties":{"s":17.9,"pub":true}},{"type":"Feature","geometry":{"type":"Point","coordinates":[-105.5121,39.4344]},"properties":{"s":17.9,"pub":true}},{"type":"Feature","geometry":{"type":"Point","coordinates":[-105.5121,39.4402]},"properties":{"s":17.9,"pub":true}},{"type":"Feature","geometry":{"type":"Point","coordinates":[-105.5121,39.446]},"properties":{"s":17.9,"pub":true}},{"type":"Feature","geometry":{"type":"Point","coordinates":[-105.5121,39.4518]},"properties":{"s":17.9,"pub":true}},{"type":"Feature","geometry":{"type":"Point","coordinates":[-105.5121,39.4576]},"properties":{"s":17.9,"pub":true}},{"type":"Feature","geometry":{"type":"Point","coordinates":[-105.5121,39.4634]},"properties":{"s":17.9,"pub":true}},{"type":"Feature","geometry":{"type":"Point","coordinates":[-105.5121,39.4692]},"properties":{"s":38.5,"pub":true}},{"type":"Feature","geometry":{"type":"Point","coordinates":[-105.5121,39.475]},"properties":{"s":43.6,"pub":true}},{"type":"Feature","geometry":{"type":"Point","coordinates":[-105.5121,39.4808]},"properties":{"s":17.9,"pub":true}},{"type":"Feature","geometry":{"type":"Point","coordinates":[-105.5121,39.4866]},"properties":{"s":17.9,"pub":false}},{"type":"Feature","geometry":{"type":"Point","coordinates":[-105.5121,39.4924]},"properties":{"s":17.9,"pub":false}},{"type":"Feature","geometry":{"type":"Point","coordinates":[-105.5121,39.4982]},"properties":{"s":17.9,"pub":false}},{"type":"Feature","geometry":{"type":"Point","coordinates":[-105.5121,39.504]},"properties":{"s":17.9,"pub":false}},{"type":"Feature","geometry":{"type":"Point","coordinates":[-105.5121,39.5098]},"properties":{"s":17.9,"pub":false}},{"type":"Feature","geometry":{"type":"Point","coordinates":[-105.5121,39.5156]},"properties":{"s":17.9,"pub":false}},{"type":"Feature","geometry":{"type":"Point","coordinates":[-105.5121,39.5214]},"properties":{"s":17.9,"pub":true}},{"type":"Feature","geometry":{"type":"Point","coordinates":[-105.5121,39.5272]},"properties":{"s":17.9,"pub":true}},{"type":"Feature","geometry":{"type":"Point","coordinates":[-105.5121,39.533]},"properties":{"s":17.9,"pub":true}},{"type":"Feature","geometry":{"type":"Point","coordinates":[-105.5121,39.5388]},"properties":{"s":38.5,"pub":true}},{"type":"Feature","geometry":{"type":"Point","coordinates":[-105.5121,39.5446]},"properties":{"s":35.9,"pub":true}},{"type":"Feature","geometry":{"type":"Point","coordinates":[-105.5046,39.417]},"properties":{"s":17.9,"pub":true}},{"type":"Feature","geometry":{"type":"Point","coordinates":[-105.5046,39.4228]},"properties":{"s":17.9,"pub":true}},{"type":"Feature","geometry":{"type":"Point","coordinates":[-105.5046,39.4286]},"properties":{"s":17.9,"pub":true}},{"type":"Feature","geometry":{"type":"Point","coordinates":[-105.5046,39.4344]},"properties":{"s":17.9,"pub":true}},{"type":"Feature","geometry":{"type":"Point","coordinates":[-105.5046,39.4402]},"properties":{"s":17.9,"pub":true}},{"type":"Feature","geometry":{"type":"Point","coordinates":[-105.5046,39.446]},"properties":{"s":17.9,"pub":true}},{"type":"Feature","geometry":{"type":"Point","coordinates":[-105.5046,39.4518]},"properties":{"s":17.9,"pub":true}},{"type":"Feature","geometry":{"type":"Point","coordinates":[-105.5046,39.4576]},"properties":{"s":17.9,"pub":true}},{"type":"Feature","geometry":{"type":"Point","coordinates":[-105.5046,39.4634]},"properties":{"s":38.5,"pub":true}},{"type":"Feature","geometry":{"type":"Point","coordinates":[-105.5046,39.4692]},"properties":{"s":43.6,"pub":true}},{"type":"Feature","geometry":{"type":"Point","coordinates":[-105.5046,39.475]},"properties":{"s":43.6,"pub":true}},{"type":"Feature","geometry":{"type":"Point","coordinates":[-105.5046,39.4808]},"properties":{"s":38.5,"pub":true}},{"type":"Feature","geometry":{"type":"Point","coordinates":[-105.5046,39.4866]},"properties":{"s":17.9,"pub":false}},{"type":"Feature","geometry":{"type":"Point","coordinates":[-105.5046,39.4924]},"properties":{"s":17.9,"pub":false}},{"type":"Feature","geometry":{"type":"Point","coordinates":[-105.5046,39.4982]},"properties":{"s":17.9,"pub":false}},{"type":"Feature","geometry":{"type":"Point","coordinates":[-105.5046,39.504]},"properties":{"s":17.9,"pub":false}},{"type":"Feature","geometry":{"type":"Point","coordinates":[-105.5046,39.5098]},"properties":{"s":17.9,"pub":false}},{"type":"Feature","geometry":{"type":"Point","coordinates":[-105.5046,39.5156]},"properties":{"s":17.9,"pub":false}},{"type":"Feature","geometry":{"type":"Point","coordinates":[-105.5046,39.5214]},"properties":{"s":17.9,"pub":true}},{"type":"Feature","geometry":{"type":"Point","coordinates":[-105.5046,39.5272]},"properties":{"s":17.9,"pub":true}},{"type":"Feature","geometry":{"type":"Point","coordinates":[-105.5046,39.533]},"properties":{"s":17.9,"pub":true}},{"type":"Feature","geometry":{"type":"Point","coordinates":[-105.5046,39.5388]},"properties":{"s":38.5,"pub":true}},{"type":"Feature","geometry":{"type":"Point","coordinates":[-105.5046,39.5446]},"properties":{"s":35.9,"pub":true}},{"type":"Feature","geometry":{"type":"Point","coordinates":[-105.4971,39.4112]},"properties":{"s":17.9,"pub":false}},{"type":"Feature","geometry":{"type":"Point","coordinates":[-105.4971,39.417]},"properties":{"s":17.9,"pub":true}},{"type":"Feature","geometry":{"type":"Point","coordinates":[-105.4971,39.4228]},"properties":{"s":17.9,"pub":true}},{"type":"Feature","geometry":{"type":"Point","coordinates":[-105.4971,39.4286]},"properties":{"s":17.9,"pub":true}},{"type":"Feature","geometry":{"type":"Point","coordinates":[-105.4971,39.4344]},"properties":{"s":17.9,"pub":true}},{"type":"Feature","geometry":{"type":"Point","coordinates":[-105.4971,39.4402]},"properties":{"s":17.9,"pub":false}},{"type":"Feature","geometry":{"type":"Point","coordinates":[-105.4971,39.446]},"properties":{"s":17.9,"pub":true}},{"type":"Feature","geometry":{"type":"Point","coordinates":[-105.4971,39.4518]},"properties":{"s":17.9,"pub":true}},{"type":"Feature","geometry":{"type":"Point","coordinates":[-105.4971,39.4576]},"properties":{"s":43.6,"pub":true}},{"type":"Feature","geometry":{"type":"Point","coordinates":[-105.4971,39.4634]},"properties":{"s":43.6,"pub":true}},{"type":"Feature","geometry":{"type":"Point","coordinates":[-105.4971,39.4692]},"properties":{"s":43.6,"pub":true}},{"type":"Feature","geometry":{"type":"Point","coordinates":[-105.4971,39.475]},"properties":{"s":38.5,"pub":true}},{"type":"Feature","geometry":{"type":"Point","coordinates":[-105.4971,39.4808]},"properties":{"s":38.5,"pub":false}},{"type":"Feature","geometry":{"type":"Point","coordinates":[-105.4971,39.4866]},"properties":{"s":17.9,"pub":false}},{"type":"Feature","geometry":{"type":"Point","coordinates":[-105.4971,39.4924]},"properties":{"s":17.9,"pub":false}},{"type":"Feature","geometry":{"type":"Point","coordinates":[-105.4971,39.4982]},"properties":{"s":17.9,"pub":false}},{"type":"Feature","geometry":{"type":"Point","coordinates":[-105.4971,39.504]},"properties":{"s":17.9,"pub":false}},{"type":"Feature","geometry":{"type":"Point","coordinates":[-105.4971,39.5098]},"properties":{"s":17.9,"pub":false}},{"type":"Feature","geometry":{"type":"Point","coordinates":[-105.4971,39.5156]},"properties":{"s":17.9,"pub":false}},{"type":"Feature","geometry":{"type":"Point","coordinates":[-105.4971,39.5214]},"properties":{"s":17.9,"pub":true}},{"type":"Feature","geometry":{"type":"Point","coordinates":[-105.4971,39.5272]},"properties":{"s":17.9,"pub":true}},{"type":"Feature","geometry":{"type":"Point","coordinates":[-105.4971,39.533]},"properties":{"s":17.9,"pub":true}},{"type":"Feature","geometry":{"type":"Point","coordinates":[-105.4971,39.5388]},"properties":{"s":38.5,"pub":true}},{"type":"Feature","geometry":{"type":"Point","coordinates":[-105.4971,39.5446]},"properties":{"s":17.9,"pub":true}},{"type":"Feature","geometry":{"type":"Point","coordinates":[-105.4896,39.4112]},"properties":{"s":17.9,"pub":false}},{"type":"Feature","geometry":{"type":"Point","coordinates":[-105.4896,39.417]},"properties":{"s":17.9,"pub":false}},{"type":"Feature","geometry":{"type":"Point","coordinates":[-105.4896,39.4228]},"properties":{"s":17.9,"pub":false}},{"type":"Feature","geometry":{"type":"Point","coordinates":[-105.4896,39.4286]},"properties":{"s":17.9,"pub":false}},{"type":"Feature","geometry":{"type":"Point","coordinates":[-105.4896,39.4344]},"properties":{"s":17.9,"pub":false}},{"type":"Feature","geometry":{"type":"Point","coordinates":[-105.4896,39.4402]},"properties":{"s":17.9,"pub":false}},{"type":"Feature","geometry":{"type":"Point","coordinates":[-105.4896,39.446]},"properties":{"s":17.9,"pub":false}},{"type":"Feature","geometry":{"type":"Point","coordinates":[-105.4896,39.4518]},"properties":{"s":23.1,"pub":false}},{"type":"Feature","geometry":{"type":"Point","coordinates":[-105.4896,39.4576]},"properties":{"s":23.1,"pub":false}},{"type":"Feature","geometry":{"type":"Point","coordinates":[-105.4896,39.4634]},"properties":{"s":23.1,"pub":false}},{"type":"Feature","geometry":{"type":"Point","coordinates":[-105.4896,39.4692]},"properties":{"s":43.6,"pub":false}},{"type":"Feature","geometry":{"type":"Point","coordinates":[-105.4896,39.475]},"properties":{"s":38.5,"pub":false}},{"type":"Feature","geometry":{"type":"Point","coordinates":[-105.4896,39.4808]},"properties":{"s":17.9,"pub":false}},{"type":"Feature","geometry":{"type":"Point","coordinates":[-105.4896,39.4866]},"properties":{"s":17.9,"pub":false}},{"type":"Feature","geometry":{"type":"Point","coordinates":[-105.4896,39.4924]},"properties":{"s":17.9,"pub":false}},{"type":"Feature","geometry":{"type":"Point","coordinates":[-105.4896,39.4982]},"properties":{"s":17.9,"pub":false}},{"type":"Feature","geometry":{"type":"Point","coordinates":[-105.4896,39.504]},"properties":{"s":48.7,"pub":false}},{"type":"Feature","geometry":{"type":"Point","coordinates":[-105.4896,39.5098]},"properties":{"s":48.7,"pub":true}},{"type":"Feature","geometry":{"type":"Point","coordinates":[-105.4896,39.5156]},"properties":{"s":48.7,"pub":true}},{"type":"Feature","geometry":{"type":"Point","coordinates":[-105.4896,39.5214]},"properties":{"s":48.7,"pub":true}},{"type":"Feature","geometry":{"type":"Point","coordinates":[-105.4896,39.5272]},"properties":{"s":17.9,"pub":true}},{"type":"Feature","geometry":{"type":"Point","coordinates":[-105.4896,39.533]},"properties":{"s":17.9,"pub":true}},{"type":"Feature","geometry":{"type":"Point","coordinates":[-105.4896,39.5388]},"properties":{"s":48.7,"pub":true}},{"type":"Feature","geometry":{"type":"Point","coordinates":[-105.4896,39.5446]},"properties":{"s":48.7,"pub":true}},{"type":"Feature","geometry":{"type":"Point","coordinates":[-105.4896,39.5504]},"properties":{"s":48.7,"pub":true}},{"type":"Feature","geometry":{"type":"Point","coordinates":[-105.4821,39.4112]},"properties":{"s":17.9,"pub":false}},{"type":"Feature","geometry":{"type":"Point","coordinates":[-105.4821,39.417]},"properties":{"s":17.9,"pub":false}},{"type":"Feature","geometry":{"type":"Point","coordinates":[-105.4821,39.4228]},"properties":{"s":17.9,"pub":false}},{"type":"Feature","geometry":{"type":"Point","coordinates":[-105.4821,39.4286]},"properties":{"s":17.9,"pub":false}},{"type":"Feature","geometry":{"type":"Point","coordinates":[-105.4821,39.4344]},"properties":{"s":17.9,"pub":false}},{"type":"Feature","geometry":{"type":"Point","coordinates":[-105.4821,39.4402]},"properties":{"s":17.9,"pub":false}},{"type":"Feature","geometry":{"type":"Point","coordinates":[-105.4821,39.446]},"properties":{"s":23.1,"pub":false}},{"type":"Feature","geometry":{"type":"Point","coordinates":[-105.4821,39.4518]},"properties":{"s":23.1,"pub":false}},{"type":"Feature","geometry":{"type":"Point","coordinates":[-105.4821,39.4576]},"properties":{"s":23.1,"pub":false}},{"type":"Feature","geometry":{"type":"Point","coordinates":[-105.4821,39.4634]},"properties":{"s":23.1,"pub":false}},{"type":"Feature","geometry":{"type":"Point","coordinates":[-105.4821,39.4692]},"properties":{"s":17.9,"pub":false}},{"type":"Feature","geometry":{"type":"Point","coordinates":[-105.4821,39.475]},"properties":{"s":17.9,"pub":false}},{"type":"Feature","geometry":{"type":"Point","coordinates":[-105.4821,39.4808]},"properties":{"s":17.9,"pub":false}},{"type":"Feature","geometry":{"type":"Point","coordinates":[-105.4821,39.4866]},"properties":{"s":17.9,"pub":false}},{"type":"Feature","geometry":{"type":"Point","coordinates":[-105.4821,39.4924]},"properties":{"s":17.9,"pub":false}},{"type":"Feature","geometry":{"type":"Point","coordinates":[-105.4821,39.4982]},"properties":{"s":17.9,"pub":false}},{"type":"Feature","geometry":{"type":"Point","coordinates":[-105.4821,39.504]},"properties":{"s":79.5,"pub":false}},{"type":"Feature","geometry":{"type":"Point","coordinates":[-105.4821,39.5098]},"properties":{"s":48.7,"pub":true}},{"type":"Feature","geometry":{"type":"Point","coordinates":[-105.4821,39.5156]},"properties":{"s":48.7,"pub":true}},{"type":"Feature","geometry":{"type":"Point","coordinates":[-105.4821,39.5214]},"properties":{"s":48.7,"pub":true}},{"type":"Feature","geometry":{"type":"Point","coordinates":[-105.4821,39.5272]},"properties":{"s":48.7,"pub":true}},{"type":"Feature","geometry":{"type":"Point","coordinates":[-105.4821,39.533]},"properties":{"s":48.7,"pub":true}},{"type":"Feature","geometry":{"type":"Point","coordinates":[-105.4821,39.5388]},"properties":{"s":48.7,"pub":true}},{"type":"Feature","geometry":{"type":"Point","coordinates":[-105.4821,39.5446]},"properties":{"s":48.7,"pub":true}},{"type":"Feature","geometry":{"type":"Point","coordinates":[-105.4821,39.5504]},"properties":{"s":17.9,"pub":true}},{"type":"Feature","geometry":{"type":"Point","coordinates":[-105.4746,39.4112]},"properties":{"s":17.9,"pub":false}},{"type":"Feature","geometry":{"type":"Point","coordinates":[-105.4746,39.417]},"properties":{"s":17.9,"pub":false}},{"type":"Feature","geometry":{"type":"Point","coordinates":[-105.4746,39.4228]},"properties":{"s":17.9,"pub":false}},{"type":"Feature","geometry":{"type":"Point","coordinates":[-105.4746,39.4286]},"properties":{"s":17.9,"pub":false}},{"type":"Feature","geometry":{"type":"Point","coordinates":[-105.4746,39.4344]},"properties":{"s":17.9,"pub":false}},{"type":"Feature","geometry":{"type":"Point","coordinates":[-105.4746,39.4402]},"properties":{"s":23.1,"pub":false}},{"type":"Feature","geometry":{"type":"Point","coordinates":[-105.4746,39.446]},"properties":{"s":23.1,"pub":false}},{"type":"Feature","geometry":{"type":"Point","coordinates":[-105.4746,39.4518]},"properties":{"s":23.1,"pub":false}},{"type":"Feature","geometry":{"type":"Point","coordinates":[-105.4746,39.4576]},"properties":{"s":48.7,"pub":false}},{"type":"Feature","geometry":{"type":"Point","coordinates":[-105.4746,39.4634]},"properties":{"s":69.2,"pub":false}},{"type":"Feature","geometry":{"type":"Point","coordinates":[-105.4746,39.4692]},"properties":{"s":38.5,"pub":false}},{"type":"Feature","geometry":{"type":"Point","coordinates":[-105.4746,39.475]},"properties":{"s":17.9,"pub":false}},{"type":"Feature","geometry":{"type":"Point","coordinates":[-105.4746,39.4808]},"properties":{"s":17.9,"pub":false}},{"type":"Feature","geometry":{"type":"Point","coordinates":[-105.4746,39.4866]},"properties":{"s":17.9,"pub":false}},{"type":"Feature","geometry":{"type":"Point","coordinates":[-105.4746,39.4924]},"properties":{"s":17.9,"pub":false}},{"type":"Feature","geometry":{"type":"Point","coordinates":[-105.4746,39.4982]},"properties":{"s":48.7,"pub":false}},{"type":"Feature","geometry":{"type":"Point","coordinates":[-105.4746,39.504]},"properties":{"s":79.5,"pub":false}},{"type":"Feature","geometry":{"type":"Point","coordinates":[-105.4746,39.5098]},"properties":{"s":79.5,"pub":false}},{"type":"Feature","geometry":{"type":"Point","coordinates":[-105.4746,39.5156]},"properties":{"s":48.7,"pub":true}},{"type":"Feature","geometry":{"type":"Point","coordinates":[-105.4746,39.5214]},"properties":{"s":48.7,"pub":true}},{"type":"Feature","geometry":{"type":"Point","coordinates":[-105.4746,39.5272]},"properties":{"s":48.7,"pub":true}},{"type":"Feature","geometry":{"type":"Point","coordinates":[-105.4746,39.533]},"properties":{"s":48.7,"pub":true}},{"type":"Feature","geometry":{"type":"Point","coordinates":[-105.4746,39.5388]},"properties":{"s":48.7,"pub":true}},{"type":"Feature","geometry":{"type":"Point","coordinates":[-105.4746,39.5446]},"properties":{"s":48.7,"pub":true}},{"type":"Feature","geometry":{"type":"Point","coordinates":[-105.4746,39.5504]},"properties":{"s":17.9,"pub":true}},{"type":"Feature","geometry":{"type":"Point","coordinates":[-105.4746,39.5562]},"properties":{"s":17.9,"pub":true}},{"type":"Feature","geometry":{"type":"Point","coordinates":[-105.4671,39.4286]},"properties":{"s":17.9,"pub":false}},{"type":"Feature","geometry":{"type":"Point","coordinates":[-105.4671,39.4344]},"properties":{"s":17.9,"pub":false}},{"type":"Feature","geometry":{"type":"Point","coordinates":[-105.4671,39.4402]},"properties":{"s":17.9,"pub":false}},{"type":"Feature","geometry":{"type":"Point","coordinates":[-105.4671,39.446]},"properties":{"s":17.9,"pub":false}},{"type":"Feature","geometry":{"type":"Point","coordinates":[-105.4671,39.4518]},"properties":{"s":48.7,"pub":false}},{"type":"Feature","geometry":{"type":"Point","coordinates":[-105.4671,39.4576]},"properties":{"s":74.4,"pub":false}},{"type":"Feature","geometry":{"type":"Point","coordinates":[-105.4671,39.4634]},"properties":{"s":74.4,"pub":false}},{"type":"Feature","geometry":{"type":"Point","coordinates":[-105.4671,39.4692]},"properties":{"s":38.5,"pub":false}},{"type":"Feature","geometry":{"type":"Point","coordinates":[-105.4671,39.475]},"properties":{"s":17.9,"pub":false}},{"type":"Feature","geometry":{"type":"Point","coordinates":[-105.4671,39.4808]},"properties":{"s":17.9,"pub":false}},{"type":"Feature","geometry":{"type":"Point","coordinates":[-105.4671,39.4866]},"properties":{"s":17.9,"pub":false}},{"type":"Feature","geometry":{"type":"Point","coordinates":[-105.4671,39.4924]},"properties":{"s":48.7,"pub":false}},{"type":"Feature","geometry":{"type":"Point","coordinates":[-105.4671,39.4982]},"properties":{"s":79.5,"pub":false}},{"type":"Feature","geometry":{"type":"Point","coordinates":[-105.4671,39.504]},"properties":{"s":79.5,"pub":false}},{"type":"Feature","geometry":{"type":"Point","coordinates":[-105.4671,39.5098]},"properties":{"s":79.5,"pub":false}},{"type":"Feature","geometry":{"type":"Point","coordinates":[-105.4671,39.5156]},"properties":{"s":48.7,"pub":false}},{"type":"Feature","geometry":{"type":"Point","coordinates":[-105.4671,39.5214]},"properties":{"s":48.7,"pub":true}},{"type":"Feature","geometry":{"type":"Point","coordinates":[-105.4671,39.5272]},"properties":{"s":48.7,"pub":true}},{"type":"Feature","geometry":{"type":"Point","coordinates":[-105.4671,39.533]},"properties":{"s":48.7,"pub":true}},{"type":"Feature","geometry":{"type":"Point","coordinates":[-105.4671,39.5388]},"properties":{"s":48.7,"pub":true}},{"type":"Feature","geometry":{"type":"Point","coordinates":[-105.4671,39.5446]},"properties":{"s":17.9,"pub":true}},{"type":"Feature","geometry":{"type":"Point","coordinates":[-105.4671,39.5504]},"properties":{"s":17.9,"pub":true}},{"type":"Feature","geometry":{"type":"Point","coordinates":[-105.4671,39.5562]},"properties":{"s":17.9,"pub":true}},{"type":"Feature","geometry":{"type":"Point","coordinates":[-105.4671,39.562]},"properties":{"s":17.9,"pub":true}},{"type":"Feature","geometry":{"type":"Point","coordinates":[-105.4596,39.4402]},"properties":{"s":17.9,"pub":false}},{"type":"Feature","geometry":{"type":"Point","coordinates":[-105.4596,39.446]},"properties":{"s":48.7,"pub":false}},{"type":"Feature","geometry":{"type":"Point","coordinates":[-105.4596,39.4518]},"properties":{"s":74.4,"pub":false}},{"type":"Feature","geometry":{"type":"Point","coordinates":[-105.4596,39.4576]},"properties":{"s":74.4,"pub":false}},{"type":"Feature","geometry":{"type":"Point","coordinates":[-105.4596,39.4634]},"properties":{"s":74.4,"pub":false}},{"type":"Feature","geometry":{"type":"Point","coordinates":[-105.4596,39.4692]},"properties":{"s":74.4,"pub":false}},{"type":"Feature","geometry":{"type":"Point","coordinates":[-105.4596,39.475]},"properties":{"s":43.6,"pub":false}},{"type":"Feature","geometry":{"type":"Point","coordinates":[-105.4596,39.4808]},"properties":{"s":17.9,"pub":false}},{"type":"Feature","geometry":{"type":"Point","coordinates":[-105.4596,39.4866]},"properties":{"s":17.9,"pub":false}},{"type":"Feature","geometry":{"type":"Point","coordinates":[-105.4596,39.4924]},"properties":{"s":48.7,"pub":false}},{"type":"Feature","geometry":{"type":"Point","coordinates":[-105.4596,39.4982]},"properties":{"s":100.0,"pub":false}},{"type":"Feature","geometry":{"type":"Point","coordinates":[-105.4596,39.504]},"properties":{"s":79.5,"pub":false}},{"type":"Feature","geometry":{"type":"Point","coordinates":[-105.4596,39.5098]},"properties":{"s":79.5,"pub":false}},{"type":"Feature","geometry":{"type":"Point","coordinates":[-105.4596,39.5156]},"properties":{"s":48.7,"pub":false}},{"type":"Feature","geometry":{"type":"Point","coordinates":[-105.4596,39.5214]},"properties":{"s":48.7,"pub":false}},{"type":"Feature","geometry":{"type":"Point","coordinates":[-105.4596,39.5272]},"properties":{"s":69.2,"pub":false}},{"type":"Feature","geometry":{"type":"Point","coordinates":[-105.4596,39.533]},"properties":{"s":69.2,"pub":true}},{"type":"Feature","geometry":{"type":"Point","coordinates":[-105.4596,39.5388]},"properties":{"s":69.2,"pub":true}},{"type":"Feature","geometry":{"type":"Point","coordinates":[-105.4596,39.5446]},"properties":{"s":17.9,"pub":true}},{"type":"Feature","geometry":{"type":"Point","coordinates":[-105.4596,39.5504]},"properties":{"s":17.9,"pub":true}},{"type":"Feature","geometry":{"type":"Point","coordinates":[-105.4596,39.5562]},"properties":{"s":17.9,"pub":true}},{"type":"Feature","geometry":{"type":"Point","coordinates":[-105.4596,39.562]},"properties":{"s":17.9,"pub":true}},{"type":"Feature","geometry":{"type":"Point","coordinates":[-105.4521,39.4402]},"properties":{"s":17.9,"pub":false}},{"type":"Feature","geometry":{"type":"Point","coordinates":[-105.4521,39.446]},"properties":{"s":74.4,"pub":false}},{"type":"Feature","geometry":{"type":"Point","coordinates":[-105.4521,39.4518]},"properties":{"s":76.9,"pub":false}},{"type":"Feature","geometry":{"type":"Point","coordinates":[-105.4521,39.4576]},"properties":{"s":76.9,"pub":false}},{"type":"Feature","geometry":{"type":"Point","coordinates":[-105.4521,39.4634]},"properties":{"s":74.4,"pub":false}},{"type":"Feature","geometry":{"type":"Point","coordinates":[-105.4521,39.4692]},"properties":{"s":74.4,"pub":false}},{"type":"Feature","geometry":{"type":"Point","coordinates":[-105.4521,39.475]},"properties":{"s":74.4,"pub":false}},{"type":"Feature","geometry":{"type":"Point","coordinates":[-105.4521,39.4808]},"properties":{"s":74.4,"pub":false}},{"type":"Feature","geometry":{"type":"Point","coordinates":[-105.4521,39.4866]},"properties":{"s":100.0,"pub":false}},{"type":"Feature","geometry":{"type":"Point","coordinates":[-105.4521,39.4924]},"properties":{"s":100.0,"pub":false}},{"type":"Feature","geometry":{"type":"Point","coordinates":[-105.4521,39.4982]},"properties":{"s":100.0,"pub":false}},{"type":"Feature","geometry":{"type":"Point","coordinates":[-105.4521,39.504]},"properties":{"s":100.0,"pub":false}},{"type":"Feature","geometry":{"type":"Point","coordinates":[-105.4521,39.5098]},"properties":{"s":79.5,"pub":false}},{"type":"Feature","geometry":{"type":"Point","coordinates":[-105.4521,39.5156]},"properties":{"s":79.5,"pub":false}},{"type":"Feature","geometry":{"type":"Point","coordinates":[-105.4521,39.5214]},"properties":{"s":100.0,"pub":false}},{"type":"Feature","geometry":{"type":"Point","coordinates":[-105.4521,39.5272]},"properties":{"s":100.0,"pub":false}},{"type":"Feature","geometry":{"type":"Point","coordinates":[-105.4521,39.533]},"properties":{"s":100.0,"pub":true}},{"type":"Feature","geometry":{"type":"Point","coordinates":[-105.4521,39.5388]},"properties":{"s":48.7,"pub":true}},{"type":"Feature","geometry":{"type":"Point","coordinates":[-105.4521,39.5446]},"properties":{"s":48.7,"pub":true}},{"type":"Feature","geometry":{"type":"Point","coordinates":[-105.4521,39.5504]},"properties":{"s":17.9,"pub":true}},{"type":"Feature","geometry":{"type":"Point","coordinates":[-105.4521,39.5562]},"properties":{"s":17.9,"pub":true}},{"type":"Feature","geometry":{"type":"Point","coordinates":[-105.4521,39.562]},"properties":{"s":17.9,"pub":true}},{"type":"Feature","geometry":{"type":"Point","coordinates":[-105.4446,39.446]},"properties":{"s":38.5,"pub":false}},{"type":"Feature","geometry":{"type":"Point","coordinates":[-105.4446,39.4518]},"properties":{"s":71.8,"pub":false}},{"type":"Feature","geometry":{"type":"Point","coordinates":[-105.4446,39.4576]},"properties":{"s":76.9,"pub":false}},{"type":"Feature","geometry":{"type":"Point","coordinates":[-105.4446,39.4634]},"properties":{"s":74.4,"pub":false}},{"type":"Feature","geometry":{"type":"Point","coordinates":[-105.4446,39.4692]},"properties":{"s":74.4,"pub":false}},{"type":"Feature","geometry":{"type":"Point","coordinates":[-105.4446,39.475]},"properties":{"s":74.4,"pub":false}},{"type":"Feature","geometry":{"type":"Point","coordinates":[-105.4446,39.4808]},"properties":{"s":69.2,"pub":false}},{"type":"Feature","geometry":{"type":"Point","coordinates":[-105.4446,39.4866]},"properties":{"s":100.0,"pub":false}},{"type":"Feature","geometry":{"type":"Point","coordinates":[-105.4446,39.4924]},"properties":{"s":100.0,"pub":false}},{"type":"Feature","geometry":{"type":"Point","coordinates":[-105.4446,39.4982]},"properties":{"s":100.0,"pub":false}},{"type":"Feature","geometry":{"type":"Point","coordinates":[-105.4446,39.504]},"properties":{"s":100.0,"pub":false}},{"type":"Feature","geometry":{"type":"Point","coordinates":[-105.4446,39.5098]},"properties":{"s":79.5,"pub":false}},{"type":"Feature","geometry":{"type":"Point","coordinates":[-105.4446,39.5156]},"properties":{"s":100.0,"pub":false}},{"type":"Feature","geometry":{"type":"Point","coordinates":[-105.4446,39.5214]},"properties":{"s":100.0,"pub":false}},{"type":"Feature","geometry":{"type":"Point","coordinates":[-105.4446,39.5272]},"properties":{"s":100.0,"pub":false}},{"type":"Feature","geometry":{"type":"Point","coordinates":[-105.4446,39.533]},"properties":{"s":100.0,"pub":false}},{"type":"Feature","geometry":{"type":"Point","coordinates":[-105.4446,39.5388]},"properties":{"s":48.7,"pub":true}},{"type":"Feature","geometry":{"type":"Point","coordinates":[-105.4446,39.5446]},"properties":{"s":17.9,"pub":true}},{"type":"Feature","geometry":{"type":"Point","coordinates":[-105.4446,39.5504]},"properties":{"s":17.9,"pub":true}},{"type":"Feature","geometry":{"type":"Point","coordinates":[-105.4446,39.5562]},"properties":{"s":17.9,"pub":false}},{"type":"Feature","geometry":{"type":"Point","coordinates":[-105.4371,39.4576]},"properties":{"s":69.2,"pub":false}},{"type":"Feature","geometry":{"type":"Point","coordinates":[-105.4371,39.4634]},"properties":{"s":74.4,"pub":false}},{"type":"Feature","geometry":{"type":"Point","coordinates":[-105.4371,39.4692]},"properties":{"s":74.4,"pub":false}},{"type":"Feature","geometry":{"type":"Point","coordinates":[-105.4371,39.475]},"properties":{"s":69.2,"pub":false}},{"type":"Feature","geometry":{"type":"Point","coordinates":[-105.4371,39.4808]},"properties":{"s":69.2,"pub":false}},{"type":"Feature","geometry":{"type":"Point","coordinates":[-105.4371,39.4866]},"properties":{"s":100.0,"pub":false}},{"type":"Feature","geometry":{"type":"Point","coordinates":[-105.4371,39.4924]},"properties":{"s":100.0,"pub":false}},{"type":"Feature","geometry":{"type":"Point","coordinates":[-105.4371,39.4982]},"properties":{"s":100.0,"pub":false}},{"type":"Feature","geometry":{"type":"Point","coordinates":[-105.4371,39.504]},"properties":{"s":100.0,"pub":false}},{"type":"Feature","geometry":{"type":"Point","coordinates":[-105.4371,39.5098]},"properties":{"s":100.0,"pub":false}},{"type":"Feature","geometry":{"type":"Point","coordinates":[-105.4371,39.5156]},"properties":{"s":100.0,"pub":false}},{"type":"Feature","geometry":{"type":"Point","coordinates":[-105.4371,39.5214]},"properties":{"s":100.0,"pub":false}},{"type":"Feature","geometry":{"type":"Point","coordinates":[-105.4371,39.5272]},"properties":{"s":100.0,"pub":false}},{"type":"Feature","geometry":{"type":"Point","coordinates":[-105.4371,39.533]},"properties":{"s":100.0,"pub":true}},{"type":"Feature","geometry":{"type":"Point","coordinates":[-105.4371,39.5388]},"properties":{"s":100.0,"pub":true}},{"type":"Feature","geometry":{"type":"Point","coordinates":[-105.4371,39.5446]},"properties":{"s":69.2,"pub":true}},{"type":"Feature","geometry":{"type":"Point","coordinates":[-105.4371,39.5504]},"properties":{"s":69.2,"pub":true}},{"type":"Feature","geometry":{"type":"Point","coordinates":[-105.4371,39.5562]},"properties":{"s":17.9,"pub":true}},{"type":"Feature","geometry":{"type":"Point","coordinates":[-105.4296,39.4576]},"properties":{"s":38.5,"pub":false}},{"type":"Feature","geometry":{"type":"Point","coordinates":[-105.4296,39.4634]},"properties":{"s":69.2,"pub":false}},{"type":"Feature","geometry":{"type":"Point","coordinates":[-105.4296,39.4692]},"properties":{"s":69.2,"pub":false}},{"type":"Feature","geometry":{"type":"Point","coordinates":[-105.4296,39.475]},"properties":{"s":69.2,"pub":false}},{"type":"Feature","geometry":{"type":"Point","coordinates":[-105.4296,39.4808]},"properties":{"s":69.2,"pub":false}},{"type":"Feature","geometry":{"type":"Point","coordinates":[-105.4296,39.4866]},"properties":{"s":100.0,"pub":false}},{"type":"Feature","geometry":{"type":"Point","coordinates":[-105.4296,39.4924]},"properties":{"s":100.0,"pub":false}},{"type":"Feature","geometry":{"type":"Point","coordinates":[-105.4296,39.4982]},"properties":{"s":100.0,"pub":false}},{"type":"Feature","geometry":{"type":"Point","coordinates":[-105.4296,39.504]},"properties":{"s":100.0,"pub":false}},{"type":"Feature","geometry":{"type":"Point","coordinates":[-105.4296,39.5098]},"properties":{"s":100.0,"pub":true}},{"type":"Feature","geometry":{"type":"Point","coordinates":[-105.4296,39.5156]},"properties":{"s":100.0,"pub":true}},{"type":"Feature","geometry":{"type":"Point","coordinates":[-105.4296,39.5214]},"properties":{"s":100.0,"pub":true}},{"type":"Feature","geometry":{"type":"Point","coordinates":[-105.4296,39.5272]},"properties":{"s":100.0,"pub":false}},{"type":"Feature","geometry":{"type":"Point","coordinates":[-105.4296,39.533]},"properties":{"s":100.0,"pub":true}},{"type":"Feature","geometry":{"type":"Point","coordinates":[-105.4296,39.5388]},"properties":{"s":100.0,"pub":true}},{"type":"Feature","geometry":{"type":"Point","coordinates":[-105.4296,39.5446]},"properties":{"s":69.2,"pub":true}},{"type":"Feature","geometry":{"type":"Point","coordinates":[-105.4296,39.5504]},"properties":{"s":38.5,"pub":true}},{"type":"Feature","geometry":{"type":"Point","coordinates":[-105.4296,39.5562]},"properties":{"s":17.9,"pub":true}},{"type":"Feature","geometry":{"type":"Point","coordinates":[-105.4221,39.4576]},"properties":{"s":38.5,"pub":false}},{"type":"Feature","geometry":{"type":"Point","coordinates":[-105.4221,39.4634]},"properties":{"s":38.5,"pub":false}},{"type":"Feature","geometry":{"type":"Point","coordinates":[-105.4221,39.4692]},"properties":{"s":69.2,"pub":false}},{"type":"Feature","geometry":{"type":"Point","coordinates":[-105.4221,39.475]},"properties":{"s":69.2,"pub":false}},{"type":"Feature","geometry":{"type":"Point","coordinates":[-105.4221,39.4808]},"properties":{"s":69.2,"pub":false}},{"type":"Feature","geometry":{"type":"Point","coordinates":[-105.4221,39.4866]},"properties":{"s":100.0,"pub":false}},{"type":"Feature","geometry":{"type":"Point","coordinates":[-105.4221,39.4924]},"properties":{"s":100.0,"pub":false}},{"type":"Feature","geometry":{"type":"Point","coordinates":[-105.4221,39.4982]},"properties":{"s":100.0,"pub":false}},{"type":"Feature","geometry":{"type":"Point","coordinates":[-105.4221,39.504]},"properties":{"s":100.0,"pub":true}},{"type":"Feature","geometry":{"type":"Point","coordinates":[-105.4221,39.5098]},"properties":{"s":100.0,"pub":true}},{"type":"Feature","geometry":{"type":"Point","coordinates":[-105.4221,39.5156]},"properties":{"s":100.0,"pub":true}},{"type":"Feature","geometry":{"type":"Point","coordinates":[-105.4221,39.5214]},"properties":{"s":69.2,"pub":true}},{"type":"Feature","geometry":{"type":"Point","coordinates":[-105.4221,39.5272]},"properties":{"s":69.2,"pub":true}},{"type":"Feature","geometry":{"type":"Point","coordinates":[-105.4221,39.533]},"properties":{"s":100.0,"pub":true}},{"type":"Feature","geometry":{"type":"Point","coordinates":[-105.4221,39.5388]},"properties":{"s":38.5,"pub":true}},{"type":"Feature","geometry":{"type":"Point","coordinates":[-105.4221,39.5446]},"properties":{"s":38.5,"pub":true}},{"type":"Feature","geometry":{"type":"Point","coordinates":[-105.4221,39.5504]},"properties":{"s":17.9,"pub":true}},{"type":"Feature","geometry":{"type":"Point","coordinates":[-105.4221,39.5562]},"properties":{"s":17.9,"pub":true}},{"type":"Feature","geometry":{"type":"Point","coordinates":[-105.4146,39.4576]},"properties":{"s":17.9,"pub":false}},{"type":"Feature","geometry":{"type":"Point","coordinates":[-105.4146,39.4634]},"properties":{"s":38.5,"pub":false}},{"type":"Feature","geometry":{"type":"Point","coordinates":[-105.4146,39.4692]},"properties":{"s":69.2,"pub":false}},{"type":"Feature","geometry":{"type":"Point","coordinates":[-105.4146,39.475]},"properties":{"s":69.2,"pub":false}},{"type":"Feature","geometry":{"type":"Point","coordinates":[-105.4146,39.4808]},"properties":{"s":69.2,"pub":false}},{"type":"Feature","geometry":{"type":"Point","coordinates":[-105.4146,39.4866]},"properties":{"s":100.0,"pub":false}},{"type":"Feature","geometry":{"type":"Point","coordinates":[-105.4146,39.4924]},"properties":{"s":100.0,"pub":false}},{"type":"Feature","geometry":{"type":"Point","coordinates":[-105.4146,39.4982]},"properties":{"s":100.0,"pub":false}},{"type":"Feature","geometry":{"type":"Point","coordinates":[-105.4146,39.504]},"properties":{"s":69.2,"pub":true}},{"type":"Feature","geometry":{"type":"Point","coordinates":[-105.4146,39.5098]},"properties":{"s":69.2,"pub":true}},{"type":"Feature","geometry":{"type":"Point","coordinates":[-105.4146,39.5156]},"properties":{"s":69.2,"pub":true}},{"type":"Feature","geometry":{"type":"Point","coordinates":[-105.4146,39.5214]},"properties":{"s":69.2,"pub":true}},{"type":"Feature","geometry":{"type":"Point","coordinates":[-105.4146,39.5272]},"properties":{"s":48.7,"pub":false}},{"type":"Feature","geometry":{"type":"Point","coordinates":[-105.4146,39.533]},"properties":{"s":17.9,"pub":false}},{"type":"Feature","geometry":{"type":"Point","coordinates":[-105.4146,39.5388]},"properties":{"s":17.9,"pub":true}},{"type":"Feature","geometry":{"type":"Point","coordinates":[-105.4146,39.5446]},"properties":{"s":17.9,"pub":true}},{"type":"Feature","geometry":{"type":"Point","coordinates":[-105.4071,39.4634]},"properties":{"s":17.9,"pub":false}},{"type":"Feature","geometry":{"type":"Point","coordinates":[-105.4071,39.4692]},"properties":{"s":38.5,"pub":false}},{"type":"Feature","geometry":{"type":"Point","coordinates":[-105.4071,39.475]},"properties":{"s":69.2,"pub":false}},{"type":"Feature","geometry":{"type":"Point","coordinates":[-105.4071,39.4808]},"properties":{"s":69.2,"pub":false}},{"type":"Feature","geometry":{"type":"Point","coordinates":[-105.4071,39.4866]},"properties":{"s":100.0,"pub":false}},{"type":"Feature","geometry":{"type":"Point","coordinates":[-105.4071,39.4924]},"properties":{"s":100.0,"pub":false}},{"type":"Feature","geometry":{"type":"Point","coordinates":[-105.4071,39.4982]},"properties":{"s":100.0,"pub":false}},{"type":"Feature","geometry":{"type":"Point","coordinates":[-105.4071,39.504]},"properties":{"s":69.2,"pub":false}},{"type":"Feature","geometry":{"type":"Point","coordinates":[-105.4071,39.5098]},"properties":{"s":69.2,"pub":true}},{"type":"Feature","geometry":{"type":"Point","coordinates":[-105.4071,39.5156]},"properties":{"s":69.2,"pub":true}},{"type":"Feature","geometry":{"type":"Point","coordinates":[-105.4071,39.5214]},"properties":{"s":48.7,"pub":true}},{"type":"Feature","geometry":{"type":"Point","coordinates":[-105.4071,39.5272]},"properties":{"s":17.9,"pub":true}},{"type":"Feature","geometry":{"type":"Point","coordinates":[-105.4071,39.533]},"properties":{"s":17.9,"pub":true}},{"type":"Feature","geometry":{"type":"Point","coordinates":[-105.4071,39.5388]},"properties":{"s":17.9,"pub":true}},{"type":"Feature","geometry":{"type":"Point","coordinates":[-105.4071,39.5446]},"properties":{"s":17.9,"pub":true}},{"type":"Feature","geometry":{"type":"Point","coordinates":[-105.3996,39.4634]},"properties":{"s":17.9,"pub":false}},{"type":"Feature","geometry":{"type":"Point","coordinates":[-105.3996,39.4692]},"properties":{"s":17.9,"pub":false}},{"type":"Feature","geometry":{"type":"Point","coordinates":[-105.3996,39.475]},"properties":{"s":17.9,"pub":false}},{"type":"Feature","geometry":{"type":"Point","coordinates":[-105.3996,39.4808]},"properties":{"s":48.7,"pub":false}},{"type":"Feature","geometry":{"type":"Point","coordinates":[-105.3996,39.4866]},"properties":{"s":100.0,"pub":false}},{"type":"Feature","geometry":{"type":"Point","coordinates":[-105.3996,39.4924]},"properties":{"s":100.0,"pub":false}},{"type":"Feature","geometry":{"type":"Point","coordinates":[-105.3996,39.4982]},"properties":{"s":69.2,"pub":false}},{"type":"Feature","geometry":{"type":"Point","coordinates":[-105.3996,39.504]},"properties":{"s":69.2,"pub":false}},{"type":"Feature","geometry":{"type":"Point","coordinates":[-105.3996,39.5098]},"properties":{"s":69.2,"pub":true}},{"type":"Feature","geometry":{"type":"Point","coordinates":[-105.3996,39.5156]},"properties":{"s":69.2,"pub":true}},{"type":"Feature","geometry":{"type":"Point","coordinates":[-105.3996,39.5214]},"properties":{"s":48.7,"pub":true}},{"type":"Feature","geometry":{"type":"Point","coordinates":[-105.3996,39.5272]},"properties":{"s":17.9,"pub":true}},{"type":"Feature","geometry":{"type":"Point","coordinates":[-105.3996,39.533]},"properties":{"s":17.9,"pub":true}},{"type":"Feature","geometry":{"type":"Point","coordinates":[-105.3996,39.5388]},"properties":{"s":17.9,"pub":true}},{"type":"Feature","geometry":{"type":"Point","coordinates":[-105.3921,39.4692]},"properties":{"s":17.9,"pub":false}},{"type":"Feature","geometry":{"type":"Point","coordinates":[-105.3921,39.475]},"properties":{"s":17.9,"pub":false}},{"type":"Feature","geometry":{"type":"Point","coordinates":[-105.3921,39.4808]},"properties":{"s":48.7,"pub":false}},{"type":"Feature","geometry":{"type":"Point","coordinates":[-105.3921,39.4866]},"properties":{"s":48.7,"pub":false}},{"type":"Feature","geometry":{"type":"Point","coordinates":[-105.3921,39.4924]},"properties":{"s":100.0,"pub":false}},{"type":"Feature","geometry":{"type":"Point","coordinates":[-105.3921,39.4982]},"properties":{"s":69.2,"pub":false}},{"type":"Feature","geometry":{"type":"Point","coordinates":[-105.3921,39.504]},"properties":{"s":69.2,"pub":false}},{"type":"Feature","geometry":{"type":"Point","coordinates":[-105.3921,39.5098]},"properties":{"s":69.2,"pub":true}},{"type":"Feature","geometry":{"type":"Point","coordinates":[-105.3921,39.5156]},"properties":{"s":48.7,"pub":true}},{"type":"Feature","geometry":{"type":"Point","coordinates":[-105.3921,39.5214]},"properties":{"s":48.7,"pub":true}},{"type":"Feature","geometry":{"type":"Point","coordinates":[-105.3921,39.5272]},"properties":{"s":17.9,"pub":true}},{"type":"Feature","geometry":{"type":"Point","coordinates":[-105.3921,39.533]},"properties":{"s":17.9,"pub":true}},{"type":"Feature","geometry":{"type":"Point","coordinates":[-105.3846,39.4692]},"properties":{"s":48.7,"pub":false}},{"type":"Feature","geometry":{"type":"Point","coordinates":[-105.3846,39.475]},"properties":{"s":48.7,"pub":false}},{"type":"Feature","geometry":{"type":"Point","coordinates":[-105.3846,39.4808]},"properties":{"s":48.7,"pub":false}},{"type":"Feature","geometry":{"type":"Point","coordinates":[-105.3846,39.4866]},"properties":{"s":48.7,"pub":false}},{"type":"Feature","geometry":{"type":"Point","coordinates":[-105.3846,39.4924]},"properties":{"s":100.0,"pub":true}},{"type":"Feature","geometry":{"type":"Point","coordinates":[-105.3846,39.4982]},"properties":{"s":69.2,"pub":true}},{"type":"Feature","geometry":{"type":"Point","coordinates":[-105.3846,39.504]},"properties":{"s":69.2,"pub":true}},{"type":"Feature","geometry":{"type":"Point","coordinates":[-105.3846,39.5098]},"properties":{"s":69.2,"pub":true}},{"type":"Feature","geometry":{"type":"Point","coordinates":[-105.3846,39.5156]},"properties":{"s":48.7,"pub":true}},{"type":"Feature","geometry":{"type":"Point","coordinates":[-105.3846,39.5214]},"properties":{"s":17.9,"pub":true}},{"type":"Feature","geometry":{"type":"Point","coordinates":[-105.3846,39.5272]},"properties":{"s":17.9,"pub":true}},{"type":"Feature","geometry":{"type":"Point","coordinates":[-105.3771,39.475]},"properties":{"s":48.7,"pub":false}},{"type":"Feature","geometry":{"type":"Point","coordinates":[-105.3771,39.4808]},"properties":{"s":48.7,"pub":false}},{"type":"Feature","geometry":{"type":"Point","coordinates":[-105.3771,39.4866]},"properties":{"s":48.7,"pub":false}},{"type":"Feature","geometry":{"type":"Point","coordinates":[-105.3771,39.4924]},"properties":{"s":48.7,"pub":true}},{"type":"Feature","geometry":{"type":"Point","coordinates":[-105.3771,39.4982]},"properties":{"s":69.2,"pub":true}},{"type":"Feature","geometry":{"type":"Point","coordinates":[-105.3771,39.504]},"properties":{"s":69.2,"pub":true}},{"type":"Feature","geometry":{"type":"Point","coordinates":[-105.3771,39.5098]},"properties":{"s":48.7,"pub":true}},{"type":"Feature","geometry":{"type":"Point","coordinates":[-105.3771,39.5156]},"properties":{"s":17.9,"pub":true}},{"type":"Feature","geometry":{"type":"Point","coordinates":[-105.3771,39.5214]},"properties":{"s":17.9,"pub":true}},{"type":"Feature","geometry":{"type":"Point","coordinates":[-105.3771,39.5272]},"properties":{"s":17.9,"pub":true}},{"type":"Feature","geometry":{"type":"Point","coordinates":[-105.3696,39.4808]},"properties":{"s":17.9,"pub":false}},{"type":"Feature","geometry":{"type":"Point","coordinates":[-105.3696,39.4866]},"properties":{"s":33.3,"pub":false}},{"type":"Feature","geometry":{"type":"Point","coordinates":[-105.3696,39.4924]},"properties":{"s":33.3,"pub":false}},{"type":"Feature","geometry":{"type":"Point","coordinates":[-105.3696,39.4982]},"properties":{"s":33.3,"pub":true}},{"type":"Feature","geometry":{"type":"Point","coordinates":[-105.3696,39.504]},"properties":{"s":17.9,"pub":true}},{"type":"Feature","geometry":{"type":"Point","coordinates":[-105.3696,39.5098]},"properties":{"s":17.9,"pub":true}},{"type":"Feature","geometry":{"type":"Point","coordinates":[-105.3696,39.5156]},"properties":{"s":17.9,"pub":true}},{"type":"Feature","geometry":{"type":"Point","coordinates":[-105.3696,39.5214]},"properties":{"s":17.9,"pub":true}},{"type":"Feature","geometry":{"type":"Point","coordinates":[-105.3621,39.5156]},"properties":{"s":17.9,"pub":false}},{"type":"Feature","geometry":{"type":"Point","coordinates":[-105.3621,39.5214]},"properties":{"s":17.9,"pub":false}}]}