{"type":"FeatureCollection","features":[{"type":"Feature","geometry":{"type":"Point","coordinates":[-104.903,38.999]},"properties":{"s":17.9,"pub":false}},{"type":"Feature","geometry":{"type":"Point","coordinates":[-104.903,39.0048]},"properties":{"s":17.9,"pub":false}},{"type":"Feature","geometry":{"type":"Point","coordinates":[-104.903,39.0106]},"properties":{"s":17.9,"pub":false}},{"type":"Feature","geometry":{"type":"Point","coordinates":[-104.903,39.0164]},"properties":{"s":17.9,"pub":false}},{"type":"Feature","geometry":{"type":"Point","coordinates":[-104.903,39.0222]},"properties":{"s":17.9,"pub":false}},{"type":"Feature","geometry":{"type":"Point","coordinates":[-104.903,39.028]},"properties":{"s":17.9,"pub":false}},{"type":"Feature","geometry":{"type":"Point","coordinates":[-104.903,39.0338]},"properties":{"s":69.2,"pub":false}},{"type":"Feature","geometry":{"type":"Point","coordinates":[-104.903,39.0396]},"properties":{"s":69.2,"pub":false}},{"type":"Feature","geometry":{"type":"Point","coordinates":[-104.8955,38.9932]},"properties":{"s":17.9,"pub":false}},{"type":"Feature","geometry":{"type":"Point","coordinates":[-104.8955,38.999]},"properties":{"s":17.9,"pub":false}},{"type":"Feature","geometry":{"type":"Point","coordinates":[-104.8955,39.0048]},"properties":{"s":17.9,"pub":false}},{"type":"Feature","geometry":{"type":"Point","coordinates":[-104.8955,39.0106]},"properties":{"s":17.9,"pub":false}},{"type":"Feature","geometry":{"type":"Point","coordinates":[-104.8955,39.0164]},"properties":{"s":17.9,"pub":false}},{"type":"Feature","geometry":{"type":"Point","coordinates":[-104.8955,39.0222]},"properties":{"s":17.9,"pub":false}},{"type":"Feature","geometry":{"type":"Point","coordinates":[-104.8955,39.028]},"properties":{"s":38.5,"pub":false}},{"type":"Feature","geometry":{"type":"Point","coordinates":[-104.8955,39.0338]},"properties":{"s":69.2,"pub":false}},{"type":"Feature","geometry":{"type":"Point","coordinates":[-104.8955,39.0396]},"properties":{"s":100.0,"pub":false}},{"type":"Feature","geometry":{"type":"Point","coordinates":[-104.888,38.9932]},"properties":{"s":17.9,"pub":false}},{"type":"Feature","geometry":{"type":"Point","coordinates":[-104.888,38.999]},"properties":{"s":17.9,"pub":false}},{"type":"Feature","geometry":{"type":"Point","coordinates":[-104.888,39.0048]},"properties":{"s":17.9,"pub":false}},{"type":"Feature","geometry":{"type":"Point","coordinates":[-104.888,39.0106]},"properties":{"s":17.9,"pub":false}},{"type":"Feature","geometry":{"type":"Point","coordinates":[-104.888,39.0164]},"properties":{"s":17.9,"pub":false}},{"type":"Feature","geometry":{"type":"Point","coordinates":[-104.888,39.0222]},"properties":{"s":17.9,"pub":false}},{"type":"Feature","geometry":{"type":"Point","coordinates":[-104.888,39.028]},"properties":{"s":69.2,"pub":false}},{"type":"Feature","geometry":{"type":"Point","coordinates":[-104.888,39.0338]},"properties":{"s":100.0,"pub":false}},{"type":"Feature","geometry":{"type":"Point","coordinates":[-104.888,39.0396]},"properties":{"s":100.0,"pub":false}},{"type":"Feature","geometry":{"type":"Point","coordinates":[-104.8805,38.9932]},"properties":{"s":17.9,"pub":false}},{"type":"Feature","geometry":{"type":"Point","coordinates":[-104.8805,38.999]},"properties":{"s":17.9,"pub":false}},{"type":"Feature","geometry":{"type":"Point","coordinates":[-104.8805,39.0048]},"properties":{"s":17.9,"pub":false}},{"type":"Feature","geometry":{"type":"Point","coordinates":[-104.8805,39.0106]},"properties":{"s":17.9,"pub":false}},{"type":"Feature","geometry":{"type":"Point","coordinates":[-104.8805,39.0164]},"properties":{"s":17.9,"pub":false}},{"type":"Feature","geometry":{"type":"Point","coordinates":[-104.8805,39.0222]},"properties":{"s":38.5,"pub":false}},{"type":"Feature","geometry":{"type":"Point","coordinates":[-104.8805,39.028]},"properties":{"s":100.0,"pub":false}},{"type":"Feature","geometry":{"type":"Point","coordinates":[-104.8805,39.0338]},"properties":{"s":100.0,"pub":false}},{"type":"Feature","geometry":{"type":"Point","coordinates":[-104.8805,39.0396]},"properties":{"s":100.0,"pub":false}},{"type":"Feature","geometry":{"type":"Point","coordinates":[-104.873,38.9932]},"properties":{"s":17.9,"pub":false}},{"type":"Feature","geometry":{"type":"Point","coordinates":[-104.873,38.999]},"properties":{"s":17.9,"pub":false}},{"type":"Feature","geometry":{"type":"Point","coordinates":[-104.873,39.0048]},"properties":{"s":17.9,"pub":false}},{"type":"Feature","geometry":{"type":"Point","coordinates":[-104.873,39.0106]},"properties":{"s":17.9,"pub":false}},{"type":"Feature","geometry":{"type":"Point","coordinates":[-104.873,39.0164]},"properties":{"s":17.9,"pub":false}},{"type":"Feature","geometry":{"type":"Point","coordinates":[-104.873,39.0222]},"properties":{"s":100.0,"pub":false}},{"type":"Feature","geometry":{"type":"Point","coordinates":[-104.873,39.028]},"properties":{"s":100.0,"pub":false}},{"type":"Feature","geometry":{"type":"Point","coordinates":[-104.873,39.0338]},"properties":{"s":100.0,"pub":false}},{"type":"Feature","geometry":{"type":"Point","coordinates":[-104.873,39.0396]},"properties":{"s":100.0,"pub":false}},{"type":"Feature","geometry":{"type":"Point","coordinates":[-104.8655,38.9874]},"properties":{"s":17.9,"pub":false}},{"type":"Feature","geometry":{"type":"Point","coordinates":[-104.8655,38.9932]},"properties":{"s":17.9,"pub":false}},{"type":"Feature","geometry":{"type":"Point","coordinates":[-104.8655,38.999]},"properties":{"s":48.7,"pub":false}},{"type":"Feature","geometry":{"type":"Point","coordinates":[-104.8655,39.0048]},"properties":{"s":48.7,"pub":false}},{"type":"Feature","geometry":{"type":"Point","coordinates":[-104.8655,39.0106]},"properties":{"s":48.7,"pub":false}},{"type":"Feature","geometry":{"type":"Point","coordinates":[-104.8655,39.0164]},"properties":{"s":100.0,"pub":false}},{"type":"Feature","geometry":{"type":"Point","coordinates":[-104.8655,39.0222]},"properties":{"s":100.0,"pub":false}},{"type":"Feature","geometry":{"type":"Point","coordinates":[-104.8655,39.028]},"properties":{"s":100.0,"pub":false}},{"type":"Feature","geometry":{"type":"Point","coordinates":[-104.8655,39.0338]},"properties":{"s":100.0,"pub":false}},{"type":"Feature","geometry":{"type":"Point","coordinates":[-104.8655,39.0396]},"properties":{"s":100.0,"pub":false}},{"type":"Feature","geometry":{"type":"Point","coordinates":[-104.858,38.9874]},"properties":{"s":17.9,"pub":false}},{"type":"Feature","geometry":{"type":"Point","coordinates":[-104.858,38.9932]},"properties":{"s":17.9,"pub":false}},{"type":"Feature","geometry":{"type":"Point","coordinates":[-104.858,38.999]},"properties":{"s":48.7,"pub":false}},{"type":"Feature","geometry":{"type":"Point","coordinates":[-104.858,39.0048]},"properties":{"s":48.7,"pub":false}},{"type":"Feature","geometry":{"type":"Point","coordinates":[-104.858,39.0106]},"properties":{"s":48.7,"pub":false}},{"type":"Feature","geometry":{"type":"Point","coordinates":[-104.858,39.0164]},"properties":{"s":69.2,"pub":false}},{"type":"Feature","geometry":{"type":"Point","coordinates":[-104.858,39.0222]},"properties":{"s":100.0,"pub":false}},{"type":"Feature","geometry":{"type":"Point","coordinates":[-104.858,39.028]},"properties":{"s":100.0,"pub":false}},{"type":"Feature","geometry":{"type":"Point","coordinates":[-104.858,39.0338]},"properties":{"s":100.0,"pub":false}},{"type":"Feature","geometry":{"type":"Point","coordinates":[-104.858,39.0396]},"properties":{"s":100.0,"pub":false}},{"type":"Feature","geometry":{"type":"Point","coordinates":[-104.8505,38.9816]},"properties":{"s":17.9,"pub":false}},{"type":"Feature","geometry":{"type":"Point","coordinates":[-104.8505,38.9874]},"properties":{"s":17.9,"pub":false}},{"type":"Feature","geometry":{"type":"Point","coordinates":[-104.8505,38.9932]},"properties":{"s":17.9,"pub":false}},{"type":"Feature","geometry":{"type":"Point","coordinates":[-104.8505,38.999]},"properties":{"s":17.9,"pub":false}},{"type":"Feature","geometry":{"type":"Point","coordinates":[-104.8505,39.0048]},"properties":{"s":48.7,"pub":false}},{"type":"Feature","geometry":{"type":"Point","coordinates":[-104.8505,39.0106]},"properties":{"s":69.2,"pub":false}},{"type":"Feature","geometry":{"type":"Point","coordinates":[-104.8505,39.0164]},"properties":{"s":69.2,"pub":false}},{"type":"Feature","geometry":{"type":"Point","coordinates":[-104.8505,39.0222]},"properties":{"s":69.2,"pub":false}},{"type":"Feature","geometry":{"type":"Point","coordinates":[-104.8505,39.028]},"properties":{"s":69.2,"pub":false}},{"type":"Feature","geometry":{"type":"Point","coordinates":[-104.8505,39.0338]},"properties":{"s":69.2,"pub":false}},{"type":"Feature","geometry":{"type":"Point","coordinates":[-104.8505,39.0396]},"properties":{"s":23.1,"pub":false}},{"type":"Feature","geometry":{"type":"Point","coordinates":[-104.843,38.9874]},"properties":{"s":17.9,"pub":false}},{"type":"Feature","geometry":{"type":"Point","coordinates":[-104.843,38.9932]},"properties":{"s":17.9,"pub":false}},{"type":"Feature","geometry":{"type":"Point","coordinates":[-104.843,38.999]},"properties":{"s":17.9,"pub":false}},{"type":"Feature","geometry":{"type":"Point","coordinates":[-104.843,39.0048]},"properties":{"s":17.9,"pub":false}},{"type":"Feature","geometry":{"type":"Point","coordinates":[-104.843,39.0106]},"properties":{"s":17.9,"pub":false}},{"type":"Feature","geometry":{"type":"Point","coordinates":[-104.843,39.0164]},"properties":{"s":38.5,"pub":false}},{"type":"Feature","geometry":{"type":"Point","coordinates":[-104.843,39.0222]},"properties":{"s":38.5,"pub":false}},{"type":"Feature","geometry":{"type":"Point","coordinates":[-104.843,39.028]},"properties":{"s":35.9,"pub":false}}]}