{"type":"FeatureCollection","features":[{"type":"Feature","geometry":{"type":"Point","coordinates":[-104.9596,38.5048]},"properties":{"s":25.9,"pub":false}},{"type":"Feature","geometry":{"type":"Point","coordinates":[-104.9596,38.5106]},"properties":{"s":25.9,"pub":false}},{"type":"Feature","geometry":{"type":"Point","coordinates":[-104.9596,38.5164]},"properties":{"s":25.9,"pub":false}},{"type":"Feature","geometry":{"type":"Point","coordinates":[-104.9596,38.5222]},"properties":{"s":25.9,"pub":false}},{"type":"Feature","geometry":{"type":"Point","coordinates":[-104.9596,38.528]},"properties":{"s":25.9,"pub":false}},{"type":"Feature","geometry":{"type":"Point","coordinates":[-104.9596,38.5338]},"properties":{"s":25.9,"pub":false}},{"type":"Feature","geometry":{"type":"Point","coordinates":[-104.9596,38.5396]},"properties":{"s":25.9,"pub":false}},{"type":"Feature","geometry":{"type":"Point","coordinates":[-104.9521,38.4236]},"properties":{"s":25.9,"pub":false}},{"type":"Feature","geometry":{"type":"Point","coordinates":[-104.9521,38.4294]},"properties":{"s":25.9,"pub":false}},{"type":"Feature","geometry":{"type":"Point","coordinates":[-104.9521,38.4352]},"properties":{"s":25.9,"pub":false}},{"type":"Feature","geometry":{"type":"Point","coordinates":[-104.9521,38.441]},"properties":{"s":25.9,"pub":false}},{"type":"Feature","geometry":{"type":"Point","coordinates":[-104.9521,38.4468]},"properties":{"s":25.9,"pub":false}},{"type":"Feature","geometry":{"type":"Point","coordinates":[-104.9521,38.4526]},"properties":{"s":25.9,"pub":false}},{"type":"Feature","geometry":{"type":"Point","coordinates":[-104.9521,38.4584]},"properties":{"s":25.9,"pub":false}},{"type":"Feature","geometry":{"type":"Point","coordinates":[-104.9521,38.4642]},"properties":{"s":25.9,"pub":false}},{"type":"Feature","geometry":{"type":"Point","coordinates":[-104.9521,38.47]},"properties":{"s":25.9,"pub":false}},{"type":"Feature","geometry":{"type":"Point","coordinates":[-104.9521,38.4758]},"properties":{"s":25.9,"pub":false}},{"type":"Feature","geometry":{"type":"Point","coordinates":[-104.9521,38.4816]},"properties":{"s":25.9,"pub":false}},{"type":"Feature","geometry":{"type":"Point","coordinates":[-104.9521,38.499]},"properties":{"s":25.9,"pub":false}},{"type":"Feature","geometry":{"type":"Point","coordinates":[-104.9521,38.5048]},"properties":{"s":25.9,"pub":false}},{"type":"Feature","geometry":{"type":"Point","coordinates":[-104.9521,38.5106]},"properties":{"s":25.9,"pub":false}},{"type":"Feature","geometry":{"type":"Point","coordinates":[-104.9521,38.5164]},"properties":{"s":25.9,"pub":false}},{"type":"Feature","geometry":{"type":"Point","coordinates":[-104.9521,38.5222]},"properties":{"s":25.9,"pub":false}},{"type":"Feature","geometry":{"type":"Point","coordinates":[-104.9521,38.528]},"properties":{"s":25.9,"pub":false}},{"type":"Feature","geometry":{"type":"Point","coordinates":[-104.9521,38.5338]},"properties":{"s":25.9,"pub":false}},{"type":"Feature","geometry":{"type":"Point","coordinates":[-104.9521,38.5396]},"properties":{"s":25.9,"pub":false}},{"type":"Feature","geometry":{"type":"Point","coordinates":[-104.9521,38.5454]},"properties":{"s":25.9,"pub":false}},{"type":"Feature","geometry":{"type":"Point","coordinates":[-104.9446,38.4236]},"properties":{"s":25.9,"pub":false}},{"type":"Feature","geometry":{"type":"Point","coordinates":[-104.9446,38.4294]},"properties":{"s":25.9,"pub":false}},{"type":"Feature","geometry":{"type":"Point","coordinates":[-104.9446,38.4352]},"properties":{"s":25.9,"pub":false}},{"type":"Feature","geometry":{"type":"Point","coordinates":[-104.9446,38.441]},"properties":{"s":25.9,"pub":false}},{"type":"Feature","geometry":{"type":"Point","coordinates":[-104.9446,38.4468]},"properties":{"s":25.9,"pub":false}},{"type":"Feature","geometry":{"type":"Point","coordinates":[-104.9446,38.4526]},"properties":{"s":25.9,"pub":false}},{"type":"Feature","geometry":{"type":"Point","coordinates":[-104.9446,38.4584]},"properties":{"s":25.9,"pub":false}},{"type":"Feature","geometry":{"type":"Point","coordinates":[-104.9446,38.4642]},"properties":{"s":25.9,"pub":false}},{"type":"Feature","geometry":{"type":"Point","coordinates":[-104.9446,38.47]},"properties":{"s":25.9,"pub":false}},{"type":"Feature","geometry":{"type":"Point","coordinates":[-104.9446,38.4758]},"properties":{"s":25.9,"pub":false}},{"type":"Feature","geometry":{"type":"Point","coordinates":[-104.9446,38.4816]},"properties":{"s":25.9,"pub":false}},{"type":"Feature","geometry":{"type":"Point","coordinates":[-104.9446,38.4874]},"properties":{"s":25.9,"pub":false}},{"type":"Feature","geometry":{"type":"Point","coordinates":[-104.9446,38.4932]},"properties":{"s":25.9,"pub":false}},{"type":"Feature","geometry":{"type":"Point","coordinates":[-104.9446,38.499]},"properties":{"s":25.9,"pub":false}},{"type":"Feature","geometry":{"type":"Point","coordinates":[-104.9446,38.5048]},"properties":{"s":25.9,"pub":false}},{"type":"Feature","geometry":{"type":"Point","coordinates":[-104.9446,38.5106]},"properties":{"s":25.9,"pub":false}},{"type":"Feature","geometry":{"type":"Point","coordinates":[-104.9446,38.5164]},"properties":{"s":25.9,"pub":false}},{"type":"Feature","geometry":{"type":"Point","coordinates":[-104.9446,38.5222]},"properties":{"s":25.9,"pub":false}},{"type":"Feature","geometry":{"type":"Point","coordinates":[-104.9446,38.528]},"properties":{"s":25.9,"pub":false}},{"type":"Feature","geometry":{"type":"Point","coordinates":[-104.9446,38.5338]},"properties":{"s":25.9,"pub":false}},{"type":"Feature","geometry":{"type":"Point","coordinates":[-104.9446,38.5396]},"properties":{"s":25.9,"pub":false}},{"type":"Feature","geometry":{"type":"Point","coordinates":[-104.9446,38.5454]},"properties":{"s":25.9,"pub":false}},{"type":"Feature","geometry":{"type":"Point","coordinates":[-104.9446,38.5512]},"properties":{"s":25.9,"pub":false}},{"type":"Feature","geometry":{"type":"Point","coordinates":[-104.9446,38.557]},"properties":{"s":25.9,"pub":false}},{"type":"Feature","geometry":{"type":"Point","coordinates":[-104.9371,38.4236]},"properties":{"s":25.9,"pub":false}},{"type":"Feature","geometry":{"type":"Point","coordinates":[-104.9371,38.4294]},"properties":{"s":25.9,"pub":false}},{"type":"Feature","geometry":{"type":"Point","coordinates":[-104.9371,38.4352]},"properties":{"s":25.9,"pub":false}},{"type":"Feature","geometry":{"type":"Point","coordinates":[-104.9371,38.441]},"properties":{"s":25.9,"pub":false}},{"type":"Feature","geometry":{"type":"Point","coordinates":[-104.9371,38.4468]},"properties":{"s":25.9,"pub":false}},{"type":"Feature","geometry":{"type":"Point","coordinates":[-104.9371,38.4526]},"properties":{"s":25.9,"pub":false}},{"type":"Feature","geometry":{"type":"Point","coordinates":[-104.9371,38.4584]},"properties":{"s":25.9,"pub":false}},{"type":"Feature","geometry":{"type":"Point","coordinates":[-104.9371,38.4642]},"properties":{"s":25.9,"pub":false}},{"type":"Feature","geometry":{"type":"Point","coordinates":[-104.9371,38.47]},"properties":{"s":25.9,"pub":false}},{"type":"Feature","geometry":{"type":"Point","coordinates":[-104.9371,38.4758]},"properties":{"s":25.9,"pub":false}},{"type":"Feature","geometry":{"type":"Point","coordinates":[-104.9371,38.4816]},"properties":{"s":25.9,"pub":false}},{"type":"Feature","geometry":{"type":"Point","coordinates":[-104.9371,38.4874]},"properties":{"s":25.9,"pub":false}},{"type":"Feature","geometry":{"type":"Point","coordinates":[-104.9371,38.4932]},"properties":{"s":25.9,"pub":false}},{"type":"Feature","geometry":{"type":"Point","coordinates":[-104.9371,38.499]},"properties":{"s":25.9,"pub":false}},{"type":"Feature","geometry":{"type":"Point","coordinates":[-104.9371,38.5048]},"properties":{"s":25.9,"pub":false}},{"type":"Feature","geometry":{"type":"Point","coordinates":[-104.9371,38.5106]},"properties":{"s":25.9,"pub":false}},{"type":"Feature","geometry":{"type":"Point","coordinates":[-104.9371,38.5164]},"properties":{"s":25.9,"pub":false}},{"type":"Feature","geometry":{"type":"Point","coordinates":[-104.9371,38.5222]},"properties":{"s":25.9,"pub":false}},{"type":"Feature","geometry":{"type":"Point","coordinates":[-104.9371,38.528]},"properties":{"s":25.9,"pub":false}},{"type":"Feature","geometry":{"type":"Point","coordinates":[-104.9371,38.5338]},"properties":{"s":25.9,"pub":false}},{"type":"Feature","geometry":{"type":"Point","coordinates":[-104.9371,38.5396]},"properties":{"s":25.9,"pub":false}},{"type":"Feature","geometry":{"type":"Point","coordinates":[-104.9371,38.5454]},"properties":{"s":25.9,"pub":false}},{"type":"Feature","geometry":{"type":"Point","coordinates":[-104.9371,38.5512]},"properties":{"s":25.9,"pub":false}},{"type":"Feature","geometry":{"type":"Point","coordinates":[-104.9371,38.557]},"properties":{"s":25.9,"pub":false}},{"type":"Feature","geometry":{"type":"Point","coordinates":[-104.9371,38.5628]},"properties":{"s":25.9,"pub":false}},{"type":"Feature","geometry":{"type":"Point","coordinates":[-104.9371,38.5686]},"properties":{"s":25.9,"pub":false}},{"type":"Feature","geometry":{"type":"Point","coordinates":[-104.9296,38.4352]},"properties":{"s":25.9,"pub":false}},{"type":"Feature","geometry":{"type":"Point","coordinates":[-104.9296,38.441]},"properties":{"s":25.9,"pub":false}},{"type":"Feature","geometry":{"type":"Point","coordinates":[-104.9296,38.4468]},"properties":{"s":25.9,"pub":false}},{"type":"Feature","geometry":{"type":"Point","coordinates":[-104.9296,38.4526]},"properties":{"s":25.9,"pub":false}},{"type":"Feature","geometry":{"type":"Point","coordinates":[-104.9296,38.4584]},"properties":{"s":25.9,"pub":false}},{"type":"Feature","geometry":{"type":"Point","coordinates":[-104.9296,38.4642]},"properties":{"s":25.9,"pub":false}},{"type":"Feature","geometry":{"type":"Point","coordinates":[-104.9296,38.47]},"properties":{"s":25.9,"pub":false}},{"type":"Feature","geometry":{"type":"Point","coordinates":[-104.9296,38.4758]},"properties":{"s":25.9,"pub":false}},{"type":"Feature","geometry":{"type":"Point","coordinates":[-104.9296,38.4816]},"properties":{"s":25.9,"pub":false}},{"type":"Feature","geometry":{"type":"Point","coordinates":[-104.9296,38.4874]},"properties":{"s":25.9,"pub":false}},{"type":"Feature","geometry":{"type":"Point","coordinates":[-104.9296,38.4932]},"properties":{"s":25.9,"pub":false}},{"type":"Feature","geometry":{"type":"Point","coordinates":[-104.9296,38.499]},"properties":{"s":25.9,"pub":false}},{"type":"Feature","geometry":{"type":"Point","coordinates":[-104.9296,38.5048]},"properties":{"s":25.9,"pub":false}},{"type":"Feature","geometry":{"type":"Point","coordinates":[-104.9296,38.5106]},"properties":{"s":25.9,"pub":false}},{"type":"Feature","geometry":{"type":"Point","coordinates":[-104.9296,38.5164]},"properties":{"s":25.9,"pub":false}},{"type":"Feature","geometry":{"type":"Point","coordinates":[-104.9296,38.5222]},"properties":{"s":25.9,"pub":false}},{"type":"Feature","geometry":{"type":"Point","coordinates":[-104.9296,38.528]},"properties":{"s":25.9,"pub":false}},{"type":"Feature","geometry":{"type":"Point","coordinates":[-104.9296,38.5338]},"properties":{"s":25.9,"pub":false}},{"type":"Feature","geometry":{"type":"Point","coordinates":[-104.9296,38.5396]},"properties":{"s":25.9,"pub":false}},{"type":"Feature","geometry":{"type":"Point","coordinates":[-104.9296,38.5454]},"properties":{"s":25.9,"pub":false}},{"type":"Feature","geometry":{"type":"Point","coordinates":[-104.9296,38.5512]},"properties":{"s":25.9,"pub":false}},{"type":"Feature","geometry":{"type":"Point","coordinates":[-104.9296,38.557]},"properties":{"s":25.9,"pub":false}},{"type":"Feature","geometry":{"type":"Point","coordinates":[-104.9296,38.5628]},"properties":{"s":25.9,"pub":false}},{"type":"Feature","geometry":{"type":"Point","coordinates":[-104.9296,38.5686]},"properties":{"s":25.9,"pub":false}},{"type":"Feature","geometry":{"type":"Point","coordinates":[-104.9296,38.5744]},"properties":{"s":25.9,"pub":false}},{"type":"Feature","geometry":{"type":"Point","coordinates":[-104.9221,38.4352]},"properties":{"s":25.9,"pub":false}},{"type":"Feature","geometry":{"type":"Point","coordinates":[-104.9221,38.441]},"properties":{"s":25.9,"pub":false}},{"type":"Feature","geometry":{"type":"Point","coordinates":[-104.9221,38.4468]},"properties":{"s":25.9,"pub":false}},{"type":"Feature","geometry":{"type":"Point","coordinates":[-104.9221,38.4526]},"properties":{"s":25.9,"pub":false}},{"type":"Feature","geometry":{"type":"Point","coordinates":[-104.9221,38.4584]},"properties":{"s":25.9,"pub":false}},{"type":"Feature","geometry":{"type":"Point","coordinates":[-104.9221,38.4642]},"properties":{"s":25.9,"pub":false}},{"type":"Feature","geometry":{"type":"Point","coordinates":[-104.9221,38.47]},"properties":{"s":25.9,"pub":false}},{"type":"Feature","geometry":{"type":"Point","coordinates":[-104.9221,38.4758]},"properties":{"s":25.9,"pub":false}},{"type":"Feature","geometry":{"type":"Point","coordinates":[-104.9221,38.4816]},"properties":{"s":25.9,"pub":false}},{"type":"Feature","geometry":{"type":"Point","coordinates":[-104.9221,38.4874]},"properties":{"s":25.9,"pub":false}},{"type":"Feature","geometry":{"type":"Point","coordinates":[-104.9221,38.4932]},"properties":{"s":25.9,"pub":false}},{"type":"Feature","geometry":{"type":"Point","coordinates":[-104.9221,38.499]},"properties":{"s":25.9,"pub":false}},{"type":"Feature","geometry":{"type":"Point","coordinates":[-104.9221,38.5048]},"properties":{"s":25.9,"pub":false}},{"type":"Feature","geometry":{"type":"Point","coordinates":[-104.9221,38.5106]},"properties":{"s":25.9,"pub":false}},{"type":"Feature","geometry":{"type":"Point","coordinates":[-104.9221,38.5164]},"properties":{"s":25.9,"pub":false}},{"type":"Feature","geometry":{"type":"Point","coordinates":[-104.9221,38.5222]},"properties":{"s":25.9,"pub":false}},{"type":"Feature","geometry":{"type":"Point","coordinates":[-104.9221,38.528]},"properties":{"s":25.9,"pub":false}},{"type":"Feature","geometry":{"type":"Point","coordinates":[-104.9221,38.5338]},"properties":{"s":25.9,"pub":false}},{"type":"Feature","geometry":{"type":"Point","coordinates":[-104.9221,38.5396]},"properties":{"s":25.9,"pub":false}},{"type":"Feature","geometry":{"type":"Point","coordinates":[-104.9221,38.5454]},"properties":{"s":25.9,"pub":false}},{"type":"Feature","geometry":{"type":"Point","coordinates":[-104.9221,38.5512]},"properties":{"s":25.9,"pub":false}},{"type":"Feature","geometry":{"type":"Point","coordinates":[-104.9221,38.557]},"properties":{"s":25.9,"pub":false}},{"type":"Feature","geometry":{"type":"Point","coordinates":[-104.9221,38.5628]},"properties":{"s":25.9,"pub":false}},{"type":"Feature","geometry":{"type":"Point","coordinates":[-104.9221,38.5686]},"properties":{"s":25.9,"pub":false}},{"type":"Feature","geometry":{"type":"Point","coordinates":[-104.9221,38.5744]},"properties":{"s":25.9,"pub":false}},{"type":"Feature","geometry":{"type":"Point","coordinates":[-104.9221,38.5802]},"properties":{"s":25.9,"pub":false}},{"type":"Feature","geometry":{"type":"Point","coordinates":[-104.9146,38.4352]},"properties":{"s":25.9,"pub":false}},{"type":"Feature","geometry":{"type":"Point","coordinates":[-104.9146,38.441]},"properties":{"s":25.9,"pub":false}},{"type":"Feature","geometry":{"type":"Point","coordinates":[-104.9146,38.4468]},"properties":{"s":25.9,"pub":false}},{"type":"Feature","geometry":{"type":"Point","coordinates":[-104.9146,38.4526]},"properties":{"s":25.9,"pub":false}},{"type":"Feature","geometry":{"type":"Point","coordinates":[-104.9146,38.4584]},"properties":{"s":25.9,"pub":false}},{"type":"Feature","geometry":{"type":"Point","coordinates":[-104.9146,38.4642]},"properties":{"s":25.9,"pub":false}},{"type":"Feature","geometry":{"type":"Point","coordinates":[-104.9146,38.47]},"properties":{"s":25.9,"pub":false}},{"type":"Feature","geometry":{"type":"Point","coordinates":[-104.9146,38.4758]},"properties":{"s":25.9,"pub":false}},{"type":"Feature","geometry":{"type":"Point","coordinates":[-104.9146,38.4816]},"properties":{"s":25.9,"pub":false}},{"type":"Feature","geometry":{"type":"Point","coordinates":[-104.9146,38.4874]},"properties":{"s":25.9,"pub":false}},{"type":"Feature","geometry":{"type":"Point","coordinates":[-104.9146,38.4932]},"properties":{"s":25.9,"pub":false}},{"type":"Feature","geometry":{"type":"Point","coordinates":[-104.9146,38.499]},"properties":{"s":25.9,"pub":false}},{"type":"Feature","geometry":{"type":"Point","coordinates":[-104.9146,38.5048]},"properties":{"s":25.9,"pub":false}},{"type":"Feature","geometry":{"type":"Point","coordinates":[-104.9146,38.5106]},"properties":{"s":25.9,"pub":false}},{"type":"Feature","geometry":{"type":"Point","coordinates":[-104.9146,38.5164]},"properties":{"s":25.9,"pub":false}},{"type":"Feature","geometry":{"type":"Point","coordinates":[-104.9146,38.5222]},"properties":{"s":25.9,"pub":false}},{"type":"Feature","geometry":{"type":"Point","coordinates":[-104.9146,38.528]},"properties":{"s":25.9,"pub":false}},{"type":"Feature","geometry":{"type":"Point","coordinates":[-104.9146,38.5338]},"properties":{"s":25.9,"pub":false}},{"type":"Feature","geometry":{"type":"Point","coordinates":[-104.9146,38.5396]},"properties":{"s":25.9,"pub":false}},{"type":"Feature","geometry":{"type":"Point","coordinates":[-104.9146,38.5454]},"properties":{"s":25.9,"pub":false}},{"type":"Feature","geometry":{"type":"Point","coordinates":[-104.9146,38.5512]},"properties":{"s":25.9,"pub":false}},{"type":"Feature","geometry":{"type":"Point","coordinates":[-104.9146,38.557]},"properties":{"s":25.9,"pub":false}},{"type":"Feature","geometry":{"type":"Point","coordinates":[-104.9146,38.5628]},"properties":{"s":25.9,"pub":false}},{"type":"Feature","geometry":{"type":"Point","coordinates":[-104.9146,38.5686]},"properties":{"s":25.9,"pub":false}},{"type":"Feature","geometry":{"type":"Point","coordinates":[-104.9146,38.5744]},"properties":{"s":25.9,"pub":false}},{"type":"Feature","geometry":{"type":"Point","coordinates":[-104.9146,38.5802]},"properties":{"s":25.9,"pub":false}},{"type":"Feature","geometry":{"type":"Point","coordinates":[-104.9146,38.586]},"properties":{"s":25.9,"pub":false}},{"type":"Feature","geometry":{"type":"Point","coordinates":[-104.9071,38.4352]},"properties":{"s":25.9,"pub":false}},{"type":"Feature","geometry":{"type":"Point","coordinates":[-104.9071,38.441]},"properties":{"s":25.9,"pub":false}},{"type":"Feature","geometry":{"type":"Point","coordinates":[-104.9071,38.4468]},"properties":{"s":25.9,"pub":false}},{"type":"Feature","geometry":{"type":"Point","coordinates":[-104.9071,38.4526]},"properties":{"s":25.9,"pub":false}},{"type":"Feature","geometry":{"type":"Point","coordinates":[-104.9071,38.4584]},"properties":{"s":25.9,"pub":false}},{"type":"Feature","geometry":{"type":"Point","coordinates":[-104.9071,38.4642]},"properties":{"s":25.9,"pub":false}},{"type":"Feature","geometry":{"type":"Point","coordinates":[-104.9071,38.47]},"properties":{"s":25.9,"pub":false}},{"type":"Feature","geometry":{"type":"Point","coordinates":[-104.9071,38.4758]},"properties":{"s":25.9,"pub":false}},{"type":"Feature","geometry":{"type":"Point","coordinates":[-104.9071,38.4816]},"properties":{"s":25.9,"pub":false}},{"type":"Feature","geometry":{"type":"Point","coordinates":[-104.9071,38.4874]},"properties":{"s":25.9,"pub":false}},{"type":"Feature","geometry":{"type":"Point","coordinates":[-104.9071,38.4932]},"properties":{"s":25.9,"pub":false}},{"type":"Feature","geometry":{"type":"Point","coordinates":[-104.9071,38.499]},"properties":{"s":25.9,"pub":false}},{"type":"Feature","geometry":{"type":"Point","coordinates":[-104.9071,38.5048]},"properties":{"s":25.9,"pub":false}},{"type":"Feature","geometry":{"type":"Point","coordinates":[-104.9071,38.5106]},"properties":{"s":25.9,"pub":false}},{"type":"Feature","geometry":{"type":"Point","coordinates":[-104.9071,38.5164]},"properties":{"s":70.4,"pub":false}},{"type":"Feature","geometry":{"type":"Point","coordinates":[-104.9071,38.5222]},"properties":{"s":70.4,"pub":false}},{"type":"Feature","geometry":{"type":"Point","coordinates":[-104.9071,38.528]},"properties":{"s":70.4,"pub":false}},{"type":"Feature","geometry":{"type":"Point","coordinates":[-104.9071,38.5338]},"properties":{"s":70.4,"pub":false}},{"type":"Feature","geometry":{"type":"Point","coordinates":[-104.9071,38.5396]},"properties":{"s":70.4,"pub":false}},{"type":"Feature","geometry":{"type":"Point","coordinates":[-104.9071,38.5454]},"properties":{"s":70.4,"pub":false}},{"type":"Feature","geometry":{"type":"Point","coordinates":[-104.9071,38.5512]},"properties":{"s":25.9,"pub":false}},{"type":"Feature","geometry":{"type":"Point","coordinates":[-104.9071,38.557]},"properties":{"s":25.9,"pub":false}},{"type":"Feature","geometry":{"type":"Point","coordinates":[-104.9071,38.5628]},"properties":{"s":25.9,"pub":false}},{"type":"Feature","geometry":{"type":"Point","coordinates":[-104.9071,38.5686]},"properties":{"s":25.9,"pub":false}},{"type":"Feature","geometry":{"type":"Point","coordinates":[-104.9071,38.5744]},"properties":{"s":25.9,"pub":false}},{"type":"Feature","geometry":{"type":"Point","coordinates":[-104.9071,38.5802]},"properties":{"s":25.9,"pub":false}},{"type":"Feature","geometry":{"type":"Point","coordinates":[-104.9071,38.586]},"properties":{"s":25.9,"pub":false}},{"type":"Feature","geometry":{"type":"Point","coordinates":[-104.9071,38.5918]},"properties":{"s":25.9,"pub":false}},{"type":"Feature","geometry":{"type":"Point","coordinates":[-104.9071,38.5976]},"properties":{"s":25.9,"pub":false}},{"type":"Feature","geometry":{"type":"Point","coordinates":[-104.8996,38.441]},"properties":{"s":25.9,"pub":false}},{"type":"Feature","geometry":{"type":"Point","coordinates":[-104.8996,38.4468]},"properties":{"s":25.9,"pub":false}},{"type":"Feature","geometry":{"type":"Point","coordinates":[-104.8996,38.4526]},"properties":{"s":25.9,"pub":false}},{"type":"Feature","geometry":{"type":"Point","coordinates":[-104.8996,38.4584]},"properties":{"s":25.9,"pub":false}},{"type":"Feature","geometry":{"type":"Point","coordinates":[-104.8996,38.4642]},"properties":{"s":25.9,"pub":false}},{"type":"Feature","geometry":{"type":"Point","coordinates":[-104.8996,38.47]},"properties":{"s":25.9,"pub":false}},{"type":"Feature","geometry":{"type":"Point","coordinates":[-104.8996,38.4758]},"properties":{"s":25.9,"pub":false}},{"type":"Feature","geometry":{"type":"Point","coordinates":[-104.8996,38.4816]},"properties":{"s":25.9,"pub":false}},{"type":"Feature","geometry":{"type":"Point","coordinates":[-104.8996,38.4874]},"properties":{"s":25.9,"pub":false}},{"type":"Feature","geometry":{"type":"Point","coordinates":[-104.8996,38.4932]},"properties":{"s":25.9,"pub":false}},{"type":"Feature","geometry":{"type":"Point","coordinates":[-104.8996,38.499]},"properties":{"s":25.9,"pub":false}},{"type":"Feature","geometry":{"type":"Point","coordinates":[-104.8996,38.5048]},"properties":{"s":70.4,"pub":false}},{"type":"Feature","geometry":{"type":"Point","coordinates":[-104.8996,38.5106]},"properties":{"s":70.4,"pub":false}},{"type":"Feature","geometry":{"type":"Point","coordinates":[-104.8996,38.5164]},"properties":{"s":70.4,"pub":false}},{"type":"Feature","geometry":{"type":"Point","coordinates":[-104.8996,38.5222]},"properties":{"s":70.4,"pub":false}},{"type":"Feature","geometry":{"type":"Point","coordinates":[-104.8996,38.528]},"properties":{"s":70.4,"pub":false}},{"type":"Feature","geometry":{"type":"Point","coordinates":[-104.8996,38.5338]},"properties":{"s":70.4,"pub":false}},{"type":"Feature","geometry":{"type":"Point","coordinates":[-104.8996,38.5396]},"properties":{"s":70.4,"pub":false}},{"type":"Feature","geometry":{"type":"Point","coordinates":[-104.8996,38.5454]},"properties":{"s":70.4,"pub":false}},{"type":"Feature","geometry":{"type":"Point","coordinates":[-104.8996,38.5512]},"properties":{"s":70.4,"pub":false}},{"type":"Feature","geometry":{"type":"Point","coordinates":[-104.8996,38.557]},"properties":{"s":25.9,"pub":false}},{"type":"Feature","geometry":{"type":"Point","coordinates":[-104.8996,38.5628]},"properties":{"s":25.9,"pub":false}},{"type":"Feature","geometry":{"type":"Point","coordinates":[-104.8996,38.5686]},"properties":{"s":25.9,"pub":false}},{"type":"Feature","geometry":{"type":"Point","coordinates":[-104.8996,38.5744]},"properties":{"s":25.9,"pub":false}},{"type":"Feature","geometry":{"type":"Point","coordinates":[-104.8996,38.5802]},"properties":{"s":25.9,"pub":false}},{"type":"Feature","geometry":{"type":"Point","coordinates":[-104.8996,38.586]},"properties":{"s":25.9,"pub":false}},{"type":"Feature","geometry":{"type":"Point","coordinates":[-104.8996,38.5918]},"properties":{"s":25.9,"pub":false}},{"type":"Feature","geometry":{"type":"Point","coordinates":[-104.8996,38.5976]},"properties":{"s":25.9,"pub":false}},{"type":"Feature","geometry":{"type":"Point","coordinates":[-104.8996,38.6034]},"properties":{"s":25.9,"pub":false}},{"type":"Feature","geometry":{"type":"Point","coordinates":[-104.8921,38.4526]},"properties":{"s":25.9,"pub":false}},{"type":"Feature","geometry":{"type":"Point","coordinates":[-104.8921,38.4584]},"properties":{"s":25.9,"pub":false}},{"type":"Feature","geometry":{"type":"Point","coordinates":[-104.8921,38.4642]},"properties":{"s":25.9,"pub":false}},{"type":"Feature","geometry":{"type":"Point","coordinates":[-104.8921,38.47]},"properties":{"s":25.9,"pub":false}},{"type":"Feature","geometry":{"type":"Point","coordinates":[-104.8921,38.4758]},"properties":{"s":25.9,"pub":false}},{"type":"Feature","geometry":{"type":"Point","coordinates":[-104.8921,38.4816]},"properties":{"s":25.9,"pub":false}},{"type":"Feature","geometry":{"type":"Point","coordinates":[-104.8921,38.4874]},"properties":{"s":25.9,"pub":false}},{"type":"Feature","geometry":{"type":"Point","coordinates":[-104.8921,38.4932]},"properties":{"s":70.4,"pub":false}},{"type":"Feature","geometry":{"type":"Point","coordinates":[-104.8921,38.499]},"properties":{"s":70.4,"pub":false}},{"type":"Feature","geometry":{"type":"Point","coordinates":[-104.8921,38.5048]},"properties":{"s":70.4,"pub":false}},{"type":"Feature","geometry":{"type":"Point","coordinates":[-104.8921,38.5106]},"properties":{"s":70.4,"pub":false}},{"type":"Feature","geometry":{"type":"Point","coordinates":[-104.8921,38.5164]},"properties":{"s":70.4,"pub":false}},{"type":"Feature","geometry":{"type":"Point","coordinates":[-104.8921,38.5222]},"properties":{"s":70.4,"pub":false}},{"type":"Feature","geometry":{"type":"Point","coordinates":[-104.8921,38.528]},"properties":{"s":70.4,"pub":false}},{"type":"Feature","geometry":{"type":"Point","coordinates":[-104.8921,38.5338]},"properties":{"s":70.4,"pub":false}},{"type":"Feature","geometry":{"type":"Point","coordinates":[-104.8921,38.5396]},"properties":{"s":70.4,"pub":false}},{"type":"Feature","geometry":{"type":"Point","coordinates":[-104.8921,38.5454]},"properties":{"s":70.4,"pub":false}},{"type":"Feature","geometry":{"type":"Point","coordinates":[-104.8921,38.5512]},"properties":{"s":70.4,"pub":false}},{"type":"Feature","geometry":{"type":"Point","coordinates":[-104.8921,38.557]},"properties":{"s":70.4,"pub":false}},{"type":"Feature","geometry":{"type":"Point","coordinates":[-104.8921,38.5628]},"properties":{"s":25.9,"pub":false}},{"type":"Feature","geometry":{"type":"Point","coordinates":[-104.8921,38.5686]},"properties":{"s":25.9,"pub":false}},{"type":"Feature","geometry":{"type":"Point","coordinates":[-104.8921,38.5744]},"properties":{"s":25.9,"pub":false}},{"type":"Feature","geometry":{"type":"Point","coordinates":[-104.8921,38.5802]},"properties":{"s":25.9,"pub":false}},{"type":"Feature","geometry":{"type":"Point","coordinates":[-104.8921,38.586]},"properties":{"s":25.9,"pub":false}},{"type":"Feature","geometry":{"type":"Point","coordinates":[-104.8921,38.5918]},"properties":{"s":25.9,"pub":false}},{"type":"Feature","geometry":{"type":"Point","coordinates":[-104.8921,38.5976]},"properties":{"s":25.9,"pub":false}},{"type":"Feature","geometry":{"type":"Point","coordinates":[-104.8921,38.6034]},"properties":{"s":25.9,"pub":false}},{"type":"Feature","geometry":{"type":"Point","coordinates":[-104.8921,38.6092]},"properties":{"s":25.9,"pub":false}},{"type":"Feature","geometry":{"type":"Point","coordinates":[-104.8846,38.4584]},"properties":{"s":25.9,"pub":false}},{"type":"Feature","geometry":{"type":"Point","coordinates":[-104.8846,38.4642]},"properties":{"s":25.9,"pub":false}},{"type":"Feature","geometry":{"type":"Point","coordinates":[-104.8846,38.47]},"properties":{"s":25.9,"pub":false}},{"type":"Feature","geometry":{"type":"Point","coordinates":[-104.8846,38.4758]},"properties":{"s":25.9,"pub":false}},{"type":"Feature","geometry":{"type":"Point","coordinates":[-104.8846,38.4816]},"properties":{"s":25.9,"pub":false}},{"type":"Feature","geometry":{"type":"Point","coordinates":[-104.8846,38.4874]},"properties":{"s":70.4,"pub":false}},{"type":"Feature","geometry":{"type":"Point","coordinates":[-104.8846,38.4932]},"properties":{"s":70.4,"pub":false}},{"type":"Feature","geometry":{"type":"Point","coordinates":[-104.8846,38.499]},"properties":{"s":70.4,"pub":false}},{"type":"Feature","geometry":{"type":"Point","coordinates":[-104.8846,38.5048]},"properties":{"s":70.4,"pub":false}},{"type":"Feature","geometry":{"type":"Point","coordinates":[-104.8846,38.5106]},"properties":{"s":70.4,"pub":false}},{"type":"Feature","geometry":{"type":"Point","coordinates":[-104.8846,38.5164]},"properties":{"s":70.4,"pub":false}},{"type":"Feature","geometry":{"type":"Point","coordinates":[-104.8846,38.5222]},"properties":{"s":70.4,"pub":false}},{"type":"Feature","geometry":{"type":"Point","coordinates":[-104.8846,38.528]},"properties":{"s":70.4,"pub":false}},{"type":"Feature","geometry":{"type":"Point","coordinates":[-104.8846,38.5338]},"properties":{"s":70.4,"pub":false}},{"type":"Feature","geometry":{"type":"Point","coordinates":[-104.8846,38.5396]},"properties":{"s":70.4,"pub":false}},{"type":"Feature","geometry":{"type":"Point","coordinates":[-104.8846,38.5454]},"properties":{"s":70.4,"pub":false}},{"type":"Feature","geometry":{"type":"Point","coordinates":[-104.8846,38.5512]},"properties":{"s":70.4,"pub":false}},{"type":"Feature","geometry":{"type":"Point","coordinates":[-104.8846,38.557]},"properties":{"s":70.4,"pub":false}},{"type":"Feature","geometry":{"type":"Point","coordinates":[-104.8846,38.5628]},"properties":{"s":70.4,"pub":false}},{"type":"Feature","geometry":{"type":"Point","coordinates":[-104.8846,38.5686]},"properties":{"s":25.9,"pub":false}},{"type":"Feature","geometry":{"type":"Point","coordinates":[-104.8846,38.5744]},"properties":{"s":25.9,"pub":false}},{"type":"Feature","geometry":{"type":"Point","coordinates":[-104.8846,38.5802]},"properties":{"s":25.9,"pub":false}},{"type":"Feature","geometry":{"type":"Point","coordinates":[-104.8846,38.586]},"properties":{"s":25.9,"pub":false}},{"type":"Feature","geometry":{"type":"Point","coordinates":[-104.8846,38.5918]},"properties":{"s":25.9,"pub":false}},{"type":"Feature","geometry":{"type":"Point","coordinates":[-104.8846,38.5976]},"properties":{"s":25.9,"pub":false}},{"type":"Feature","geometry":{"type":"Point","coordinates":[-104.8846,38.6034]},"properties":{"s":25.9,"pub":false}},{"type":"Feature","geometry":{"type":"Point","coordinates":[-104.8846,38.6092]},"properties":{"s":25.9,"pub":false}},{"type":"Feature","geometry":{"type":"Point","coordinates":[-104.8846,38.615]},"properties":{"s":25.9,"pub":false}},{"type":"Feature","geometry":{"type":"Point","coordinates":[-104.8771,38.4642]},"properties":{"s":25.9,"pub":false}},{"type":"Feature","geometry":{"type":"Point","coordinates":[-104.8771,38.47]},"properties":{"s":70.4,"pub":false}},{"type":"Feature","geometry":{"type":"Point","coordinates":[-104.8771,38.4758]},"properties":{"s":70.4,"pub":false}},{"type":"Feature","geometry":{"type":"Point","coordinates":[-104.8771,38.4816]},"properties":{"s":70.4,"pub":false}},{"type":"Feature","geometry":{"type":"Point","coordinates":[-104.8771,38.4874]},"properties":{"s":70.4,"pub":false}},{"type":"Feature","geometry":{"type":"Point","coordinates":[-104.8771,38.4932]},"properties":{"s":70.4,"pub":false}},{"type":"Feature","geometry":{"type":"Point","coordinates":[-104.8771,38.499]},"properties":{"s":70.4,"pub":false}},{"type":"Feature","geometry":{"type":"Point","coordinates":[-104.8771,38.5048]},"properties":{"s":70.4,"pub":false}},{"type":"Feature","geometry":{"type":"Point","coordinates":[-104.8771,38.5106]},"properties":{"s":70.4,"pub":false}},{"type":"Feature","geometry":{"type":"Point","coordinates":[-104.8771,38.5164]},"properties":{"s":70.4,"pub":false}},{"type":"Feature","geometry":{"type":"Point","coordinates":[-104.8771,38.5222]},"properties":{"s":70.4,"pub":false}},{"type":"Feature","geometry":{"type":"Point","coordinates":[-104.8771,38.528]},"properties":{"s":70.4,"pub":false}},{"type":"Feature","geometry":{"type":"Point","coordinates":[-104.8771,38.5338]},"properties":{"s":70.4,"pub":false}},{"type":"Feature","geometry":{"type":"Point","coordinates":[-104.8771,38.5396]},"properties":{"s":70.4,"pub":false}},{"type":"Feature","geometry":{"type":"Point","coordinates":[-104.8771,38.5454]},"properties":{"s":70.4,"pub":false}},{"type":"Feature","geometry":{"type":"Point","coordinates":[-104.8771,38.5512]},"properties":{"s":70.4,"pub":false}},{"type":"Feature","geometry":{"type":"Point","coordinates":[-104.8771,38.557]},"properties":{"s":100.0,"pub":false}},{"type":"Feature","geometry":{"type":"Point","coordinates":[-104.8771,38.5628]},"properties":{"s":100.0,"pub":false}},{"type":"Feature","geometry":{"type":"Point","coordinates":[-104.8771,38.5686]},"properties":{"s":70.4,"pub":false}},{"type":"Feature","geometry":{"type":"Point","coordinates":[-104.8771,38.5744]},"properties":{"s":70.4,"pub":false}},{"type":"Feature","geometry":{"type":"Point","coordinates":[-104.8771,38.5802]},"properties":{"s":25.9,"pub":false}},{"type":"Feature","geometry":{"type":"Point","coordinates":[-104.8771,38.586]},"properties":{"s":25.9,"pub":false}},{"type":"Feature","geometry":{"type":"Point","coordinates":[-104.8771,38.5918]},"properties":{"s":25.9,"pub":false}},{"type":"Feature","geometry":{"type":"Point","coordinates":[-104.8771,38.5976]},"properties":{"s":25.9,"pub":false}},{"type":"Feature","geometry":{"type":"Point","coordinates":[-104.8771,38.6034]},"properties":{"s":25.9,"pub":false}},{"type":"Feature","geometry":{"type":"Point","coordinates":[-104.8771,38.6092]},"properties":{"s":25.9,"pub":false}},{"type":"Feature","geometry":{"type":"Point","coordinates":[-104.8771,38.615]},"properties":{"s":25.9,"pub":false}},{"type":"Feature","geometry":{"type":"Point","coordinates":[-104.8771,38.6208]},"properties":{"s":25.9,"pub":false}},{"type":"Feature","geometry":{"type":"Point","coordinates":[-104.8696,38.4584]},"properties":{"s":70.4,"pub":false}},{"type":"Feature","geometry":{"type":"Point","coordinates":[-104.8696,38.4642]},"properties":{"s":70.4,"pub":false}},{"type":"Feature","geometry":{"type":"Point","coordinates":[-104.8696,38.47]},"properties":{"s":70.4,"pub":false}},{"type":"Feature","geometry":{"type":"Point","coordinates":[-104.8696,38.4758]},"properties":{"s":70.4,"pub":false}},{"type":"Feature","geometry":{"type":"Point","coordinates":[-104.8696,38.4816]},"properties":{"s":70.4,"pub":false}},{"type":"Feature","geometry":{"type":"Point","coordinates":[-104.8696,38.4874]},"properties":{"s":70.4,"pub":false}},{"type":"Feature","geometry":{"type":"Point","coordinates":[-104.8696,38.4932]},"properties":{"s":70.4,"pub":false}},{"type":"Feature","geometry":{"type":"Point","coordinates":[-104.8696,38.499]},"properties":{"s":70.4,"pub":false}},{"type":"Feature","geometry":{"type":"Point","coordinates":[-104.8696,38.5048]},"properties":{"s":70.4,"pub":false}},{"type":"Feature","geometry":{"type":"Point","coordinates":[-104.8696,38.5106]},"properties":{"s":70.4,"pub":false}},{"type":"Feature","geometry":{"type":"Point","coordinates":[-104.8696,38.5164]},"properties":{"s":70.4,"pub":false}},{"type":"Feature","geometry":{"type":"Point","coordinates":[-104.8696,38.5222]},"properties":{"s":70.4,"pub":false}},{"type":"Feature","geometry":{"type":"Point","coordinates":[-104.8696,38.528]},"properties":{"s":70.4,"pub":false}},{"type":"Feature","geometry":{"type":"Point","coordinates":[-104.8696,38.5338]},"properties":{"s":70.4,"pub":false}},{"type":"Feature","geometry":{"type":"Point","coordinates":[-104.8696,38.5396]},"properties":{"s":70.4,"pub":false}},{"type":"Feature","geometry":{"type":"Point","coordinates":[-104.8696,38.5454]},"properties":{"s":70.4,"pub":false}},{"type":"Feature","geometry":{"type":"Point","coordinates":[-104.8696,38.5512]},"properties":{"s":70.4,"pub":false}},{"type":"Feature","geometry":{"type":"Point","coordinates":[-104.8696,38.557]},"properties":{"s":100.0,"pub":false}},{"type":"Feature","geometry":{"type":"Point","coordinates":[-104.8696,38.5628]},"properties":{"s":100.0,"pub":false}},{"type":"Feature","geometry":{"type":"Point","coordinates":[-104.8696,38.5686]},"properties":{"s":100.0,"pub":false}},{"type":"Feature","geometry":{"type":"Point","coordinates":[-104.8696,38.5744]},"properties":{"s":70.4,"pub":false}},{"type":"Feature","geometry":{"type":"Point","coordinates":[-104.8696,38.5802]},"properties":{"s":70.4,"pub":false}},{"type":"Feature","geometry":{"type":"Point","coordinates":[-104.8696,38.586]},"properties":{"s":25.9,"pub":false}},{"type":"Feature","geometry":{"type":"Point","coordinates":[-104.8696,38.5918]},"properties":{"s":25.9,"pub":false}},{"type":"Feature","geometry":{"type":"Point","coordinates":[-104.8696,38.5976]},"properties":{"s":25.9,"pub":false}},{"type":"Feature","geometry":{"type":"Point","coordinates":[-104.8696,38.6034]},"properties":{"s":25.9,"pub":false}},{"type":"Feature","geometry":{"type":"Point","coordinates":[-104.8696,38.6092]},"properties":{"s":25.9,"pub":false}},{"type":"Feature","geometry":{"type":"Point","coordinates":[-104.8696,38.615]},"properties":{"s":25.9,"pub":false}},{"type":"Feature","geometry":{"type":"Point","coordinates":[-104.8696,38.6208]},"properties":{"s":70.4,"pub":false}},{"type":"Feature","geometry":{"type":"Point","coordinates":[-104.8696,38.6266]},"properties":{"s":70.4,"pub":false}},{"type":"Feature","geometry":{"type":"Point","coordinates":[-104.8696,38.6324]},"properties":{"s":70.4,"pub":false}},{"type":"Feature","geometry":{"type":"Point","coordinates":[-104.8621,38.4526]},"properties":{"s":70.4,"pub":false}},{"type":"Feature","geometry":{"type":"Point","coordinates":[-104.8621,38.4584]},"properties":{"s":70.4,"pub":false}},{"type":"Feature","geometry":{"type":"Point","coordinates":[-104.8621,38.4642]},"properties":{"s":70.4,"pub":false}},{"type":"Feature","geometry":{"type":"Point","coordinates":[-104.8621,38.47]},"properties":{"s":70.4,"pub":false}},{"type":"Feature","geometry":{"type":"Point","coordinates":[-104.8621,38.4758]},"properties":{"s":70.4,"pub":false}},{"type":"Feature","geometry":{"type":"Point","coordinates":[-104.8621,38.4816]},"properties":{"s":70.4,"pub":false}},{"type":"Feature","geometry":{"type":"Point","coordinates":[-104.8621,38.4874]},"properties":{"s":70.4,"pub":false}},{"type":"Feature","geometry":{"type":"Point","coordinates":[-104.8621,38.4932]},"properties":{"s":70.4,"pub":false}},{"type":"Feature","geometry":{"type":"Point","coordinates":[-104.8621,38.499]},"properties":{"s":70.4,"pub":false}},{"type":"Feature","geometry":{"type":"Point","coordinates":[-104.8621,38.5048]},"properties":{"s":70.4,"pub":false}},{"type":"Feature","geometry":{"type":"Point","coordinates":[-104.8621,38.5106]},"properties":{"s":70.4,"pub":false}},{"type":"Feature","geometry":{"type":"Point","coordinates":[-104.8621,38.5164]},"properties":{"s":70.4,"pub":false}},{"type":"Feature","geometry":{"type":"Point","coordinates":[-104.8621,38.5222]},"properties":{"s":70.4,"pub":false}},{"type":"Feature","geometry":{"type":"Point","coordinates":[-104.8621,38.528]},"properties":{"s":70.4,"pub":false}},{"type":"Feature","geometry":{"type":"Point","coordinates":[-104.8621,38.5338]},"properties":{"s":70.4,"pub":false}},{"type":"Feature","geometry":{"type":"Point","coordinates":[-104.8621,38.5396]},"properties":{"s":70.4,"pub":false}},{"type":"Feature","geometry":{"type":"Point","coordinates":[-104.8621,38.5454]},"properties":{"s":70.4,"pub":false}},{"type":"Feature","geometry":{"type":"Point","coordinates":[-104.8621,38.5512]},"properties":{"s":70.4,"pub":false}},{"type":"Feature","geometry":{"type":"Point","coordinates":[-104.8621,38.557]},"properties":{"s":100.0,"pub":false}},{"type":"Feature","geometry":{"type":"Point","coordinates":[-104.8621,38.5628]},"properties":{"s":100.0,"pub":false}},{"type":"Feature","geometry":{"type":"Point","coordinates":[-104.8621,38.5686]},"properties":{"s":100.0,"pub":false}},{"type":"Feature","geometry":{"type":"Point","coordinates":[-104.8621,38.5744]},"properties":{"s":70.4,"pub":false}},{"type":"Feature","geometry":{"type":"Point","coordinates":[-104.8621,38.5802]},"properties":{"s":70.4,"pub":false}},{"type":"Feature","geometry":{"type":"Point","coordinates":[-104.8621,38.586]},"properties":{"s":70.4,"pub":false}},{"type":"Feature","geometry":{"type":"Point","coordinates":[-104.8621,38.5918]},"properties":{"s":70.4,"pub":false}},{"type":"Feature","geometry":{"type":"Point","coordinates":[-104.8621,38.5976]},"properties":{"s":70.4,"pub":false}},{"type":"Feature","geometry":{"type":"Point","coordinates":[-104.8621,38.6034]},"properties":{"s":25.9,"pub":false}},{"type":"Feature","geometry":{"type":"Point","coordinates":[-104.8621,38.6092]},"properties":{"s":25.9,"pub":false}},{"type":"Feature","geometry":{"type":"Point","coordinates":[-104.8621,38.615]},"properties":{"s":70.4,"pub":false}},{"type":"Feature","geometry":{"type":"Point","coordinates":[-104.8621,38.6208]},"properties":{"s":70.4,"pub":false}},{"type":"Feature","geometry":{"type":"Point","coordinates":[-104.8621,38.6266]},"properties":{"s":70.4,"pub":false}},{"type":"Feature","geometry":{"type":"Point","coordinates":[-104.8621,38.6324]},"properties":{"s":70.4,"pub":false}},{"type":"Feature","geometry":{"type":"Point","coordinates":[-104.8621,38.6382]},"properties":{"s":70.4,"pub":false}},{"type":"Feature","geometry":{"type":"Point","coordinates":[-104.8621,38.644]},"properties":{"s":25.9,"pub":false}},{"type":"Feature","geometry":{"type":"Point","coordinates":[-104.8621,38.6498]},"properties":{"s":25.9,"pub":false}},{"type":"Feature","geometry":{"type":"Point","coordinates":[-104.8621,38.6556]},"properties":{"s":25.9,"pub":false}},{"type":"Feature","geometry":{"type":"Point","coordinates":[-104.8621,38.6614]},"properties":{"s":25.9,"pub":false}},{"type":"Feature","geometry":{"type":"Point","coordinates":[-104.8621,38.6672]},"properties":{"s":25.9,"pub":false}},{"type":"Feature","geometry":{"type":"Point","coordinates":[-104.8546,38.4468]},"properties":{"s":66.7,"pub":false}},{"type":"Feature","geometry":{"type":"Point","coordinates":[-104.8546,38.4526]},"properties":{"s":70.4,"pub":false}},{"type":"Feature","geometry":{"type":"Point","coordinates":[-104.8546,38.4584]},"properties":{"s":70.4,"pub":false}},{"type":"Feature","geometry":{"type":"Point","coordinates":[-104.8546,38.4642]},"properties":{"s":70.4,"pub":false}},{"type":"Feature","geometry":{"type":"Point","coordinates":[-104.8546,38.47]},"properties":{"s":70.4,"pub":false}},{"type":"Feature","geometry":{"type":"Point","coordinates":[-104.8546,38.4758]},"properties":{"s":70.4,"pub":false}},{"type":"Feature","geometry":{"type":"Point","coordinates":[-104.8546,38.4816]},"properties":{"s":70.4,"pub":false}},{"type":"Feature","geometry":{"type":"Point","coordinates":[-104.8546,38.4874]},"properties":{"s":70.4,"pub":false}},{"type":"Feature","geometry":{"type":"Point","coordinates":[-104.8546,38.4932]},"properties":{"s":70.4,"pub":false}},{"type":"Feature","geometry":{"type":"Point","coordinates":[-104.8546,38.499]},"properties":{"s":70.4,"pub":false}},{"type":"Feature","geometry":{"type":"Point","coordinates":[-104.8546,38.5048]},"properties":{"s":70.4,"pub":false}},{"type":"Feature","geometry":{"type":"Point","coordinates":[-104.8546,38.5106]},"properties":{"s":70.4,"pub":false}},{"type":"Feature","geometry":{"type":"Point","coordinates":[-104.8546,38.5164]},"properties":{"s":70.4,"pub":false}},{"type":"Feature","geometry":{"type":"Point","coordinates":[-104.8546,38.5222]},"properties":{"s":70.4,"pub":false}},{"type":"Feature","geometry":{"type":"Point","coordinates":[-104.8546,38.528]},"properties":{"s":70.4,"pub":false}},{"type":"Feature","geometry":{"type":"Point","coordinates":[-104.8546,38.5338]},"properties":{"s":70.4,"pub":false}},{"type":"Feature","geometry":{"type":"Point","coordinates":[-104.8546,38.5396]},"properties":{"s":70.4,"pub":false}},{"type":"Feature","geometry":{"type":"Point","coordinates":[-104.8546,38.5454]},"properties":{"s":70.4,"pub":false}},{"type":"Feature","geometry":{"type":"Point","coordinates":[-104.8546,38.5512]},"properties":{"s":100.0,"pub":false}},{"type":"Feature","geometry":{"type":"Point","coordinates":[-104.8546,38.557]},"properties":{"s":100.0,"pub":false}},{"type":"Feature","geometry":{"type":"Point","coordinates":[-104.8546,38.5628]},"properties":{"s":100.0,"pub":false}},{"type":"Feature","geometry":{"type":"Point","coordinates":[-104.8546,38.5686]},"properties":{"s":100.0,"pub":false}},{"type":"Feature","geometry":{"type":"Point","coordinates":[-104.8546,38.5744]},"properties":{"s":70.4,"pub":false}},{"type":"Feature","geometry":{"type":"Point","coordinates":[-104.8546,38.5802]},"properties":{"s":70.4,"pub":false}},{"type":"Feature","geometry":{"type":"Point","coordinates":[-104.8546,38.586]},"properties":{"s":70.4,"pub":false}},{"type":"Feature","geometry":{"type":"Point","coordinates":[-104.8546,38.5918]},"properties":{"s":70.4,"pub":false}},{"type":"Feature","geometry":{"type":"Point","coordinates":[-104.8546,38.5976]},"properties":{"s":70.4,"pub":false}},{"type":"Feature","geometry":{"type":"Point","coordinates":[-104.8546,38.6034]},"properties":{"s":70.4,"pub":false}},{"type":"Feature","geometry":{"type":"Point","coordinates":[-104.8546,38.6092]},"properties":{"s":70.4,"pub":false}},{"type":"Feature","geometry":{"type":"Point","coordinates":[-104.8546,38.615]},"properties":{"s":70.4,"pub":false}},{"type":"Feature","geometry":{"type":"Point","coordinates":[-104.8546,38.6208]},"properties":{"s":70.4,"pub":false}},{"type":"Feature","geometry":{"type":"Point","coordinates":[-104.8546,38.6266]},"properties":{"s":70.4,"pub":false}},{"type":"Feature","geometry":{"type":"Point","coordinates":[-104.8546,38.6324]},"properties":{"s":70.4,"pub":false}},{"type":"Feature","geometry":{"type":"Point","coordinates":[-104.8546,38.6382]},"properties":{"s":70.4,"pub":false}},{"type":"Feature","geometry":{"type":"Point","coordinates":[-104.8546,38.644]},"properties":{"s":70.4,"pub":false}},{"type":"Feature","geometry":{"type":"Point","coordinates":[-104.8546,38.6498]},"properties":{"s":25.9,"pub":false}},{"type":"Feature","geometry":{"type":"Point","coordinates":[-104.8546,38.6556]},"properties":{"s":25.9,"pub":false}},{"type":"Feature","geometry":{"type":"Point","coordinates":[-104.8546,38.6614]},"properties":{"s":25.9,"pub":false}},{"type":"Feature","geometry":{"type":"Point","coordinates":[-104.8546,38.6672]},"properties":{"s":25.9,"pub":false}},{"type":"Feature","geometry":{"type":"Point","coordinates":[-104.8471,38.441]},"properties":{"s":44.4,"pub":false}},{"type":"Feature","geometry":{"type":"Point","coordinates":[-104.8471,38.4468]},"properties":{"s":66.7,"pub":false}},{"type":"Feature","geometry":{"type":"Point","coordinates":[-104.8471,38.4526]},"properties":{"s":70.4,"pub":false}},{"type":"Feature","geometry":{"type":"Point","coordinates":[-104.8471,38.4584]},"properties":{"s":70.4,"pub":false}},{"type":"Feature","geometry":{"type":"Point","coordinates":[-104.8471,38.4642]},"properties":{"s":70.4,"pub":false}},{"type":"Feature","geometry":{"type":"Point","coordinates":[-104.8471,38.47]},"properties":{"s":70.4,"pub":false}},{"type":"Feature","geometry":{"type":"Point","coordinates":[-104.8471,38.4758]},"properties":{"s":70.4,"pub":false}},{"type":"Feature","geometry":{"type":"Point","coordinates":[-104.8471,38.4816]},"properties":{"s":70.4,"pub":false}},{"type":"Feature","geometry":{"type":"Point","coordinates":[-104.8471,38.4874]},"properties":{"s":70.4,"pub":false}},{"type":"Feature","geometry":{"type":"Point","coordinates":[-104.8471,38.4932]},"properties":{"s":70.4,"pub":false}},{"type":"Feature","geometry":{"type":"Point","coordinates":[-104.8471,38.499]},"properties":{"s":70.4,"pub":false}},{"type":"Feature","geometry":{"type":"Point","coordinates":[-104.8471,38.5048]},"properties":{"s":70.4,"pub":false}},{"type":"Feature","geometry":{"type":"Point","coordinates":[-104.8471,38.5106]},"properties":{"s":70.4,"pub":false}},{"type":"Feature","geometry":{"type":"Point","coordinates":[-104.8471,38.5164]},"properties":{"s":70.4,"pub":false}},{"type":"Feature","geometry":{"type":"Point","coordinates":[-104.8471,38.5222]},"properties":{"s":70.4,"pub":false}},{"type":"Feature","geometry":{"type":"Point","coordinates":[-104.8471,38.528]},"properties":{"s":70.4,"pub":false}},{"type":"Feature","geometry":{"type":"Point","coordinates":[-104.8471,38.5338]},"properties":{"s":70.4,"pub":false}},{"type":"Feature","geometry":{"type":"Point","coordinates":[-104.8471,38.5396]},"properties":{"s":70.4,"pub":false}},{"type":"Feature","geometry":{"type":"Point","coordinates":[-104.8471,38.5454]},"properties":{"s":100.0,"pub":false}},{"type":"Feature","geometry":{"type":"Point","coordinates":[-104.8471,38.5512]},"properties":{"s":100.0,"pub":false}},{"type":"Feature","geometry":{"type":"Point","coordinates":[-104.8471,38.557]},"properties":{"s":100.0,"pub":false}},{"type":"Feature","geometry":{"type":"Point","coordinates":[-104.8471,38.5628]},"properties":{"s":100.0,"pub":false}},{"type":"Feature","geometry":{"type":"Point","coordinates":[-104.8471,38.5686]},"properties":{"s":100.0,"pub":false}},{"type":"Feature","geometry":{"type":"Point","coordinates":[-104.8471,38.5744]},"properties":{"s":70.4,"pub":false}},{"type":"Feature","geometry":{"type":"Point","coordinates":[-104.8471,38.5802]},"properties":{"s":70.4,"pub":false}},{"type":"Feature","geometry":{"type":"Point","coordinates":[-104.8471,38.586]},"properties":{"s":70.4,"pub":false}},{"type":"Feature","geometry":{"type":"Point","coordinates":[-104.8471,38.5918]},"properties":{"s":70.4,"pub":false}},{"type":"Feature","geometry":{"type":"Point","coordinates":[-104.8471,38.5976]},"properties":{"s":70.4,"pub":false}},{"type":"Feature","geometry":{"type":"Point","coordinates":[-104.8471,38.6034]},"properties":{"s":70.4,"pub":false}},{"type":"Feature","geometry":{"type":"Point","coordinates":[-104.8471,38.6092]},"properties":{"s":70.4,"pub":false}},{"type":"Feature","geometry":{"type":"Point","coordinates":[-104.8471,38.615]},"properties":{"s":70.4,"pub":false}},{"type":"Feature","geometry":{"type":"Point","coordinates":[-104.8471,38.6208]},"properties":{"s":70.4,"pub":false}},{"type":"Feature","geometry":{"type":"Point","coordinates":[-104.8471,38.6266]},"properties":{"s":70.4,"pub":false}},{"type":"Feature","geometry":{"type":"Point","coordinates":[-104.8471,38.6324]},"properties":{"s":70.4,"pub":false}},{"type":"Feature","geometry":{"type":"Point","coordinates":[-104.8471,38.6382]},"properties":{"s":70.4,"pub":false}},{"type":"Feature","geometry":{"type":"Point","coordinates":[-104.8471,38.644]},"properties":{"s":70.4,"pub":false}},{"type":"Feature","geometry":{"type":"Point","coordinates":[-104.8471,38.6498]},"properties":{"s":25.9,"pub":false}},{"type":"Feature","geometry":{"type":"Point","coordinates":[-104.8471,38.6556]},"properties":{"s":25.9,"pub":false}},{"type":"Feature","geometry":{"type":"Point","coordinates":[-104.8471,38.6614]},"properties":{"s":25.9,"pub":false}},{"type":"Feature","geometry":{"type":"Point","coordinates":[-104.8471,38.6672]},"properties":{"s":25.9,"pub":false}},{"type":"Feature","geometry":{"type":"Point","coordinates":[-104.8471,38.673]},"properties":{"s":25.9,"pub":false}},{"type":"Feature","geometry":{"type":"Point","coordinates":[-104.8471,38.6788]},"properties":{"s":25.9,"pub":false}},{"type":"Feature","geometry":{"type":"Point","coordinates":[-104.8396,38.441]},"properties":{"s":44.4,"pub":false}},{"type":"Feature","geometry":{"type":"Point","coordinates":[-104.8396,38.4468]},"properties":{"s":66.7,"pub":false}},{"type":"Feature","geometry":{"type":"Point","coordinates":[-104.8396,38.4526]},"properties":{"s":70.4,"pub":false}},{"type":"Feature","geometry":{"type":"Point","coordinates":[-104.8396,38.4584]},"properties":{"s":70.4,"pub":false}},{"type":"Feature","geometry":{"type":"Point","coordinates":[-104.8396,38.4642]},"properties":{"s":70.4,"pub":false}},{"type":"Feature","geometry":{"type":"Point","coordinates":[-104.8396,38.47]},"properties":{"s":70.4,"pub":false}},{"type":"Feature","geometry":{"type":"Point","coordinates":[-104.8396,38.4758]},"properties":{"s":70.4,"pub":false}},{"type":"Feature","geometry":{"type":"Point","coordinates":[-104.8396,38.4816]},"properties":{"s":70.4,"pub":false}},{"type":"Feature","geometry":{"type":"Point","coordinates":[-104.8396,38.4874]},"properties":{"s":70.4,"pub":false}},{"type":"Feature","geometry":{"type":"Point","coordinates":[-104.8396,38.4932]},"properties":{"s":70.4,"pub":false}},{"type":"Feature","geometry":{"type":"Point","coordinates":[-104.8396,38.499]},"properties":{"s":70.4,"pub":false}},{"type":"Feature","geometry":{"type":"Point","coordinates":[-104.8396,38.5048]},"properties":{"s":70.4,"pub":false}},{"type":"Feature","geometry":{"type":"Point","coordinates":[-104.8396,38.5106]},"properties":{"s":70.4,"pub":false}},{"type":"Feature","geometry":{"type":"Point","coordinates":[-104.8396,38.5164]},"properties":{"s":70.4,"pub":false}},{"type":"Feature","geometry":{"type":"Point","coordinates":[-104.8396,38.5222]},"properties":{"s":70.4,"pub":false}},{"type":"Feature","geometry":{"type":"Point","coordinates":[-104.8396,38.528]},"properties":{"s":70.4,"pub":false}},{"type":"Feature","geometry":{"type":"Point","coordinates":[-104.8396,38.5338]},"properties":{"s":70.4,"pub":false}},{"type":"Feature","geometry":{"type":"Point","coordinates":[-104.8396,38.5396]},"properties":{"s":100.0,"pub":false}},{"type":"Feature","geometry":{"type":"Point","coordinates":[-104.8396,38.5454]},"properties":{"s":100.0,"pub":false}},{"type":"Feature","geometry":{"type":"Point","coordinates":[-104.8396,38.5512]},"properties":{"s":100.0,"pub":false}},{"type":"Feature","geometry":{"type":"Point","coordinates":[-104.8396,38.557]},"properties":{"s":100.0,"pub":false}},{"type":"Feature","geometry":{"type":"Point","coordinates":[-104.8396,38.5628]},"properties":{"s":100.0,"pub":false}},{"type":"Feature","geometry":{"type":"Point","coordinates":[-104.8396,38.5686]},"properties":{"s":70.4,"pub":false}},{"type":"Feature","geometry":{"type":"Point","coordinates":[-104.8396,38.5744]},"properties":{"s":70.4,"pub":false}},{"type":"Feature","geometry":{"type":"Point","coordinates":[-104.8396,38.5802]},"properties":{"s":70.4,"pub":false}},{"type":"Feature","geometry":{"type":"Point","coordinates":[-104.8396,38.586]},"properties":{"s":70.4,"pub":false}},{"type":"Feature","geometry":{"type":"Point","coordinates":[-104.8396,38.5918]},"properties":{"s":70.4,"pub":false}},{"type":"Feature","geometry":{"type":"Point","coordinates":[-104.8396,38.5976]},"properties":{"s":70.4,"pub":false}},{"type":"Feature","geometry":{"type":"Point","coordinates":[-104.8396,38.6034]},"properties":{"s":70.4,"pub":false}},{"type":"Feature","geometry":{"type":"Point","coordinates":[-104.8396,38.6092]},"properties":{"s":70.4,"pub":false}},{"type":"Feature","geometry":{"type":"Point","coordinates":[-104.8396,38.615]},"properties":{"s":70.4,"pub":false}},{"type":"Feature","geometry":{"type":"Point","coordinates":[-104.8396,38.6208]},"properties":{"s":70.4,"pub":false}},{"type":"Feature","geometry":{"type":"Point","coordinates":[-104.8396,38.6266]},"properties":{"s":70.4,"pub":false}},{"type":"Feature","geometry":{"type":"Point","coordinates":[-104.8396,38.6324]},"properties":{"s":70.4,"pub":false}},{"type":"Feature","geometry":{"type":"Point","coordinates":[-104.8396,38.6382]},"properties":{"s":70.4,"pub":false}},{"type":"Feature","geometry":{"type":"Point","coordinates":[-104.8396,38.644]},"properties":{"s":70.4,"pub":false}},{"type":"Feature","geometry":{"type":"Point","coordinates":[-104.8396,38.6498]},"properties":{"s":25.9,"pub":false}},{"type":"Feature","geometry":{"type":"Point","coordinates":[-104.8396,38.6556]},"properties":{"s":25.9,"pub":false}},{"type":"Feature","geometry":{"type":"Point","coordinates":[-104.8396,38.6614]},"properties":{"s":25.9,"pub":false}},{"type":"Feature","geometry":{"type":"Point","coordinates":[-104.8396,38.6672]},"properties":{"s":25.9,"pub":false}},{"type":"Feature","geometry":{"type":"Point","coordinates":[-104.8396,38.673]},"properties":{"s":25.9,"pub":false}},{"type":"Feature","geometry":{"type":"Point","coordinates":[-104.8321,38.441]},"properties":{"s":66.7,"pub":false}},{"type":"Feature","geometry":{"type":"Point","coordinates":[-104.8321,38.4468]},"properties":{"s":66.7,"pub":false}},{"type":"Feature","geometry":{"type":"Point","coordinates":[-104.8321,38.4526]},"properties":{"s":66.7,"pub":false}},{"type":"Feature","geometry":{"type":"Point","coordinates":[-104.8321,38.4584]},"properties":{"s":70.4,"pub":false}},{"type":"Feature","geometry":{"type":"Point","coordinates":[-104.8321,38.4642]},"properties":{"s":70.4,"pub":false}},{"type":"Feature","geometry":{"type":"Point","coordinates":[-104.8321,38.47]},"properties":{"s":70.4,"pub":false}},{"type":"Feature","geometry":{"type":"Point","coordinates":[-104.8321,38.4758]},"properties":{"s":25.9,"pub":false}},{"type":"Feature","geometry":{"type":"Point","coordinates":[-104.8321,38.4816]},"properties":{"s":25.9,"pub":false}},{"type":"Feature","geometry":{"type":"Point","coordinates":[-104.8321,38.4874]},"properties":{"s":70.4,"pub":false}},{"type":"Feature","geometry":{"type":"Point","coordinates":[-104.8321,38.4932]},"properties":{"s":70.4,"pub":false}},{"type":"Feature","geometry":{"type":"Point","coordinates":[-104.8321,38.499]},"properties":{"s":70.4,"pub":false}},{"type":"Feature","geometry":{"type":"Point","coordinates":[-104.8321,38.5048]},"properties":{"s":70.4,"pub":false}},{"type":"Feature","geometry":{"type":"Point","coordinates":[-104.8321,38.5106]},"properties":{"s":70.4,"pub":false}},{"type":"Feature","geometry":{"type":"Point","coordinates":[-104.8321,38.5164]},"properties":{"s":70.4,"pub":false}},{"type":"Feature","geometry":{"type":"Point","coordinates":[-104.8321,38.5222]},"properties":{"s":70.4,"pub":false}},{"type":"Feature","geometry":{"type":"Point","coordinates":[-104.8321,38.528]},"properties":{"s":70.4,"pub":false}},{"type":"Feature","geometry":{"type":"Point","coordinates":[-104.8321,38.5338]},"properties":{"s":70.4,"pub":false}},{"type":"Feature","geometry":{"type":"Point","coordinates":[-104.8321,38.5396]},"properties":{"s":70.4,"pub":false}},{"type":"Feature","geometry":{"type":"Point","coordinates":[-104.8321,38.5454]},"properties":{"s":70.4,"pub":false}},{"type":"Feature","geometry":{"type":"Point","coordinates":[-104.8321,38.5512]},"properties":{"s":70.4,"pub":false}},{"type":"Feature","geometry":{"type":"Point","coordinates":[-104.8321,38.557]},"properties":{"s":70.4,"pub":false}},{"type":"Feature","geometry":{"type":"Point","coordinates":[-104.8321,38.5628]},"properties":{"s":70.4,"pub":false}},{"type":"Feature","geometry":{"type":"Point","coordinates":[-104.8321,38.5686]},"properties":{"s":70.4,"pub":false}},{"type":"Feature","geometry":{"type":"Point","coordinates":[-104.8321,38.5744]},"properties":{"s":70.4,"pub":false}},{"type":"Feature","geometry":{"type":"Point","coordinates":[-104.8321,38.5802]},"properties":{"s":70.4,"pub":false}},{"type":"Feature","geometry":{"type":"Point","coordinates":[-104.8321,38.586]},"properties":{"s":70.4,"pub":false}},{"type":"Feature","geometry":{"type":"Point","coordinates":[-104.8321,38.5918]},"properties":{"s":70.4,"pub":false}},{"type":"Feature","geometry":{"type":"Point","coordinates":[-104.8321,38.5976]},"properties":{"s":70.4,"pub":false}},{"type":"Feature","geometry":{"type":"Point","coordinates":[-104.8321,38.6034]},"properties":{"s":70.4,"pub":false}},{"type":"Feature","geometry":{"type":"Point","coordinates":[-104.8321,38.6092]},"properties":{"s":70.4,"pub":false}},{"type":"Feature","geometry":{"type":"Point","coordinates":[-104.8321,38.615]},"properties":{"s":70.4,"pub":false}},{"type":"Feature","geometry":{"type":"Point","coordinates":[-104.8321,38.6208]},"properties":{"s":70.4,"pub":false}},{"type":"Feature","geometry":{"type":"Point","coordinates":[-104.8321,38.6266]},"properties":{"s":70.4,"pub":false}},{"type":"Feature","geometry":{"type":"Point","coordinates":[-104.8321,38.6324]},"properties":{"s":70.4,"pub":false}},{"type":"Feature","geometry":{"type":"Point","coordinates":[-104.8321,38.6382]},"properties":{"s":70.4,"pub":false}},{"type":"Feature","geometry":{"type":"Point","coordinates":[-104.8321,38.644]},"properties":{"s":70.4,"pub":false}},{"type":"Feature","geometry":{"type":"Point","coordinates":[-104.8321,38.6498]},"properties":{"s":25.9,"pub":false}},{"type":"Feature","geometry":{"type":"Point","coordinates":[-104.8321,38.6556]},"properties":{"s":25.9,"pub":false}},{"type":"Feature","geometry":{"type":"Point","coordinates":[-104.8321,38.6614]},"properties":{"s":25.9,"pub":false}},{"type":"Feature","geometry":{"type":"Point","coordinates":[-104.8321,38.6672]},"properties":{"s":25.9,"pub":false}},{"type":"Feature","geometry":{"type":"Point","coordinates":[-104.8246,38.4468]},"properties":{"s":66.7,"pub":false}},{"type":"Feature","geometry":{"type":"Point","coordinates":[-104.8246,38.4526]},"properties":{"s":66.7,"pub":false}},{"type":"Feature","geometry":{"type":"Point","coordinates":[-104.8246,38.4584]},"properties":{"s":66.7,"pub":false}},{"type":"Feature","geometry":{"type":"Point","coordinates":[-104.8246,38.4642]},"properties":{"s":66.7,"pub":false}},{"type":"Feature","geometry":{"type":"Point","coordinates":[-104.8246,38.4758]},"properties":{"s":25.9,"pub":false}},{"type":"Feature","geometry":{"type":"Point","coordinates":[-104.8246,38.4816]},"properties":{"s":25.9,"pub":false}},{"type":"Feature","geometry":{"type":"Point","coordinates":[-104.8246,38.4874]},"properties":{"s":25.9,"pub":false}},{"type":"Feature","geometry":{"type":"Point","coordinates":[-104.8246,38.4932]},"properties":{"s":25.9,"pub":false}},{"type":"Feature","geometry":{"type":"Point","coordinates":[-104.8246,38.499]},"properties":{"s":25.9,"pub":false}},{"type":"Feature","geometry":{"type":"Point","coordinates":[-104.8246,38.5048]},"properties":{"s":25.9,"pub":false}},{"type":"Feature","geometry":{"type":"Point","coordinates":[-104.8246,38.5106]},"properties":{"s":70.4,"pub":false}},{"type":"Feature","geometry":{"type":"Point","coordinates":[-104.8246,38.5164]},"properties":{"s":70.4,"pub":false}},{"type":"Feature","geometry":{"type":"Point","coordinates":[-104.8246,38.5222]},"properties":{"s":70.4,"pub":false}},{"type":"Feature","geometry":{"type":"Point","coordinates":[-104.8246,38.528]},"properties":{"s":70.4,"pub":false}},{"type":"Feature","geometry":{"type":"Point","coordinates":[-104.8246,38.5338]},"properties":{"s":70.4,"pub":false}},{"type":"Feature","geometry":{"type":"Point","coordinates":[-104.8246,38.5396]},"properties":{"s":70.4,"pub":false}},{"type":"Feature","geometry":{"type":"Point","coordinates":[-104.8246,38.5454]},"properties":{"s":70.4,"pub":false}},{"type":"Feature","geometry":{"type":"Point","coordinates":[-104.8246,38.5512]},"properties":{"s":70.4,"pub":false}},{"type":"Feature","geometry":{"type":"Point","coordinates":[-104.8246,38.557]},"properties":{"s":25.9,"pub":false}},{"type":"Feature","geometry":{"type":"Point","coordinates":[-104.8246,38.5628]},"properties":{"s":25.9,"pub":false}},{"type":"Feature","geometry":{"type":"Point","coordinates":[-104.8246,38.5686]},"properties":{"s":25.9,"pub":false}},{"type":"Feature","geometry":{"type":"Point","coordinates":[-104.8246,38.5744]},"properties":{"s":25.9,"pub":false}},{"type":"Feature","geometry":{"type":"Point","coordinates":[-104.8246,38.5802]},"properties":{"s":25.9,"pub":false}},{"type":"Feature","geometry":{"type":"Point","coordinates":[-104.8246,38.586]},"properties":{"s":25.9,"pub":false}},{"type":"Feature","geometry":{"type":"Point","coordinates":[-104.8246,38.5918]},"properties":{"s":25.9,"pub":false}},{"type":"Feature","geometry":{"type":"Point","coordinates":[-104.8246,38.5976]},"properties":{"s":70.4,"pub":false}},{"type":"Feature","geometry":{"type":"Point","coordinates":[-104.8246,38.6034]},"properties":{"s":70.4,"pub":false}},{"type":"Feature","geometry":{"type":"Point","coordinates":[-104.8246,38.6092]},"properties":{"s":70.4,"pub":false}},{"type":"Feature","geometry":{"type":"Point","coordinates":[-104.8246,38.615]},"properties":{"s":70.4,"pub":false}},{"type":"Feature","geometry":{"type":"Point","coordinates":[-104.8246,38.6208]},"properties":{"s":70.4,"pub":false}},{"type":"Feature","geometry":{"type":"Point","coordinates":[-104.8246,38.6266]},"properties":{"s":70.4,"pub":false}},{"type":"Feature","geometry":{"type":"Point","coordinates":[-104.8246,38.6324]},"properties":{"s":70.4,"pub":false}},{"type":"Feature","geometry":{"type":"Point","coordinates":[-104.8246,38.6382]},"properties":{"s":70.4,"pub":false}},{"type":"Feature","geometry":{"type":"Point","coordinates":[-104.8246,38.644]},"properties":{"s":70.4,"pub":false}},{"type":"Feature","geometry":{"type":"Point","coordinates":[-104.8246,38.6498]},"properties":{"s":25.9,"pub":false}},{"type":"Feature","geometry":{"type":"Point","coordinates":[-104.8246,38.6556]},"properties":{"s":25.9,"pub":false}},{"type":"Feature","geometry":{"type":"Point","coordinates":[-104.8246,38.6614]},"properties":{"s":25.9,"pub":false}},{"type":"Feature","geometry":{"type":"Point","coordinates":[-104.8246,38.6672]},"properties":{"s":25.9,"pub":false}},{"type":"Feature","geometry":{"type":"Point","coordinates":[-104.8171,38.499]},"properties":{"s":25.9,"pub":false}},{"type":"Feature","geometry":{"type":"Point","coordinates":[-104.8171,38.5048]},"properties":{"s":25.9,"pub":false}},{"type":"Feature","geometry":{"type":"Point","coordinates":[-104.8171,38.5106]},"properties":{"s":25.9,"pub":false}},{"type":"Feature","geometry":{"type":"Point","coordinates":[-104.8171,38.5164]},"properties":{"s":25.9,"pub":false}},{"type":"Feature","geometry":{"type":"Point","coordinates":[-104.8171,38.5222]},"properties":{"s":25.9,"pub":false}},{"type":"Feature","geometry":{"type":"Point","coordinates":[-104.8171,38.528]},"properties":{"s":25.9,"pub":false}},{"type":"Feature","geometry":{"type":"Point","coordinates":[-104.8171,38.5338]},"properties":{"s":25.9,"pub":false}},{"type":"Feature","geometry":{"type":"Point","coordinates":[-104.8171,38.5396]},"properties":{"s":25.9,"pub":false}},{"type":"Feature","geometry":{"type":"Point","coordinates":[-104.8171,38.5454]},"properties":{"s":25.9,"pub":false}},{"type":"Feature","geometry":{"type":"Point","coordinates":[-104.8171,38.5512]},"properties":{"s":25.9,"pub":false}},{"type":"Feature","geometry":{"type":"Point","coordinates":[-104.8171,38.557]},"properties":{"s":25.9,"pub":false}},{"type":"Feature","geometry":{"type":"Point","coordinates":[-104.8171,38.5628]},"properties":{"s":25.9,"pub":false}},{"type":"Feature","geometry":{"type":"Point","coordinates":[-104.8171,38.5686]},"properties":{"s":25.9,"pub":false}},{"type":"Feature","geometry":{"type":"Point","coordinates":[-104.8171,38.5744]},"properties":{"s":25.9,"pub":false}},{"type":"Feature","geometry":{"type":"Point","coordinates":[-104.8171,38.5802]},"properties":{"s":25.9,"pub":false}},{"type":"Feature","geometry":{"type":"Point","coordinates":[-104.8171,38.586]},"properties":{"s":25.9,"pub":false}},{"type":"Feature","geometry":{"type":"Point","coordinates":[-104.8171,38.5918]},"properties":{"s":25.9,"pub":false}},{"type":"Feature","geometry":{"type":"Point","coordinates":[-104.8171,38.5976]},"properties":{"s":25.9,"pub":false}},{"type":"Feature","geometry":{"type":"Point","coordinates":[-104.8171,38.6034]},"properties":{"s":70.4,"pub":false}},{"type":"Feature","geometry":{"type":"Point","coordinates":[-104.8171,38.6092]},"properties":{"s":70.4,"pub":false}},{"type":"Feature","geometry":{"type":"Point","coordinates":[-104.8171,38.615]},"properties":{"s":70.4,"pub":false}},{"type":"Feature","geometry":{"type":"Point","coordinates":[-104.8171,38.6208]},"properties":{"s":70.4,"pub":false}},{"type":"Feature","geometry":{"type":"Point","coordinates":[-104.8171,38.6266]},"properties":{"s":70.4,"pub":false}},{"type":"Feature","geometry":{"type":"Point","coordinates":[-104.8171,38.6324]},"properties":{"s":70.4,"pub":false}},{"type":"Feature","geometry":{"type":"Point","coordinates":[-104.8171,38.6382]},"properties":{"s":70.4,"pub":false}},{"type":"Feature","geometry":{"type":"Point","coordinates":[-104.8171,38.644]},"properties":{"s":25.9,"pub":false}},{"type":"Feature","geometry":{"type":"Point","coordinates":[-104.8171,38.6498]},"properties":{"s":25.9,"pub":false}},{"type":"Feature","geometry":{"type":"Point","coordinates":[-104.8171,38.6556]},"properties":{"s":25.9,"pub":false}},{"type":"Feature","geometry":{"type":"Point","coordinates":[-104.8171,38.6614]},"properties":{"s":25.9,"pub":false}},{"type":"Feature","geometry":{"type":"Point","coordinates":[-104.8171,38.6672]},"properties":{"s":25.9,"pub":false}},{"type":"Feature","geometry":{"type":"Point","coordinates":[-104.8096,38.5164]},"properties":{"s":25.9,"pub":false}},{"type":"Feature","geometry":{"type":"Point","coordinates":[-104.8096,38.5222]},"properties":{"s":25.9,"pub":false}},{"type":"Feature","geometry":{"type":"Point","coordinates":[-104.8096,38.528]},"properties":{"s":25.9,"pub":false}},{"type":"Feature","geometry":{"type":"Point","coordinates":[-104.8096,38.5338]},"properties":{"s":25.9,"pub":false}},{"type":"Feature","geometry":{"type":"Point","coordinates":[-104.8096,38.5396]},"properties":{"s":25.9,"pub":false}},{"type":"Feature","geometry":{"type":"Point","coordinates":[-104.8096,38.5454]},"properties":{"s":25.9,"pub":false}},{"type":"Feature","geometry":{"type":"Point","coordinates":[-104.8096,38.5512]},"properties":{"s":25.9,"pub":false}},{"type":"Feature","geometry":{"type":"Point","coordinates":[-104.8096,38.557]},"properties":{"s":25.9,"pub":false}},{"type":"Feature","geometry":{"type":"Point","coordinates":[-104.8096,38.5628]},"properties":{"s":25.9,"pub":false}},{"type":"Feature","geometry":{"type":"Point","coordinates":[-104.8096,38.5686]},"properties":{"s":25.9,"pub":false}},{"type":"Feature","geometry":{"type":"Point","coordinates":[-104.8096,38.5744]},"properties":{"s":25.9,"pub":false}},{"type":"Feature","geometry":{"type":"Point","coordinates":[-104.8096,38.5802]},"properties":{"s":25.9,"pub":false}},{"type":"Feature","geometry":{"type":"Point","coordinates":[-104.8096,38.586]},"properties":{"s":25.9,"pub":false}},{"type":"Feature","geometry":{"type":"Point","coordinates":[-104.8096,38.5918]},"properties":{"s":25.9,"pub":false}},{"type":"Feature","geometry":{"type":"Point","coordinates":[-104.8096,38.5976]},"properties":{"s":25.9,"pub":false}},{"type":"Feature","geometry":{"type":"Point","coordinates":[-104.8096,38.6034]},"properties":{"s":25.9,"pub":false}},{"type":"Feature","geometry":{"type":"Point","coordinates":[-104.8096,38.6092]},"properties":{"s":25.9,"pub":false}},{"type":"Feature","geometry":{"type":"Point","coordinates":[-104.8096,38.615]},"properties":{"s":25.9,"pub":false}},{"type":"Feature","geometry":{"type":"Point","coordinates":[-104.8096,38.6208]},"properties":{"s":70.4,"pub":false}},{"type":"Feature","geometry":{"type":"Point","coordinates":[-104.8096,38.6266]},"properties":{"s":70.4,"pub":false}},{"type":"Feature","geometry":{"type":"Point","coordinates":[-104.8096,38.6324]},"properties":{"s":70.4,"pub":false}},{"type":"Feature","geometry":{"type":"Point","coordinates":[-104.8096,38.6382]},"properties":{"s":25.9,"pub":false}},{"type":"Feature","geometry":{"type":"Point","coordinates":[-104.8096,38.644]},"properties":{"s":25.9,"pub":false}},{"type":"Feature","geometry":{"type":"Point","coordinates":[-104.8096,38.6498]},"properties":{"s":25.9,"pub":false}},{"type":"Feature","geometry":{"type":"Point","coordinates":[-104.8096,38.6556]},"properties":{"s":25.9,"pub":false}},{"type":"Feature","geometry":{"type":"Point","coordinates":[-104.8096,38.6614]},"properties":{"s":25.9,"pub":false}},{"type":"Feature","geometry":{"type":"Point","coordinates":[-104.8096,38.6672]},"properties":{"s":25.9,"pub":false}},{"type":"Feature","geometry":{"type":"Point","coordinates":[-104.8021,38.5164]},"properties":{"s":25.9,"pub":false}},{"type":"Feature","geometry":{"type":"Point","coordinates":[-104.8021,38.5222]},"properties":{"s":25.9,"pub":false}},{"type":"Feature","geometry":{"type":"Point","coordinates":[-104.8021,38.528]},"properties":{"s":25.9,"pub":false}},{"type":"Feature","geometry":{"type":"Point","coordinates":[-104.8021,38.5338]},"properties":{"s":25.9,"pub":false}},{"type":"Feature","geometry":{"type":"Point","coordinates":[-104.8021,38.5396]},"properties":{"s":25.9,"pub":false}},{"type":"Feature","geometry":{"type":"Point","coordinates":[-104.8021,38.5454]},"properties":{"s":25.9,"pub":false}},{"type":"Feature","geometry":{"type":"Point","coordinates":[-104.8021,38.5512]},"properties":{"s":25.9,"pub":false}},{"type":"Feature","geometry":{"type":"Point","coordinates":[-104.8021,38.557]},"properties":{"s":25.9,"pub":false}},{"type":"Feature","geometry":{"type":"Point","coordinates":[-104.8021,38.5628]},"properties":{"s":25.9,"pub":false}},{"type":"Feature","geometry":{"type":"Point","coordinates":[-104.8021,38.5686]},"properties":{"s":25.9,"pub":false}},{"type":"Feature","geometry":{"type":"Point","coordinates":[-104.8021,38.5744]},"properties":{"s":25.9,"pub":false}},{"type":"Feature","geometry":{"type":"Point","coordinates":[-104.8021,38.5802]},"properties":{"s":25.9,"pub":false}},{"type":"Feature","geometry":{"type":"Point","coordinates":[-104.8021,38.586]},"properties":{"s":25.9,"pub":false}},{"type":"Feature","geometry":{"type":"Point","coordinates":[-104.8021,38.5918]},"properties":{"s":25.9,"pub":false}},{"type":"Feature","geometry":{"type":"Point","coordinates":[-104.8021,38.5976]},"properties":{"s":25.9,"pub":false}},{"type":"Feature","geometry":{"type":"Point","coordinates":[-104.8021,38.6034]},"properties":{"s":25.9,"pub":false}},{"type":"Feature","geometry":{"type":"Point","coordinates":[-104.8021,38.6092]},"properties":{"s":25.9,"pub":false}},{"type":"Feature","geometry":{"type":"Point","coordinates":[-104.8021,38.615]},"properties":{"s":25.9,"pub":false}},{"type":"Feature","geometry":{"type":"Point","coordinates":[-104.8021,38.6208]},"properties":{"s":25.9,"pub":false}},{"type":"Feature","geometry":{"type":"Point","coordinates":[-104.8021,38.6266]},"properties":{"s":25.9,"pub":false}},{"type":"Feature","geometry":{"type":"Point","coordinates":[-104.8021,38.6324]},"properties":{"s":25.9,"pub":false}},{"type":"Feature","geometry":{"type":"Point","coordinates":[-104.8021,38.6382]},"properties":{"s":25.9,"pub":false}},{"type":"Feature","geometry":{"type":"Point","coordinates":[-104.8021,38.644]},"properties":{"s":25.9,"pub":false}},{"type":"Feature","geometry":{"type":"Point","coordinates":[-104.8021,38.6498]},"properties":{"s":25.9,"pub":false}},{"type":"Feature","geometry":{"type":"Point","coordinates":[-104.8021,38.6556]},"properties":{"s":25.9,"pub":false}},{"type":"Feature","geometry":{"type":"Point","coordinates":[-104.8021,38.6614]},"properties":{"s":25.9,"pub":false}},{"type":"Feature","geometry":{"type":"Point","coordinates":[-104.7946,38.5164]},"properties":{"s":25.9,"pub":false}},{"type":"Feature","geometry":{"type":"Point","coordinates":[-104.7946,38.5222]},"properties":{"s":25.9,"pub":false}},{"type":"Feature","geometry":{"type":"Point","coordinates":[-104.7946,38.528]},"properties":{"s":25.9,"pub":false}},{"type":"Feature","geometry":{"type":"Point","coordinates":[-104.7946,38.5338]},"properties":{"s":25.9,"pub":false}},{"type":"Feature","geometry":{"type":"Point","coordinates":[-104.7946,38.5396]},"properties":{"s":25.9,"pub":false}},{"type":"Feature","geometry":{"type":"Point","coordinates":[-104.7946,38.5454]},"properties":{"s":25.9,"pub":false}},{"type":"Feature","geometry":{"type":"Point","coordinates":[-104.7946,38.5512]},"properties":{"s":25.9,"pub":false}},{"type":"Feature","geometry":{"type":"Point","coordinates":[-104.7946,38.557]},"properties":{"s":25.9,"pub":false}},{"type":"Feature","geometry":{"type":"Point","coordinates":[-104.7946,38.5628]},"properties":{"s":25.9,"pub":false}},{"type":"Feature","geometry":{"type":"Point","coordinates":[-104.7946,38.5686]},"properties":{"s":25.9,"pub":false}},{"type":"Feature","geometry":{"type":"Point","coordinates":[-104.7946,38.5744]},"properties":{"s":25.9,"pub":false}},{"type":"Feature","geometry":{"type":"Point","coordinates":[-104.7946,38.5802]},"properties":{"s":25.9,"pub":false}},{"type":"Feature","geometry":{"type":"Point","coordinates":[-104.7946,38.586]},"properties":{"s":25.9,"pub":false}},{"type":"Feature","geometry":{"type":"Point","coordinates":[-104.7946,38.5918]},"properties":{"s":25.9,"pub":false}},{"type":"Feature","geometry":{"type":"Point","coordinates":[-104.7946,38.5976]},"properties":{"s":25.9,"pub":false}},{"type":"Feature","geometry":{"type":"Point","coordinates":[-104.7946,38.6034]},"properties":{"s":25.9,"pub":false}},{"type":"Feature","geometry":{"type":"Point","coordinates":[-104.7946,38.6092]},"properties":{"s":25.9,"pub":false}},{"type":"Feature","geometry":{"type":"Point","coordinates":[-104.7946,38.615]},"properties":{"s":25.9,"pub":false}},{"type":"Feature","geometry":{"type":"Point","coordinates":[-104.7946,38.6208]},"properties":{"s":25.9,"pub":false}},{"type":"Feature","geometry":{"type":"Point","coordinates":[-104.7946,38.6266]},"properties":{"s":25.9,"pub":false}},{"type":"Feature","geometry":{"type":"Point","coordinates":[-104.7946,38.6324]},"properties":{"s":25.9,"pub":false}},{"type":"Feature","geometry":{"type":"Point","coordinates":[-104.7946,38.6382]},"properties":{"s":25.9,"pub":false}},{"type":"Feature","geometry":{"type":"Point","coordinates":[-104.7946,38.644]},"properties":{"s":25.9,"pub":false}},{"type":"Feature","geometry":{"type":"Point","coordinates":[-104.7946,38.6498]},"properties":{"s":25.9,"pub":false}},{"type":"Feature","geometry":{"type":"Point","coordinates":[-104.7946,38.6556]},"properties":{"s":25.9,"pub":false}},{"type":"Feature","geometry":{"type":"Point","coordinates":[-104.7946,38.6614]},"properties":{"s":25.9,"pub":false}},{"type":"Feature","geometry":{"type":"Point","coordinates":[-104.7871,38.5222]},"properties":{"s":25.9,"pub":false}},{"type":"Feature","geometry":{"type":"Point","coordinates":[-104.7871,38.528]},"properties":{"s":25.9,"pub":false}},{"type":"Feature","geometry":{"type":"Point","coordinates":[-104.7871,38.5338]},"properties":{"s":25.9,"pub":false}},{"type":"Feature","geometry":{"type":"Point","coordinates":[-104.7871,38.5396]},"properties":{"s":25.9,"pub":false}},{"type":"Feature","geometry":{"type":"Point","coordinates":[-104.7871,38.5454]},"properties":{"s":25.9,"pub":false}},{"type":"Feature","geometry":{"type":"Point","coordinates":[-104.7871,38.5512]},"properties":{"s":25.9,"pub":false}},{"type":"Feature","geometry":{"type":"Point","coordinates":[-104.7871,38.557]},"properties":{"s":25.9,"pub":false}},{"type":"Feature","geometry":{"type":"Point","coordinates":[-104.7871,38.5628]},"properties":{"s":25.9,"pub":false}},{"type":"Feature","geometry":{"type":"Point","coordinates":[-104.7871,38.5686]},"properties":{"s":25.9,"pub":false}},{"type":"Feature","geometry":{"type":"Point","coordinates":[-104.7871,38.5744]},"properties":{"s":25.9,"pub":false}},{"type":"Feature","geometry":{"type":"Point","coordinates":[-104.7871,38.5802]},"properties":{"s":25.9,"pub":false}},{"type":"Feature","geometry":{"type":"Point","coordinates":[-104.7871,38.586]},"properties":{"s":25.9,"pub":false}},{"type":"Feature","geometry":{"type":"Point","coordinates":[-104.7871,38.5918]},"properties":{"s":25.9,"pub":false}},{"type":"Feature","geometry":{"type":"Point","coordinates":[-104.7871,38.5976]},"properties":{"s":25.9,"pub":false}},{"type":"Feature","geometry":{"type":"Point","coordinates":[-104.7871,38.6034]},"properties":{"s":25.9,"pub":false}},{"type":"Feature","geometry":{"type":"Point","coordinates":[-104.7871,38.6092]},"properties":{"s":25.9,"pub":false}},{"type":"Feature","geometry":{"type":"Point","coordinates":[-104.7871,38.615]},"properties":{"s":25.9,"pub":false}},{"type":"Feature","geometry":{"type":"Point","coordinates":[-104.7871,38.6208]},"properties":{"s":25.9,"pub":false}},{"type":"Feature","geometry":{"type":"Point","coordinates":[-104.7871,38.6266]},"properties":{"s":25.9,"pub":false}},{"type":"Feature","geometry":{"type":"Point","coordinates":[-104.7871,38.6324]},"properties":{"s":25.9,"pub":false}},{"type":"Feature","geometry":{"type":"Point","coordinates":[-104.7871,38.6382]},"properties":{"s":25.9,"pub":false}},{"type":"Feature","geometry":{"type":"Point","coordinates":[-104.7871,38.644]},"properties":{"s":25.9,"pub":false}},{"type":"Feature","geometry":{"type":"Point","coordinates":[-104.7871,38.6498]},"properties":{"s":25.9,"pub":false}},{"type":"Feature","geometry":{"type":"Point","coordinates":[-104.7871,38.6556]},"properties":{"s":25.9,"pub":false}},{"type":"Feature","geometry":{"type":"Point","coordinates":[-104.7796,38.5222]},"properties":{"s":25.9,"pub":false}},{"type":"Feature","geometry":{"type":"Point","coordinates":[-104.7796,38.528]},"properties":{"s":25.9,"pub":false}},{"type":"Feature","geometry":{"type":"Point","coordinates":[-104.7796,38.5338]},"properties":{"s":25.9,"pub":false}},{"type":"Feature","geometry":{"type":"Point","coordinates":[-104.7796,38.5396]},"properties":{"s":25.9,"pub":false}},{"type":"Feature","geometry":{"type":"Point","coordinates":[-104.7796,38.5454]},"properties":{"s":25.9,"pub":false}},{"type":"Feature","geometry":{"type":"Point","coordinates":[-104.7796,38.5512]},"properties":{"s":25.9,"pub":false}},{"type":"Feature","geometry":{"type":"Point","coordinates":[-104.7796,38.557]},"properties":{"s":25.9,"pub":false}},{"type":"Feature","geometry":{"type":"Point","coordinates":[-104.7796,38.5628]},"properties":{"s":25.9,"pub":false}},{"type":"Feature","geometry":{"type":"Point","coordinates":[-104.7796,38.5686]},"properties":{"s":25.9,"pub":false}},{"type":"Feature","geometry":{"type":"Point","coordinates":[-104.7796,38.5744]},"properties":{"s":25.9,"pub":false}},{"type":"Feature","geometry":{"type":"Point","coordinates":[-104.7796,38.5802]},"properties":{"s":25.9,"pub":false}},{"type":"Feature","geometry":{"type":"Point","coordinates":[-104.7796,38.586]},"properties":{"s":25.9,"pub":false}},{"type":"Feature","geometry":{"type":"Point","coordinates":[-104.7796,38.5918]},"properties":{"s":25.9,"pub":false}},{"type":"Feature","geometry":{"type":"Point","coordinates":[-104.7796,38.5976]},"properties":{"s":25.9,"pub":false}},{"type":"Feature","geometry":{"type":"Point","coordinates":[-104.7796,38.6034]},"properties":{"s":25.9,"pub":false}},{"type":"Feature","geometry":{"type":"Point","coordinates":[-104.7796,38.6092]},"properties":{"s":25.9,"pub":false}},{"type":"Feature","geometry":{"type":"Point","coordinates":[-104.7796,38.615]},"properties":{"s":25.9,"pub":false}},{"type":"Feature","geometry":{"type":"Point","coordinates":[-104.7796,38.6208]},"properties":{"s":25.9,"pub":false}},{"type":"Feature","geometry":{"type":"Point","coordinates":[-104.7796,38.6266]},"properties":{"s":25.9,"pub":false}},{"type":"Feature","geometry":{"type":"Point","coordinates":[-104.7796,38.6324]},"properties":{"s":25.9,"pub":false}},{"type":"Feature","geometry":{"type":"Point","coordinates":[-104.7796,38.6382]},"properties":{"s":25.9,"pub":false}},{"type":"Feature","geometry":{"type":"Point","coordinates":[-104.7796,38.644]},"properties":{"s":25.9,"pub":false}},{"type":"Feature","geometry":{"type":"Point","coordinates":[-104.7796,38.6498]},"properties":{"s":25.9,"pub":false}},{"type":"Feature","geometry":{"type":"Point","coordinates":[-104.7796,38.6556]},"properties":{"s":25.9,"pub":false}},{"type":"Feature","geometry":{"type":"Point","coordinates":[-104.7721,38.5222]},"properties":{"s":25.9,"pub":false}},{"type":"Feature","geometry":{"type":"Point","coordinates":[-104.7721,38.528]},"properties":{"s":25.9,"pub":false}},{"type":"Feature","geometry":{"type":"Point","coordinates":[-104.7721,38.5338]},"properties":{"s":25.9,"pub":false}},{"type":"Feature","geometry":{"type":"Point","coordinates":[-104.7721,38.5396]},"properties":{"s":25.9,"pub":false}},{"type":"Feature","geometry":{"type":"Point","coordinates":[-104.7721,38.5454]},"properties":{"s":25.9,"pub":false}},{"type":"Feature","geometry":{"type":"Point","coordinates":[-104.7721,38.5512]},"properties":{"s":25.9,"pub":false}},{"type":"Feature","geometry":{"type":"Point","coordinates":[-104.7721,38.557]},"properties":{"s":25.9,"pub":false}},{"type":"Feature","geometry":{"type":"Point","coordinates":[-104.7721,38.5628]},"properties":{"s":25.9,"pub":false}},{"type":"Feature","geometry":{"type":"Point","coordinates":[-104.7721,38.5686]},"properties":{"s":25.9,"pub":false}},{"type":"Feature","geometry":{"type":"Point","coordinates":[-104.7721,38.5744]},"properties":{"s":25.9,"pub":false}},{"type":"Feature","geometry":{"type":"Point","coordinates":[-104.7721,38.5802]},"properties":{"s":25.9,"pub":false}},{"type":"Feature","geometry":{"type":"Point","coordinates":[-104.7721,38.586]},"properties":{"s":25.9,"pub":false}},{"type":"Feature","geometry":{"type":"Point","coordinates":[-104.7721,38.5918]},"properties":{"s":25.9,"pub":false}},{"type":"Feature","geometry":{"type":"Point","coordinates":[-104.7721,38.5976]},"properties":{"s":25.9,"pub":false}},{"type":"Feature","geometry":{"type":"Point","coordinates":[-104.7721,38.6034]},"properties":{"s":25.9,"pub":false}},{"type":"Feature","geometry":{"type":"Point","coordinates":[-104.7721,38.6092]},"properties":{"s":25.9,"pub":false}},{"type":"Feature","geometry":{"type":"Point","coordinates":[-104.7721,38.615]},"properties":{"s":25.9,"pub":false}},{"type":"Feature","geometry":{"type":"Point","coordinates":[-104.7721,38.6208]},"properties":{"s":25.9,"pub":false}},{"type":"Feature","geometry":{"type":"Point","coordinates":[-104.7721,38.6266]},"properties":{"s":25.9,"pub":false}},{"type":"Feature","geometry":{"type":"Point","coordinates":[-104.7721,38.6324]},"properties":{"s":25.9,"pub":false}},{"type":"Feature","geometry":{"type":"Point","coordinates":[-104.7721,38.6382]},"properties":{"s":25.9,"pub":false}},{"type":"Feature","geometry":{"type":"Point","coordinates":[-104.7721,38.644]},"properties":{"s":25.9,"pub":false}},{"type":"Feature","geometry":{"type":"Point","coordinates":[-104.7721,38.6498]},"properties":{"s":25.9,"pub":false}},{"type":"Feature","geometry":{"type":"Point","coordinates":[-104.7721,38.6556]},"properties":{"s":25.9,"pub":false}},{"type":"Feature","geometry":{"type":"Point","coordinates":[-104.7646,38.528]},"properties":{"s":25.9,"pub":false}},{"type":"Feature","geometry":{"type":"Point","coordinates":[-104.7646,38.5338]},"properties":{"s":25.9,"pub":false}},{"type":"Feature","geometry":{"type":"Point","coordinates":[-104.7646,38.5396]},"properties":{"s":25.9,"pub":false}},{"type":"Feature","geometry":{"type":"Point","coordinates":[-104.7646,38.5454]},"properties":{"s":25.9,"pub":false}},{"type":"Feature","geometry":{"type":"Point","coordinates":[-104.7646,38.5512]},"properties":{"s":25.9,"pub":false}},{"type":"Feature","geometry":{"type":"Point","coordinates":[-104.7646,38.557]},"properties":{"s":25.9,"pub":false}},{"type":"Feature","geometry":{"type":"Point","coordinates":[-104.7646,38.5628]},"properties":{"s":25.9,"pub":false}},{"type":"Feature","geometry":{"type":"Point","coordinates":[-104.7646,38.5686]},"properties":{"s":25.9,"pub":false}},{"type":"Feature","geometry":{"type":"Point","coordinates":[-104.7646,38.5744]},"properties":{"s":25.9,"pub":false}},{"type":"Feature","geometry":{"type":"Point","coordinates":[-104.7646,38.5802]},"properties":{"s":25.9,"pub":false}},{"type":"Feature","geometry":{"type":"Point","coordinates":[-104.7646,38.586]},"properties":{"s":25.9,"pub":false}},{"type":"Feature","geometry":{"type":"Point","coordinates":[-104.7646,38.5918]},"properties":{"s":25.9,"pub":false}},{"type":"Feature","geometry":{"type":"Point","coordinates":[-104.7646,38.5976]},"properties":{"s":25.9,"pub":false}},{"type":"Feature","geometry":{"type":"Point","coordinates":[-104.7646,38.6034]},"properties":{"s":25.9,"pub":false}},{"type":"Feature","geometry":{"type":"Point","coordinates":[-104.7646,38.6092]},"properties":{"s":25.9,"pub":false}},{"type":"Feature","geometry":{"type":"Point","coordinates":[-104.7646,38.615]},"properties":{"s":25.9,"pub":false}},{"type":"Feature","geometry":{"type":"Point","coordinates":[-104.7646,38.6208]},"properties":{"s":25.9,"pub":false}},{"type":"Feature","geometry":{"type":"Point","coordinates":[-104.7646,38.6266]},"properties":{"s":25.9,"pub":false}},{"type":"Feature","geometry":{"type":"Point","coordinates":[-104.7646,38.6324]},"properties":{"s":25.9,"pub":false}},{"type":"Feature","geometry":{"type":"Point","coordinates":[-104.7646,38.6382]},"properties":{"s":25.9,"pub":false}},{"type":"Feature","geometry":{"type":"Point","coordinates":[-104.7646,38.644]},"properties":{"s":25.9,"pub":false}},{"type":"Feature","geometry":{"type":"Point","coordinates":[-104.7646,38.6498]},"properties":{"s":25.9,"pub":false}},{"type":"Feature","geometry":{"type":"Point","coordinates":[-104.7571,38.5338]},"properties":{"s":25.9,"pub":false}},{"type":"Feature","geometry":{"type":"Point","coordinates":[-104.7571,38.5396]},"properties":{"s":25.9,"pub":false}},{"type":"Feature","geometry":{"type":"Point","coordinates":[-104.7571,38.5454]},"properties":{"s":25.9,"pub":false}},{"type":"Feature","geometry":{"type":"Point","coordinates":[-104.7571,38.5512]},"properties":{"s":25.9,"pub":false}},{"type":"Feature","geometry":{"type":"Point","coordinates":[-104.7571,38.557]},"properties":{"s":25.9,"pub":false}},{"type":"Feature","geometry":{"type":"Point","coordinates":[-104.7571,38.5628]},"properties":{"s":25.9,"pub":false}},{"type":"Feature","geometry":{"type":"Point","coordinates":[-104.7571,38.5686]},"properties":{"s":25.9,"pub":false}},{"type":"Feature","geometry":{"type":"Point","coordinates":[-104.7571,38.5744]},"properties":{"s":25.9,"pub":false}},{"type":"Feature","geometry":{"type":"Point","coordinates":[-104.7571,38.5802]},"properties":{"s":25.9,"pub":false}},{"type":"Feature","geometry":{"type":"Point","coordinates":[-104.7571,38.586]},"properties":{"s":25.9,"pub":false}},{"type":"Feature","geometry":{"type":"Point","coordinates":[-104.7571,38.5918]},"properties":{"s":25.9,"pub":false}},{"type":"Feature","geometry":{"type":"Point","coordinates":[-104.7571,38.5976]},"properties":{"s":25.9,"pub":false}},{"type":"Feature","geometry":{"type":"Point","coordinates":[-104.7571,38.6034]},"properties":{"s":25.9,"pub":false}},{"type":"Feature","geometry":{"type":"Point","coordinates":[-104.7571,38.6092]},"properties":{"s":25.9,"pub":false}},{"type":"Feature","geometry":{"type":"Point","coordinates":[-104.7571,38.615]},"properties":{"s":25.9,"pub":false}},{"type":"Feature","geometry":{"type":"Point","coordinates":[-104.7571,38.6208]},"properties":{"s":25.9,"pub":false}},{"type":"Feature","geometry":{"type":"Point","coordinates":[-104.7571,38.6266]},"properties":{"s":25.9,"pub":false}},{"type":"Feature","geometry":{"type":"Point","coordinates":[-104.7571,38.6324]},"properties":{"s":25.9,"pub":false}},{"type":"Feature","geometry":{"type":"Point","coordinates":[-104.7571,38.6382]},"properties":{"s":25.9,"pub":false}},{"type":"Feature","geometry":{"type":"Point","coordinates":[-104.7571,38.644]},"properties":{"s":25.9,"pub":false}},{"type":"Feature","geometry":{"type":"Point","coordinates":[-104.7571,38.6498]},"properties":{"s":25.9,"pub":false}},{"type":"Feature","geometry":{"type":"Point","coordinates":[-104.7496,38.5396]},"properties":{"s":25.9,"pub":false}},{"type":"Feature","geometry":{"type":"Point","coordinates":[-104.7496,38.5454]},"properties":{"s":25.9,"pub":false}},{"type":"Feature","geometry":{"type":"Point","coordinates":[-104.7496,38.5512]},"properties":{"s":25.9,"pub":false}},{"type":"Feature","geometry":{"type":"Point","coordinates":[-104.7496,38.557]},"properties":{"s":25.9,"pub":false}},{"type":"Feature","geometry":{"type":"Point","coordinates":[-104.7496,38.5628]},"properties":{"s":25.9,"pub":false}},{"type":"Feature","geometry":{"type":"Point","coordinates":[-104.7496,38.5686]},"properties":{"s":25.9,"pub":false}},{"type":"Feature","geometry":{"type":"Point","coordinates":[-104.7496,38.5744]},"properties":{"s":25.9,"pub":false}},{"type":"Feature","geometry":{"type":"Point","coordinates":[-104.7496,38.5802]},"properties":{"s":25.9,"pub":false}},{"type":"Feature","geometry":{"type":"Point","coordinates":[-104.7496,38.586]},"properties":{"s":25.9,"pub":false}},{"type":"Feature","geometry":{"type":"Point","coordinates":[-104.7496,38.5918]},"properties":{"s":25.9,"pub":false}},{"type":"Feature","geometry":{"type":"Point","coordinates":[-104.7496,38.5976]},"properties":{"s":25.9,"pub":false}},{"type":"Feature","geometry":{"type":"Point","coordinates":[-104.7496,38.6034]},"properties":{"s":25.9,"pub":false}},{"type":"Feature","geometry":{"type":"Point","coordinates":[-104.7496,38.6092]},"properties":{"s":25.9,"pub":false}},{"type":"Feature","geometry":{"type":"Point","coordinates":[-104.7496,38.615]},"properties":{"s":25.9,"pub":false}},{"type":"Feature","geometry":{"type":"Point","coordinates":[-104.7496,38.6208]},"properties":{"s":25.9,"pub":false}},{"type":"Feature","geometry":{"type":"Point","coordinates":[-104.7496,38.6266]},"properties":{"s":25.9,"pub":false}},{"type":"Feature","geometry":{"type":"Point","coordinates":[-104.7496,38.6324]},"properties":{"s":25.9,"pub":false}},{"type":"Feature","geometry":{"type":"Point","coordinates":[-104.7496,38.6382]},"properties":{"s":25.9,"pub":false}},{"type":"Feature","geometry":{"type":"Point","coordinates":[-104.7496,38.644]},"properties":{"s":25.9,"pub":false}},{"type":"Feature","geometry":{"type":"Point","coordinates":[-104.7496,38.6498]},"properties":{"s":25.9,"pub":false}},{"type":"Feature","geometry":{"type":"Point","coordinates":[-104.7421,38.5454]},"properties":{"s":25.9,"pub":false}},{"type":"Feature","geometry":{"type":"Point","coordinates":[-104.7421,38.5512]},"properties":{"s":25.9,"pub":false}},{"type":"Feature","geometry":{"type":"Point","coordinates":[-104.7421,38.557]},"properties":{"s":25.9,"pub":false}},{"type":"Feature","geometry":{"type":"Point","coordinates":[-104.7421,38.5628]},"properties":{"s":25.9,"pub":false}},{"type":"Feature","geometry":{"type":"Point","coordinates":[-104.7421,38.5686]},"properties":{"s":25.9,"pub":false}},{"type":"Feature","geometry":{"type":"Point","coordinates":[-104.7421,38.5744]},"properties":{"s":25.9,"pub":false}},{"type":"Feature","geometry":{"type":"Point","coordinates":[-104.7421,38.5802]},"properties":{"s":25.9,"pub":false}},{"type":"Feature","geometry":{"type":"Point","coordinates":[-104.7421,38.586]},"properties":{"s":25.9,"pub":false}},{"type":"Feature","geometry":{"type":"Point","coordinates":[-104.7421,38.5918]},"properties":{"s":25.9,"pub":false}},{"type":"Feature","geometry":{"type":"Point","coordinates":[-104.7421,38.5976]},"properties":{"s":25.9,"pub":false}},{"type":"Feature","geometry":{"type":"Point","coordinates":[-104.7421,38.6034]},"properties":{"s":25.9,"pub":false}},{"type":"Feature","geometry":{"type":"Point","coordinates":[-104.7421,38.6092]},"properties":{"s":25.9,"pub":false}},{"type":"Feature","geometry":{"type":"Point","coordinates":[-104.7421,38.615]},"properties":{"s":25.9,"pub":false}},{"type":"Feature","geometry":{"type":"Point","coordinates":[-104.7421,38.6208]},"properties":{"s":25.9,"pub":false}},{"type":"Feature","geometry":{"type":"Point","coordinates":[-104.7346,38.5512]},"properties":{"s":25.9,"pub":false}},{"type":"Feature","geometry":{"type":"Point","coordinates":[-104.7346,38.557]},"properties":{"s":25.9,"pub":false}},{"type":"Feature","geometry":{"type":"Point","coordinates":[-104.7346,38.5628]},"properties":{"s":25.9,"pub":false}},{"type":"Feature","geometry":{"type":"Point","coordinates":[-104.7346,38.5686]},"properties":{"s":25.9,"pub":false}},{"type":"Feature","geometry":{"type":"Point","coordinates":[-104.7346,38.5744]},"properties":{"s":25.9,"pub":false}},{"type":"Feature","geometry":{"type":"Point","coordinates":[-104.7346,38.5802]},"properties":{"s":25.9,"pub":false}},{"type":"Feature","geometry":{"type":"Point","coordinates":[-104.7346,38.586]},"properties":{"s":25.9,"pub":false}},{"type":"Feature","geometry":{"type":"Point","coordinates":[-104.7346,38.5918]},"properties":{"s":25.9,"pub":false}},{"type":"Feature","geometry":{"type":"Point","coordinates":[-104.7346,38.5976]},"properties":{"s":25.9,"pub":false}},{"type":"Feature","geometry":{"type":"Point","coordinates":[-104.7346,38.6034]},"properties":{"s":25.9,"pub":false}},{"type":"Feature","geometry":{"type":"Point","coordinates":[-104.7346,38.6092]},"properties":{"s":25.9,"pub":false}},{"type":"Feature","geometry":{"type":"Point","coordinates":[-104.7346,38.615]},"properties":{"s":25.9,"pub":false}},{"type":"Feature","geometry":{"type":"Point","coordinates":[-104.7346,38.6208]},"properties":{"s":25.9,"pub":false}},{"type":"Feature","geometry":{"type":"Point","coordinates":[-104.7271,38.5628]},"properties":{"s":25.9,"pub":false}},{"type":"Feature","geometry":{"type":"Point","coordinates":[-104.7271,38.5686]},"properties":{"s":25.9,"pub":false}},{"type":"Feature","geometry":{"type":"Point","coordinates":[-104.7271,38.5744]},"properties":{"s":25.9,"pub":false}},{"type":"Feature","geometry":{"type":"Point","coordinates":[-104.7271,38.5802]},"properties":{"s":25.9,"pub":false}},{"type":"Feature","geometry":{"type":"Point","coordinates":[-104.7271,38.586]},"properties":{"s":25.9,"pub":false}},{"type":"Feature","geometry":{"type":"Point","coordinates":[-104.7271,38.5918]},"properties":{"s":25.9,"pub":false}},{"type":"Feature","geometry":{"type":"Point","coordinates":[-104.7271,38.6092]},"properties":{"s":25.9,"pub":false}},{"type":"Feature","geometry":{"type":"Point","coordinates":[-104.7271,38.615]},"properties":{"s":25.9,"pub":false}},{"type":"Feature","geometry":{"type":"Point","coordinates":[-104.7271,38.6208]},"properties":{"s":25.9,"pub":false}},{"type":"Feature","geometry":{"type":"Point","coordinates":[-104.7196,38.6092]},"properties":{"s":25.9,"pub":false}},{"type":"Feature","geometry":{"type":"Point","coordinates":[-104.7196,38.615]},"properties":{"s":25.9,"pub":false}}]}