{"type":"FeatureCollection","features":[{"type":"Feature","geometry":{"type":"Point","coordinates":[-109.0527,38.3858]},"properties":{"s":25.0,"pub":true}},{"type":"Feature","geometry":{"type":"Point","coordinates":[-109.0527,38.3916]},"properties":{"s":53.6,"pub":true}},{"type":"Feature","geometry":{"type":"Point","coordinates":[-109.0527,38.3974]},"properties":{"s":53.6,"pub":true}},{"type":"Feature","geometry":{"type":"Point","coordinates":[-109.0527,38.4032]},"properties":{"s":53.6,"pub":true}},{"type":"Feature","geometry":{"type":"Point","coordinates":[-109.0527,38.409]},"properties":{"s":53.6,"pub":true}},{"type":"Feature","geometry":{"type":"Point","coordinates":[-109.0527,38.4148]},"properties":{"s":53.6,"pub":true}},{"type":"Feature","geometry":{"type":"Point","coordinates":[-109.0527,38.4206]},"properties":{"s":32.1,"pub":true}},{"type":"Feature","geometry":{"type":"Point","coordinates":[-109.0527,38.4264]},"properties":{"s":32.1,"pub":true}},{"type":"Feature","geometry":{"type":"Point","coordinates":[-109.0527,38.4322]},"properties":{"s":32.1,"pub":true}},{"type":"Feature","geometry":{"type":"Point","coordinates":[-109.0527,38.438]},"properties":{"s":57.1,"pub":true}},{"type":"Feature","geometry":{"type":"Point","coordinates":[-109.0527,38.4438]},"properties":{"s":57.1,"pub":true}},{"type":"Feature","geometry":{"type":"Point","coordinates":[-109.0527,38.4496]},"properties":{"s":57.1,"pub":true}},{"type":"Feature","geometry":{"type":"Point","coordinates":[-109.0527,38.4554]},"properties":{"s":100.0,"pub":true}},{"type":"Feature","geometry":{"type":"Point","coordinates":[-109.0527,38.4612]},"properties":{"s":100.0,"pub":true}},{"type":"Feature","geometry":{"type":"Point","coordinates":[-109.0527,38.467]},"properties":{"s":96.4,"pub":true}},{"type":"Feature","geometry":{"type":"Point","coordinates":[-109.0527,38.4728]},"properties":{"s":53.6,"pub":true}},{"type":"Feature","geometry":{"type":"Point","coordinates":[-109.0527,38.4786]},"properties":{"s":32.1,"pub":true}},{"type":"Feature","geometry":{"type":"Point","coordinates":[-109.0527,38.5714]},"properties":{"s":71.4,"pub":true}},{"type":"Feature","geometry":{"type":"Point","coordinates":[-109.0527,38.5772]},"properties":{"s":67.9,"pub":true}},{"type":"Feature","geometry":{"type":"Point","coordinates":[-109.0527,38.583]},"properties":{"s":67.9,"pub":true}},{"type":"Feature","geometry":{"type":"Point","coordinates":[-109.0527,38.5888]},"properties":{"s":71.4,"pub":true}},{"type":"Feature","geometry":{"type":"Point","coordinates":[-109.0527,38.5946]},"properties":{"s":71.4,"pub":false}},{"type":"Feature","geometry":{"type":"Point","coordinates":[-109.0527,38.6004]},"properties":{"s":71.4,"pub":false}},{"type":"Feature","geometry":{"type":"Point","coordinates":[-109.0527,38.6062]},"properties":{"s":28.6,"pub":false}},{"type":"Feature","geometry":{"type":"Point","coordinates":[-109.0527,38.612]},"properties":{"s":28.6,"pub":true}},{"type":"Feature","geometry":{"type":"Point","coordinates":[-109.0527,38.6178]},"properties":{"s":25.0,"pub":true}},{"type":"Feature","geometry":{"type":"Point","coordinates":[-109.0527,38.6236]},"properties":{"s":25.0,"pub":true}},{"type":"Feature","geometry":{"type":"Point","coordinates":[-109.0452,38.351]},"properties":{"s":10.7,"pub":true}},{"type":"Feature","geometry":{"type":"Point","coordinates":[-109.0452,38.3568]},"properties":{"s":10.7,"pub":true}},{"type":"Feature","geometry":{"type":"Point","coordinates":[-109.0452,38.3626]},"properties":{"s":10.7,"pub":true}},{"type":"Feature","geometry":{"type":"Point","coordinates":[-109.0452,38.3858]},"properties":{"s":25.0,"pub":true}},{"type":"Feature","geometry":{"type":"Point","coordinates":[-109.0452,38.3916]},"properties":{"s":53.6,"pub":true}},{"type":"Feature","geometry":{"type":"Point","coordinates":[-109.0452,38.3974]},"properties":{"s":32.1,"pub":true}},{"type":"Feature","geometry":{"type":"Point","coordinates":[-109.0452,38.4032]},"properties":{"s":32.1,"pub":true}},{"type":"Feature","geometry":{"type":"Point","coordinates":[-109.0452,38.409]},"properties":{"s":32.1,"pub":true}},{"type":"Feature","geometry":{"type":"Point","coordinates":[-109.0452,38.4148]},"properties":{"s":32.1,"pub":true}},{"type":"Feature","geometry":{"type":"Point","coordinates":[-109.0452,38.4206]},"properties":{"s":32.1,"pub":true}},{"type":"Feature","geometry":{"type":"Point","coordinates":[-109.0452,38.4264]},"properties":{"s":35.7,"pub":true}},{"type":"Feature","geometry":{"type":"Point","coordinates":[-109.0452,38.4322]},"properties":{"s":35.7,"pub":true}},{"type":"Feature","geometry":{"type":"Point","coordinates":[-109.0452,38.438]},"properties":{"s":35.7,"pub":true}},{"type":"Feature","geometry":{"type":"Point","coordinates":[-109.0452,38.4438]},"properties":{"s":57.1,"pub":true}},{"type":"Feature","geometry":{"type":"Point","coordinates":[-109.0452,38.4496]},"properties":{"s":100.0,"pub":true}},{"type":"Feature","geometry":{"type":"Point","coordinates":[-109.0452,38.4554]},"properties":{"s":100.0,"pub":true}},{"type":"Feature","geometry":{"type":"Point","coordinates":[-109.0452,38.4612]},"properties":{"s":100.0,"pub":true}},{"type":"Feature","geometry":{"type":"Point","coordinates":[-109.0452,38.467]},"properties":{"s":35.7,"pub":true}},{"type":"Feature","geometry":{"type":"Point","coordinates":[-109.0452,38.4728]},"properties":{"s":32.1,"pub":true}},{"type":"Feature","geometry":{"type":"Point","coordinates":[-109.0452,38.554]},"properties":{"s":7.1,"pub":true}},{"type":"Feature","geometry":{"type":"Point","coordinates":[-109.0452,38.5598]},"properties":{"s":7.1,"pub":true}},{"type":"Feature","geometry":{"type":"Point","coordinates":[-109.0452,38.5656]},"properties":{"s":7.1,"pub":true}},{"type":"Feature","geometry":{"type":"Point","coordinates":[-109.0452,38.5714]},"properties":{"s":71.4,"pub":true}},{"type":"Feature","geometry":{"type":"Point","coordinates":[-109.0452,38.5772]},"properties":{"s":67.9,"pub":true}},{"type":"Feature","geometry":{"type":"Point","coordinates":[-109.0452,38.583]},"properties":{"s":67.9,"pub":true}},{"type":"Feature","geometry":{"type":"Point","coordinates":[-109.0452,38.5888]},"properties":{"s":67.9,"pub":true}},{"type":"Feature","geometry":{"type":"Point","coordinates":[-109.0452,38.5946]},"properties":{"s":71.4,"pub":false}},{"type":"Feature","geometry":{"type":"Point","coordinates":[-109.0452,38.6004]},"properties":{"s":28.6,"pub":true}},{"type":"Feature","geometry":{"type":"Point","coordinates":[-109.0452,38.6062]},"properties":{"s":28.6,"pub":true}},{"type":"Feature","geometry":{"type":"Point","coordinates":[-109.0452,38.612]},"properties":{"s":28.6,"pub":true}},{"type":"Feature","geometry":{"type":"Point","coordinates":[-109.0452,38.6178]},"properties":{"s":25.0,"pub":true}},{"type":"Feature","geometry":{"type":"Point","coordinates":[-109.0452,38.6236]},"properties":{"s":25.0,"pub":true}},{"type":"Feature","geometry":{"type":"Point","coordinates":[-109.0452,38.6294]},"properties":{"s":25.0,"pub":true}},{"type":"Feature","geometry":{"type":"Point","coordinates":[-109.0377,38.3452]},"properties":{"s":10.7,"pub":true}},{"type":"Feature","geometry":{"type":"Point","coordinates":[-109.0377,38.351]},"properties":{"s":10.7,"pub":true}},{"type":"Feature","geometry":{"type":"Point","coordinates":[-109.0377,38.3568]},"properties":{"s":10.7,"pub":true}},{"type":"Feature","geometry":{"type":"Point","coordinates":[-109.0377,38.3626]},"properties":{"s":10.7,"pub":true}},{"type":"Feature","geometry":{"type":"Point","coordinates":[-109.0377,38.3684]},"properties":{"s":10.7,"pub":true}},{"type":"Feature","geometry":{"type":"Point","coordinates":[-109.0377,38.3742]},"properties":{"s":10.7,"pub":true}},{"type":"Feature","geometry":{"type":"Point","coordinates":[-109.0377,38.4032]},"properties":{"s":32.1,"pub":true}},{"type":"Feature","geometry":{"type":"Point","coordinates":[-109.0377,38.409]},"properties":{"s":32.1,"pub":true}},{"type":"Feature","geometry":{"type":"Point","coordinates":[-109.0377,38.4148]},"properties":{"s":32.1,"pub":true}},{"type":"Feature","geometry":{"type":"Point","coordinates":[-109.0377,38.4206]},"properties":{"s":35.7,"pub":true}},{"type":"Feature","geometry":{"type":"Point","coordinates":[-109.0377,38.4264]},"properties":{"s":7.1,"pub":true}},{"type":"Feature","geometry":{"type":"Point","coordinates":[-109.0377,38.4322]},"properties":{"s":35.7,"pub":true}},{"type":"Feature","geometry":{"type":"Point","coordinates":[-109.0377,38.438]},"properties":{"s":35.7,"pub":true}},{"type":"Feature","geometry":{"type":"Point","coordinates":[-109.0377,38.4438]},"properties":{"s":57.1,"pub":true}},{"type":"Feature","geometry":{"type":"Point","coordinates":[-109.0377,38.4496]},"properties":{"s":100.0,"pub":true}},{"type":"Feature","geometry":{"type":"Point","coordinates":[-109.0377,38.4554]},"properties":{"s":100.0,"pub":true}},{"type":"Feature","geometry":{"type":"Point","coordinates":[-109.0377,38.4612]},"properties":{"s":57.1,"pub":true}},{"type":"Feature","geometry":{"type":"Point","coordinates":[-109.0377,38.467]},"properties":{"s":35.7,"pub":true}},{"type":"Feature","geometry":{"type":"Point","coordinates":[-109.0377,38.5424]},"properties":{"s":7.1,"pub":true}},{"type":"Feature","geometry":{"type":"Point","coordinates":[-109.0377,38.5482]},"properties":{"s":7.1,"pub":true}},{"type":"Feature","geometry":{"type":"Point","coordinates":[-109.0377,38.554]},"properties":{"s":7.1,"pub":true}},{"type":"Feature","geometry":{"type":"Point","coordinates":[-109.0377,38.5598]},"properties":{"s":7.1,"pub":true}},{"type":"Feature","geometry":{"type":"Point","coordinates":[-109.0377,38.5656]},"properties":{"s":7.1,"pub":true}},{"type":"Feature","geometry":{"type":"Point","coordinates":[-109.0377,38.5714]},"properties":{"s":57.1,"pub":true}},{"type":"Feature","geometry":{"type":"Point","coordinates":[-109.0377,38.5772]},"properties":{"s":96.4,"pub":true}},{"type":"Feature","geometry":{"type":"Point","coordinates":[-109.0377,38.583]},"properties":{"s":96.4,"pub":true}},{"type":"Feature","geometry":{"type":"Point","coordinates":[-109.0377,38.5888]},"properties":{"s":96.4,"pub":true}},{"type":"Feature","geometry":{"type":"Point","coordinates":[-109.0377,38.5946]},"properties":{"s":53.6,"pub":false}},{"type":"Feature","geometry":{"type":"Point","coordinates":[-109.0377,38.6004]},"properties":{"s":28.6,"pub":false}},{"type":"Feature","geometry":{"type":"Point","coordinates":[-109.0377,38.6062]},"properties":{"s":28.6,"pub":false}},{"type":"Feature","geometry":{"type":"Point","coordinates":[-109.0377,38.612]},"properties":{"s":28.6,"pub":false}},{"type":"Feature","geometry":{"type":"Point","coordinates":[-109.0377,38.6178]},"properties":{"s":28.6,"pub":false}},{"type":"Feature","geometry":{"type":"Point","coordinates":[-109.0377,38.6236]},"properties":{"s":25.0,"pub":true}},{"type":"Feature","geometry":{"type":"Point","coordinates":[-109.0302,38.3452]},"properties":{"s":10.7,"pub":true}},{"type":"Feature","geometry":{"type":"Point","coordinates":[-109.0302,38.351]},"properties":{"s":10.7,"pub":true}},{"type":"Feature","geometry":{"type":"Point","coordinates":[-109.0302,38.3568]},"properties":{"s":10.7,"pub":true}},{"type":"Feature","geometry":{"type":"Point","coordinates":[-109.0302,38.3626]},"properties":{"s":10.7,"pub":true}},{"type":"Feature","geometry":{"type":"Point","coordinates":[-109.0302,38.3684]},"properties":{"s":10.7,"pub":true}},{"type":"Feature","geometry":{"type":"Point","coordinates":[-109.0302,38.3742]},"properties":{"s":10.7,"pub":true}},{"type":"Feature","geometry":{"type":"Point","coordinates":[-109.0302,38.409]},"properties":{"s":7.1,"pub":true}},{"type":"Feature","geometry":{"type":"Point","coordinates":[-109.0302,38.4148]},"properties":{"s":7.1,"pub":true}},{"type":"Feature","geometry":{"type":"Point","coordinates":[-109.0302,38.4206]},"properties":{"s":7.1,"pub":true}},{"type":"Feature","geometry":{"type":"Point","coordinates":[-109.0302,38.4264]},"properties":{"s":7.1,"pub":true}},{"type":"Feature","geometry":{"type":"Point","coordinates":[-109.0302,38.4322]},"properties":{"s":7.1,"pub":true}},{"type":"Feature","geometry":{"type":"Point","coordinates":[-109.0302,38.438]},"properties":{"s":35.7,"pub":true}},{"type":"Feature","geometry":{"type":"Point","coordinates":[-109.0302,38.4438]},"properties":{"s":57.1,"pub":true}},{"type":"Feature","geometry":{"type":"Point","coordinates":[-109.0302,38.4496]},"properties":{"s":100.0,"pub":true}},{"type":"Feature","geometry":{"type":"Point","coordinates":[-109.0302,38.4554]},"properties":{"s":57.1,"pub":true}},{"type":"Feature","geometry":{"type":"Point","coordinates":[-109.0302,38.4612]},"properties":{"s":35.7,"pub":true}},{"type":"Feature","geometry":{"type":"Point","coordinates":[-109.0302,38.5366]},"properties":{"s":7.1,"pub":true}},{"type":"Feature","geometry":{"type":"Point","coordinates":[-109.0302,38.5424]},"properties":{"s":7.1,"pub":true}},{"type":"Feature","geometry":{"type":"Point","coordinates":[-109.0302,38.5482]},"properties":{"s":7.1,"pub":true}},{"type":"Feature","geometry":{"type":"Point","coordinates":[-109.0302,38.554]},"properties":{"s":7.1,"pub":true}},{"type":"Feature","geometry":{"type":"Point","coordinates":[-109.0302,38.5598]},"properties":{"s":7.1,"pub":true}},{"type":"Feature","geometry":{"type":"Point","coordinates":[-109.0302,38.5656]},"properties":{"s":35.7,"pub":false}},{"type":"Feature","geometry":{"type":"Point","coordinates":[-109.0302,38.5714]},"properties":{"s":53.6,"pub":false}},{"type":"Feature","geometry":{"type":"Point","coordinates":[-109.0302,38.5772]},"properties":{"s":53.6,"pub":false}},{"type":"Feature","geometry":{"type":"Point","coordinates":[-109.0302,38.583]},"properties":{"s":53.6,"pub":false}},{"type":"Feature","geometry":{"type":"Point","coordinates":[-109.0302,38.5888]},"properties":{"s":53.6,"pub":false}},{"type":"Feature","geometry":{"type":"Point","coordinates":[-109.0302,38.5946]},"properties":{"s":53.6,"pub":false}},{"type":"Feature","geometry":{"type":"Point","coordinates":[-109.0302,38.6004]},"properties":{"s":53.6,"pub":true}},{"type":"Feature","geometry":{"type":"Point","coordinates":[-109.0302,38.6062]},"properties":{"s":28.6,"pub":true}},{"type":"Feature","geometry":{"type":"Point","coordinates":[-109.0302,38.612]},"properties":{"s":28.6,"pub":false}},{"type":"Feature","geometry":{"type":"Point","coordinates":[-109.0302,38.6178]},"properties":{"s":28.6,"pub":false}},{"type":"Feature","geometry":{"type":"Point","coordinates":[-109.0227,38.3452]},"properties":{"s":10.7,"pub":true}},{"type":"Feature","geometry":{"type":"Point","coordinates":[-109.0227,38.351]},"properties":{"s":10.7,"pub":true}},{"type":"Feature","geometry":{"type":"Point","coordinates":[-109.0227,38.3568]},"properties":{"s":10.7,"pub":true}},{"type":"Feature","geometry":{"type":"Point","coordinates":[-109.0227,38.3626]},"properties":{"s":10.7,"pub":true}},{"type":"Feature","geometry":{"type":"Point","coordinates":[-109.0227,38.3684]},"properties":{"s":10.7,"pub":true}},{"type":"Feature","geometry":{"type":"Point","coordinates":[-109.0227,38.3742]},"properties":{"s":10.7,"pub":true}},{"type":"Feature","geometry":{"type":"Point","coordinates":[-109.0227,38.38]},"properties":{"s":10.7,"pub":true}},{"type":"Feature","geometry":{"type":"Point","coordinates":[-109.0227,38.4032]},"properties":{"s":7.1,"pub":true}},{"type":"Feature","geometry":{"type":"Point","coordinates":[-109.0227,38.409]},"properties":{"s":7.1,"pub":true}},{"type":"Feature","geometry":{"type":"Point","coordinates":[-109.0227,38.4148]},"properties":{"s":7.1,"pub":true}},{"type":"Feature","geometry":{"type":"Point","coordinates":[-109.0227,38.4206]},"properties":{"s":7.1,"pub":true}},{"type":"Feature","geometry":{"type":"Point","coordinates":[-109.0227,38.4264]},"properties":{"s":7.1,"pub":true}},{"type":"Feature","geometry":{"type":"Point","coordinates":[-109.0227,38.4322]},"properties":{"s":7.1,"pub":true}},{"type":"Feature","geometry":{"type":"Point","coordinates":[-109.0227,38.438]},"properties":{"s":35.7,"pub":true}},{"type":"Feature","geometry":{"type":"Point","coordinates":[-109.0227,38.4438]},"properties":{"s":57.1,"pub":true}},{"type":"Feature","geometry":{"type":"Point","coordinates":[-109.0227,38.4496]},"properties":{"s":57.1,"pub":true}},{"type":"Feature","geometry":{"type":"Point","coordinates":[-109.0227,38.4554]},"properties":{"s":57.1,"pub":true}},{"type":"Feature","geometry":{"type":"Point","coordinates":[-109.0227,38.4612]},"properties":{"s":32.1,"pub":true}},{"type":"Feature","geometry":{"type":"Point","coordinates":[-109.0227,38.525]},"properties":{"s":7.1,"pub":true}},{"type":"Feature","geometry":{"type":"Point","coordinates":[-109.0227,38.5308]},"properties":{"s":7.1,"pub":true}},{"type":"Feature","geometry":{"type":"Point","coordinates":[-109.0227,38.5366]},"properties":{"s":7.1,"pub":true}},{"type":"Feature","geometry":{"type":"Point","coordinates":[-109.0227,38.5424]},"properties":{"s":7.1,"pub":true}},{"type":"Feature","geometry":{"type":"Point","coordinates":[-109.0227,38.5482]},"properties":{"s":7.1,"pub":true}},{"type":"Feature","geometry":{"type":"Point","coordinates":[-109.0227,38.554]},"properties":{"s":7.1,"pub":true}},{"type":"Feature","geometry":{"type":"Point","coordinates":[-109.0227,38.5598]},"properties":{"s":7.1,"pub":true}},{"type":"Feature","geometry":{"type":"Point","coordinates":[-109.0227,38.5656]},"properties":{"s":32.1,"pub":false}},{"type":"Feature","geometry":{"type":"Point","coordinates":[-109.0227,38.5714]},"properties":{"s":53.6,"pub":false}},{"type":"Feature","geometry":{"type":"Point","coordinates":[-109.0227,38.5772]},"properties":{"s":53.6,"pub":false}},{"type":"Feature","geometry":{"type":"Point","coordinates":[-109.0227,38.583]},"properties":{"s":53.6,"pub":false}},{"type":"Feature","geometry":{"type":"Point","coordinates":[-109.0227,38.5888]},"properties":{"s":53.6,"pub":false}},{"type":"Feature","geometry":{"type":"Point","coordinates":[-109.0227,38.5946]},"properties":{"s":53.6,"pub":false}},{"type":"Feature","geometry":{"type":"Point","coordinates":[-109.0227,38.6004]},"properties":{"s":53.6,"pub":true}},{"type":"Feature","geometry":{"type":"Point","coordinates":[-109.0227,38.6062]},"properties":{"s":25.0,"pub":true}},{"type":"Feature","geometry":{"type":"Point","coordinates":[-109.0227,38.612]},"properties":{"s":28.6,"pub":true}},{"type":"Feature","geometry":{"type":"Point","coordinates":[-109.0227,38.6178]},"properties":{"s":7.1,"pub":true}},{"type":"Feature","geometry":{"type":"Point","coordinates":[-109.0227,38.6236]},"properties":{"s":7.1,"pub":true}},{"type":"Feature","geometry":{"type":"Point","coordinates":[-109.0152,38.3452]},"properties":{"s":10.7,"pub":true}},{"type":"Feature","geometry":{"type":"Point","coordinates":[-109.0152,38.351]},"properties":{"s":10.7,"pub":true}},{"type":"Feature","geometry":{"type":"Point","coordinates":[-109.0152,38.3568]},"properties":{"s":10.7,"pub":true}},{"type":"Feature","geometry":{"type":"Point","coordinates":[-109.0152,38.3626]},"properties":{"s":10.7,"pub":true}},{"type":"Feature","geometry":{"type":"Point","coordinates":[-109.0152,38.3684]},"properties":{"s":10.7,"pub":true}},{"type":"Feature","geometry":{"type":"Point","coordinates":[-109.0152,38.3742]},"properties":{"s":10.7,"pub":true}},{"type":"Feature","geometry":{"type":"Point","coordinates":[-109.0152,38.38]},"properties":{"s":10.7,"pub":true}},{"type":"Feature","geometry":{"type":"Point","coordinates":[-109.0152,38.3858]},"properties":{"s":10.7,"pub":true}},{"type":"Feature","geometry":{"type":"Point","coordinates":[-109.0152,38.3974]},"properties":{"s":7.1,"pub":true}},{"type":"Feature","geometry":{"type":"Point","coordinates":[-109.0152,38.4032]},"properties":{"s":7.1,"pub":true}},{"type":"Feature","geometry":{"type":"Point","coordinates":[-109.0152,38.409]},"properties":{"s":7.1,"pub":true}},{"type":"Feature","geometry":{"type":"Point","coordinates":[-109.0152,38.4148]},"properties":{"s":7.1,"pub":true}},{"type":"Feature","geometry":{"type":"Point","coordinates":[-109.0152,38.4206]},"properties":{"s":7.1,"pub":true}},{"type":"Feature","geometry":{"type":"Point","coordinates":[-109.0152,38.4264]},"properties":{"s":7.1,"pub":true}},{"type":"Feature","geometry":{"type":"Point","coordinates":[-109.0152,38.4322]},"properties":{"s":35.7,"pub":true}},{"type":"Feature","geometry":{"type":"Point","coordinates":[-109.0152,38.438]},"properties":{"s":57.1,"pub":true}},{"type":"Feature","geometry":{"type":"Point","coordinates":[-109.0152,38.4438]},"properties":{"s":57.1,"pub":true}},{"type":"Feature","geometry":{"type":"Point","coordinates":[-109.0152,38.4496]},"properties":{"s":57.1,"pub":true}},{"type":"Feature","geometry":{"type":"Point","coordinates":[-109.0152,38.4554]},"properties":{"s":32.1,"pub":true}},{"type":"Feature","geometry":{"type":"Point","coordinates":[-109.0152,38.5192]},"properties":{"s":7.1,"pub":true}},{"type":"Feature","geometry":{"type":"Point","coordinates":[-109.0152,38.525]},"properties":{"s":7.1,"pub":true}},{"type":"Feature","geometry":{"type":"Point","coordinates":[-109.0152,38.5308]},"properties":{"s":7.1,"pub":true}},{"type":"Feature","geometry":{"type":"Point","coordinates":[-109.0152,38.5366]},"properties":{"s":7.1,"pub":true}},{"type":"Feature","geometry":{"type":"Point","coordinates":[-109.0152,38.5424]},"properties":{"s":7.1,"pub":true}},{"type":"Feature","geometry":{"type":"Point","coordinates":[-109.0152,38.5482]},"properties":{"s":7.1,"pub":true}},{"type":"Feature","geometry":{"type":"Point","coordinates":[-109.0152,38.554]},"properties":{"s":7.1,"pub":true}},{"type":"Feature","geometry":{"type":"Point","coordinates":[-109.0152,38.5598]},"properties":{"s":32.1,"pub":true}},{"type":"Feature","geometry":{"type":"Point","coordinates":[-109.0152,38.5656]},"properties":{"s":53.6,"pub":true}},{"type":"Feature","geometry":{"type":"Point","coordinates":[-109.0152,38.5714]},"properties":{"s":53.6,"pub":false}},{"type":"Feature","geometry":{"type":"Point","coordinates":[-109.0152,38.5772]},"properties":{"s":53.6,"pub":false}},{"type":"Feature","geometry":{"type":"Point","coordinates":[-109.0152,38.583]},"properties":{"s":53.6,"pub":false}},{"type":"Feature","geometry":{"type":"Point","coordinates":[-109.0152,38.5888]},"properties":{"s":53.6,"pub":false}},{"type":"Feature","geometry":{"type":"Point","coordinates":[-109.0152,38.5946]},"properties":{"s":53.6,"pub":false}},{"type":"Feature","geometry":{"type":"Point","coordinates":[-109.0152,38.6004]},"properties":{"s":53.6,"pub":false}},{"type":"Feature","geometry":{"type":"Point","coordinates":[-109.0152,38.6062]},"properties":{"s":53.6,"pub":false}},{"type":"Feature","geometry":{"type":"Point","coordinates":[-109.0152,38.612]},"properties":{"s":25.0,"pub":false}},{"type":"Feature","geometry":{"type":"Point","coordinates":[-109.0152,38.6178]},"properties":{"s":7.1,"pub":true}},{"type":"Feature","geometry":{"type":"Point","coordinates":[-109.0152,38.6236]},"properties":{"s":7.1,"pub":true}},{"type":"Feature","geometry":{"type":"Point","coordinates":[-109.0152,38.6294]},"properties":{"s":7.1,"pub":true}},{"type":"Feature","geometry":{"type":"Point","coordinates":[-109.0077,38.3452]},"properties":{"s":10.7,"pub":true}},{"type":"Feature","geometry":{"type":"Point","coordinates":[-109.0077,38.351]},"properties":{"s":10.7,"pub":true}},{"type":"Feature","geometry":{"type":"Point","coordinates":[-109.0077,38.3568]},"properties":{"s":10.7,"pub":true}},{"type":"Feature","geometry":{"type":"Point","coordinates":[-109.0077,38.3626]},"properties":{"s":10.7,"pub":true}},{"type":"Feature","geometry":{"type":"Point","coordinates":[-109.0077,38.3684]},"properties":{"s":10.7,"pub":true}},{"type":"Feature","geometry":{"type":"Point","coordinates":[-109.0077,38.3742]},"properties":{"s":10.7,"pub":true}},{"type":"Feature","geometry":{"type":"Point","coordinates":[-109.0077,38.38]},"properties":{"s":10.7,"pub":true}},{"type":"Feature","geometry":{"type":"Point","coordinates":[-109.0077,38.3858]},"properties":{"s":10.7,"pub":true}},{"type":"Feature","geometry":{"type":"Point","coordinates":[-109.0077,38.3916]},"properties":{"s":14.3,"pub":true}},{"type":"Feature","geometry":{"type":"Point","coordinates":[-109.0077,38.3974]},"properties":{"s":7.1,"pub":true}},{"type":"Feature","geometry":{"type":"Point","coordinates":[-109.0077,38.4032]},"properties":{"s":7.1,"pub":true}},{"type":"Feature","geometry":{"type":"Point","coordinates":[-109.0077,38.409]},"properties":{"s":7.1,"pub":true}},{"type":"Feature","geometry":{"type":"Point","coordinates":[-109.0077,38.4148]},"properties":{"s":7.1,"pub":true}},{"type":"Feature","geometry":{"type":"Point","coordinates":[-109.0077,38.4206]},"properties":{"s":7.1,"pub":true}},{"type":"Feature","geometry":{"type":"Point","coordinates":[-109.0077,38.4264]},"properties":{"s":7.1,"pub":true}},{"type":"Feature","geometry":{"type":"Point","coordinates":[-109.0077,38.4322]},"properties":{"s":57.1,"pub":true}},{"type":"Feature","geometry":{"type":"Point","coordinates":[-109.0077,38.438]},"properties":{"s":35.7,"pub":true}},{"type":"Feature","geometry":{"type":"Point","coordinates":[-109.0077,38.4438]},"properties":{"s":35.7,"pub":true}},{"type":"Feature","geometry":{"type":"Point","coordinates":[-109.0077,38.4496]},"properties":{"s":32.1,"pub":true}},{"type":"Feature","geometry":{"type":"Point","coordinates":[-109.0077,38.4786]},"properties":{"s":10.7,"pub":true}},{"type":"Feature","geometry":{"type":"Point","coordinates":[-109.0077,38.5134]},"properties":{"s":7.1,"pub":true}},{"type":"Feature","geometry":{"type":"Point","coordinates":[-109.0077,38.5192]},"properties":{"s":7.1,"pub":true}},{"type":"Feature","geometry":{"type":"Point","coordinates":[-109.0077,38.525]},"properties":{"s":7.1,"pub":true}},{"type":"Feature","geometry":{"type":"Point","coordinates":[-109.0077,38.5308]},"properties":{"s":7.1,"pub":true}},{"type":"Feature","geometry":{"type":"Point","coordinates":[-109.0077,38.5366]},"properties":{"s":7.1,"pub":true}},{"type":"Feature","geometry":{"type":"Point","coordinates":[-109.0077,38.5424]},"properties":{"s":7.1,"pub":true}},{"type":"Feature","geometry":{"type":"Point","coordinates":[-109.0077,38.5482]},"properties":{"s":7.1,"pub":true}},{"type":"Feature","geometry":{"type":"Point","coordinates":[-109.0077,38.5598]},"properties":{"s":53.6,"pub":true}},{"type":"Feature","geometry":{"type":"Point","coordinates":[-109.0077,38.5656]},"properties":{"s":53.6,"pub":true}},{"type":"Feature","geometry":{"type":"Point","coordinates":[-109.0077,38.5714]},"properties":{"s":53.6,"pub":false}},{"type":"Feature","geometry":{"type":"Point","coordinates":[-109.0077,38.5772]},"properties":{"s":53.6,"pub":false}},{"type":"Feature","geometry":{"type":"Point","coordinates":[-109.0077,38.583]},"properties":{"s":53.6,"pub":false}},{"type":"Feature","geometry":{"type":"Point","coordinates":[-109.0077,38.5888]},"properties":{"s":53.6,"pub":false}},{"type":"Feature","geometry":{"type":"Point","coordinates":[-109.0077,38.5946]},"properties":{"s":53.6,"pub":false}},{"type":"Feature","geometry":{"type":"Point","coordinates":[-109.0077,38.6004]},"properties":{"s":53.6,"pub":false}},{"type":"Feature","geometry":{"type":"Point","coordinates":[-109.0077,38.6062]},"properties":{"s":25.0,"pub":false}},{"type":"Feature","geometry":{"type":"Point","coordinates":[-109.0077,38.612]},"properties":{"s":25.0,"pub":false}},{"type":"Feature","geometry":{"type":"Point","coordinates":[-109.0077,38.6236]},"properties":{"s":7.1,"pub":true}},{"type":"Feature","geometry":{"type":"Point","coordinates":[-109.0077,38.6294]},"properties":{"s":7.1,"pub":true}},{"type":"Feature","geometry":{"type":"Point","coordinates":[-109.0002,38.3452]},"properties":{"s":10.7,"pub":true}},{"type":"Feature","geometry":{"type":"Point","coordinates":[-109.0002,38.351]},"properties":{"s":10.7,"pub":true}},{"type":"Feature","geometry":{"type":"Point","coordinates":[-109.0002,38.3568]},"properties":{"s":10.7,"pub":true}},{"type":"Feature","geometry":{"type":"Point","coordinates":[-109.0002,38.3626]},"properties":{"s":10.7,"pub":true}},{"type":"Feature","geometry":{"type":"Point","coordinates":[-109.0002,38.3684]},"properties":{"s":10.7,"pub":true}},{"type":"Feature","geometry":{"type":"Point","coordinates":[-109.0002,38.3742]},"properties":{"s":10.7,"pub":true}},{"type":"Feature","geometry":{"type":"Point","coordinates":[-109.0002,38.38]},"properties":{"s":10.7,"pub":true}},{"type":"Feature","geometry":{"type":"Point","coordinates":[-109.0002,38.3858]},"properties":{"s":14.3,"pub":true}},{"type":"Feature","geometry":{"type":"Point","coordinates":[-109.0002,38.3916]},"properties":{"s":14.3,"pub":true}},{"type":"Feature","geometry":{"type":"Point","coordinates":[-109.0002,38.3974]},"properties":{"s":7.1,"pub":true}},{"type":"Feature","geometry":{"type":"Point","coordinates":[-109.0002,38.4032]},"properties":{"s":7.1,"pub":true}},{"type":"Feature","geometry":{"type":"Point","coordinates":[-109.0002,38.409]},"properties":{"s":7.1,"pub":true}},{"type":"Feature","geometry":{"type":"Point","coordinates":[-109.0002,38.4148]},"properties":{"s":7.1,"pub":true}},{"type":"Feature","geometry":{"type":"Point","coordinates":[-109.0002,38.4206]},"properties":{"s":7.1,"pub":true}},{"type":"Feature","geometry":{"type":"Point","coordinates":[-109.0002,38.4264]},"properties":{"s":7.1,"pub":true}},{"type":"Feature","geometry":{"type":"Point","coordinates":[-109.0002,38.4322]},"properties":{"s":7.1,"pub":true}},{"type":"Feature","geometry":{"type":"Point","coordinates":[-109.0002,38.438]},"properties":{"s":35.7,"pub":true}},{"type":"Feature","geometry":{"type":"Point","coordinates":[-109.0002,38.4728]},"properties":{"s":10.7,"pub":true}},{"type":"Feature","geometry":{"type":"Point","coordinates":[-109.0002,38.5076]},"properties":{"s":7.1,"pub":true}},{"type":"Feature","geometry":{"type":"Point","coordinates":[-109.0002,38.5134]},"properties":{"s":7.1,"pub":true}},{"type":"Feature","geometry":{"type":"Point","coordinates":[-109.0002,38.5192]},"properties":{"s":7.1,"pub":false}},{"type":"Feature","geometry":{"type":"Point","coordinates":[-109.0002,38.525]},"properties":{"s":7.1,"pub":true}},{"type":"Feature","geometry":{"type":"Point","coordinates":[-109.0002,38.5308]},"properties":{"s":7.1,"pub":true}},{"type":"Feature","geometry":{"type":"Point","coordinates":[-109.0002,38.5366]},"properties":{"s":7.1,"pub":true}},{"type":"Feature","geometry":{"type":"Point","coordinates":[-109.0002,38.5424]},"properties":{"s":7.1,"pub":true}},{"type":"Feature","geometry":{"type":"Point","coordinates":[-109.0002,38.5598]},"properties":{"s":53.6,"pub":true}},{"type":"Feature","geometry":{"type":"Point","coordinates":[-109.0002,38.5656]},"properties":{"s":53.6,"pub":true}},{"type":"Feature","geometry":{"type":"Point","coordinates":[-109.0002,38.5714]},"properties":{"s":53.6,"pub":false}},{"type":"Feature","geometry":{"type":"Point","coordinates":[-109.0002,38.5772]},"properties":{"s":53.6,"pub":false}},{"type":"Feature","geometry":{"type":"Point","coordinates":[-109.0002,38.583]},"properties":{"s":53.6,"pub":false}},{"type":"Feature","geometry":{"type":"Point","coordinates":[-109.0002,38.5888]},"properties":{"s":53.6,"pub":false}},{"type":"Feature","geometry":{"type":"Point","coordinates":[-109.0002,38.5946]},"properties":{"s":53.6,"pub":false}},{"type":"Feature","geometry":{"type":"Point","coordinates":[-109.0002,38.6004]},"properties":{"s":25.0,"pub":true}},{"type":"Feature","geometry":{"type":"Point","coordinates":[-109.0002,38.6062]},"properties":{"s":25.0,"pub":false}},{"type":"Feature","geometry":{"type":"Point","coordinates":[-109.0002,38.6236]},"properties":{"s":7.1,"pub":true}},{"type":"Feature","geometry":{"type":"Point","coordinates":[-109.0002,38.6294]},"properties":{"s":7.1,"pub":true}},{"type":"Feature","geometry":{"type":"Point","coordinates":[-108.9927,38.351]},"properties":{"s":10.7,"pub":true}},{"type":"Feature","geometry":{"type":"Point","coordinates":[-108.9927,38.3568]},"properties":{"s":10.7,"pub":true}},{"type":"Feature","geometry":{"type":"Point","coordinates":[-108.9927,38.3626]},"properties":{"s":10.7,"pub":true}},{"type":"Feature","geometry":{"type":"Point","coordinates":[-108.9927,38.3684]},"properties":{"s":10.7,"pub":false}},{"type":"Feature","geometry":{"type":"Point","coordinates":[-108.9927,38.3742]},"properties":{"s":10.7,"pub":false}},{"type":"Feature","geometry":{"type":"Point","coordinates":[-108.9927,38.38]},"properties":{"s":14.3,"pub":false}},{"type":"Feature","geometry":{"type":"Point","coordinates":[-108.9927,38.3858]},"properties":{"s":14.3,"pub":false}},{"type":"Feature","geometry":{"type":"Point","coordinates":[-108.9927,38.3916]},"properties":{"s":14.3,"pub":false}},{"type":"Feature","geometry":{"type":"Point","coordinates":[-108.9927,38.3974]},"properties":{"s":14.3,"pub":true}},{"type":"Feature","geometry":{"type":"Point","coordinates":[-108.9927,38.4032]},"properties":{"s":14.3,"pub":true}},{"type":"Feature","geometry":{"type":"Point","coordinates":[-108.9927,38.409]},"properties":{"s":7.1,"pub":true}},{"type":"Feature","geometry":{"type":"Point","coordinates":[-108.9927,38.4148]},"properties":{"s":7.1,"pub":true}},{"type":"Feature","geometry":{"type":"Point","coordinates":[-108.9927,38.4206]},"properties":{"s":7.1,"pub":true}},{"type":"Feature","geometry":{"type":"Point","coordinates":[-108.9927,38.4264]},"properties":{"s":7.1,"pub":true}},{"type":"Feature","geometry":{"type":"Point","coordinates":[-108.9927,38.4322]},"properties":{"s":7.1,"pub":true}},{"type":"Feature","geometry":{"type":"Point","coordinates":[-108.9927,38.4728]},"properties":{"s":10.7,"pub":true}},{"type":"Feature","geometry":{"type":"Point","coordinates":[-108.9927,38.5018]},"properties":{"s":7.1,"pub":true}},{"type":"Feature","geometry":{"type":"Point","coordinates":[-108.9927,38.5076]},"properties":{"s":7.1,"pub":false}},{"type":"Feature","geometry":{"type":"Point","coordinates":[-108.9927,38.5134]},"properties":{"s":7.1,"pub":false}},{"type":"Feature","geometry":{"type":"Point","coordinates":[-108.9927,38.5192]},"properties":{"s":7.1,"pub":false}},{"type":"Feature","geometry":{"type":"Point","coordinates":[-108.9927,38.525]},"properties":{"s":7.1,"pub":true}},{"type":"Feature","geometry":{"type":"Point","coordinates":[-108.9927,38.5308]},"properties":{"s":7.1,"pub":true}},{"type":"Feature","geometry":{"type":"Point","coordinates":[-108.9927,38.5366]},"properties":{"s":7.1,"pub":true}},{"type":"Feature","geometry":{"type":"Point","coordinates":[-108.9927,38.5598]},"properties":{"s":32.1,"pub":true}},{"type":"Feature","geometry":{"type":"Point","coordinates":[-108.9927,38.5656]},"properties":{"s":53.6,"pub":true}},{"type":"Feature","geometry":{"type":"Point","coordinates":[-108.9927,38.5714]},"properties":{"s":53.6,"pub":true}},{"type":"Feature","geometry":{"type":"Point","coordinates":[-108.9927,38.5772]},"properties":{"s":53.6,"pub":true}},{"type":"Feature","geometry":{"type":"Point","coordinates":[-108.9927,38.583]},"properties":{"s":53.6,"pub":true}},{"type":"Feature","geometry":{"type":"Point","coordinates":[-108.9927,38.5888]},"properties":{"s":32.1,"pub":false}},{"type":"Feature","geometry":{"type":"Point","coordinates":[-108.9927,38.5946]},"properties":{"s":32.1,"pub":false}},{"type":"Feature","geometry":{"type":"Point","coordinates":[-108.9927,38.6004]},"properties":{"s":10.7,"pub":true}},{"type":"Feature","geometry":{"type":"Point","coordinates":[-108.9927,38.6062]},"properties":{"s":10.7,"pub":false}},{"type":"Feature","geometry":{"type":"Point","coordinates":[-108.9927,38.6294]},"properties":{"s":7.1,"pub":true}},{"type":"Feature","geometry":{"type":"Point","coordinates":[-108.9927,38.6352]},"properties":{"s":7.1,"pub":true}},{"type":"Feature","geometry":{"type":"Point","coordinates":[-108.9852,38.3626]},"properties":{"s":10.7,"pub":true}},{"type":"Feature","geometry":{"type":"Point","coordinates":[-108.9852,38.3684]},"properties":{"s":10.7,"pub":false}},{"type":"Feature","geometry":{"type":"Point","coordinates":[-108.9852,38.3742]},"properties":{"s":14.3,"pub":false}},{"type":"Feature","geometry":{"type":"Point","coordinates":[-108.9852,38.38]},"properties":{"s":14.3,"pub":false}},{"type":"Feature","geometry":{"type":"Point","coordinates":[-108.9852,38.3858]},"properties":{"s":14.3,"pub":false}},{"type":"Feature","geometry":{"type":"Point","coordinates":[-108.9852,38.3916]},"properties":{"s":14.3,"pub":false}},{"type":"Feature","geometry":{"type":"Point","coordinates":[-108.9852,38.3974]},"properties":{"s":14.3,"pub":false}},{"type":"Feature","geometry":{"type":"Point","coordinates":[-108.9852,38.4032]},"properties":{"s":14.3,"pub":false}},{"type":"Feature","geometry":{"type":"Point","coordinates":[-108.9852,38.409]},"properties":{"s":14.3,"pub":true}},{"type":"Feature","geometry":{"type":"Point","coordinates":[-108.9852,38.4148]},"properties":{"s":7.1,"pub":true}},{"type":"Feature","geometry":{"type":"Point","coordinates":[-108.9852,38.4206]},"properties":{"s":7.1,"pub":true}},{"type":"Feature","geometry":{"type":"Point","coordinates":[-108.9852,38.4264]},"properties":{"s":7.1,"pub":true}},{"type":"Feature","geometry":{"type":"Point","coordinates":[-108.9852,38.4322]},"properties":{"s":7.1,"pub":true}},{"type":"Feature","geometry":{"type":"Point","coordinates":[-108.9852,38.467]},"properties":{"s":10.7,"pub":true}},{"type":"Feature","geometry":{"type":"Point","coordinates":[-108.9852,38.4728]},"properties":{"s":10.7,"pub":true}},{"type":"Feature","geometry":{"type":"Point","coordinates":[-108.9852,38.496]},"properties":{"s":7.1,"pub":false}},{"type":"Feature","geometry":{"type":"Point","coordinates":[-108.9852,38.5018]},"properties":{"s":7.1,"pub":false}},{"type":"Feature","geometry":{"type":"Point","coordinates":[-108.9852,38.5076]},"properties":{"s":7.1,"pub":false}},{"type":"Feature","geometry":{"type":"Point","coordinates":[-108.9852,38.5134]},"properties":{"s":7.1,"pub":false}},{"type":"Feature","geometry":{"type":"Point","coordinates":[-108.9852,38.5192]},"properties":{"s":7.1,"pub":false}},{"type":"Feature","geometry":{"type":"Point","coordinates":[-108.9852,38.525]},"properties":{"s":7.1,"pub":true}},{"type":"Feature","geometry":{"type":"Point","coordinates":[-108.9852,38.5308]},"properties":{"s":7.1,"pub":true}},{"type":"Feature","geometry":{"type":"Point","coordinates":[-108.9852,38.5772]},"properties":{"s":10.7,"pub":true}},{"type":"Feature","geometry":{"type":"Point","coordinates":[-108.9852,38.583]},"properties":{"s":10.7,"pub":true}},{"type":"Feature","geometry":{"type":"Point","coordinates":[-108.9852,38.5888]},"properties":{"s":10.7,"pub":true}},{"type":"Feature","geometry":{"type":"Point","coordinates":[-108.9852,38.5946]},"properties":{"s":10.7,"pub":true}},{"type":"Feature","geometry":{"type":"Point","coordinates":[-108.9852,38.6004]},"properties":{"s":10.7,"pub":true}},{"type":"Feature","geometry":{"type":"Point","coordinates":[-108.9852,38.6062]},"properties":{"s":10.7,"pub":true}},{"type":"Feature","geometry":{"type":"Point","coordinates":[-108.9852,38.612]},"properties":{"s":10.7,"pub":true}},{"type":"Feature","geometry":{"type":"Point","coordinates":[-108.9777,38.3626]},"properties":{"s":10.7,"pub":false}},{"type":"Feature","geometry":{"type":"Point","coordinates":[-108.9777,38.3684]},"properties":{"s":14.3,"pub":false}},{"type":"Feature","geometry":{"type":"Point","coordinates":[-108.9777,38.3742]},"properties":{"s":14.3,"pub":false}},{"type":"Feature","geometry":{"type":"Point","coordinates":[-108.9777,38.38]},"properties":{"s":14.3,"pub":false}},{"type":"Feature","geometry":{"type":"Point","coordinates":[-108.9777,38.3858]},"properties":{"s":14.3,"pub":false}},{"type":"Feature","geometry":{"type":"Point","coordinates":[-108.9777,38.3916]},"properties":{"s":14.3,"pub":false}},{"type":"Feature","geometry":{"type":"Point","coordinates":[-108.9777,38.3974]},"properties":{"s":14.3,"pub":false}},{"type":"Feature","geometry":{"type":"Point","coordinates":[-108.9777,38.4032]},"properties":{"s":14.3,"pub":false}},{"type":"Feature","geometry":{"type":"Point","coordinates":[-108.9777,38.409]},"properties":{"s":14.3,"pub":true}},{"type":"Feature","geometry":{"type":"Point","coordinates":[-108.9777,38.4148]},"properties":{"s":14.3,"pub":true}},{"type":"Feature","geometry":{"type":"Point","coordinates":[-108.9777,38.4206]},"properties":{"s":14.3,"pub":true}},{"type":"Feature","geometry":{"type":"Point","coordinates":[-108.9777,38.4264]},"properties":{"s":7.1,"pub":true}},{"type":"Feature","geometry":{"type":"Point","coordinates":[-108.9777,38.467]},"properties":{"s":10.7,"pub":true}},{"type":"Feature","geometry":{"type":"Point","coordinates":[-108.9777,38.4902]},"properties":{"s":7.1,"pub":true}},{"type":"Feature","geometry":{"type":"Point","coordinates":[-108.9777,38.496]},"properties":{"s":7.1,"pub":true}},{"type":"Feature","geometry":{"type":"Point","coordinates":[-108.9777,38.5018]},"properties":{"s":7.1,"pub":true}},{"type":"Feature","geometry":{"type":"Point","coordinates":[-108.9777,38.5076]},"properties":{"s":7.1,"pub":true}},{"type":"Feature","geometry":{"type":"Point","coordinates":[-108.9777,38.5134]},"properties":{"s":7.1,"pub":true}},{"type":"Feature","geometry":{"type":"Point","coordinates":[-108.9777,38.5192]},"properties":{"s":7.1,"pub":true}},{"type":"Feature","geometry":{"type":"Point","coordinates":[-108.9777,38.525]},"properties":{"s":7.1,"pub":true}},{"type":"Feature","geometry":{"type":"Point","coordinates":[-108.9777,38.5366]},"properties":{"s":10.7,"pub":true}},{"type":"Feature","geometry":{"type":"Point","coordinates":[-108.9777,38.5424]},"properties":{"s":10.7,"pub":true}},{"type":"Feature","geometry":{"type":"Point","coordinates":[-108.9777,38.5482]},"properties":{"s":10.7,"pub":true}},{"type":"Feature","geometry":{"type":"Point","coordinates":[-108.9777,38.5714]},"properties":{"s":10.7,"pub":true}},{"type":"Feature","geometry":{"type":"Point","coordinates":[-108.9777,38.5772]},"properties":{"s":10.7,"pub":true}},{"type":"Feature","geometry":{"type":"Point","coordinates":[-108.9777,38.583]},"properties":{"s":10.7,"pub":true}},{"type":"Feature","geometry":{"type":"Point","coordinates":[-108.9777,38.5888]},"properties":{"s":10.7,"pub":true}},{"type":"Feature","geometry":{"type":"Point","coordinates":[-108.9777,38.5946]},"properties":{"s":10.7,"pub":true}},{"type":"Feature","geometry":{"type":"Point","coordinates":[-108.9777,38.6004]},"properties":{"s":10.7,"pub":true}},{"type":"Feature","geometry":{"type":"Point","coordinates":[-108.9777,38.6062]},"properties":{"s":10.7,"pub":true}},{"type":"Feature","geometry":{"type":"Point","coordinates":[-108.9777,38.612]},"properties":{"s":10.7,"pub":true}},{"type":"Feature","geometry":{"type":"Point","coordinates":[-108.9777,38.6178]},"properties":{"s":10.7,"pub":true}},{"type":"Feature","geometry":{"type":"Point","coordinates":[-108.9702,38.3568]},"properties":{"s":53.6,"pub":false}},{"type":"Feature","geometry":{"type":"Point","coordinates":[-108.9702,38.3626]},"properties":{"s":53.6,"pub":false}},{"type":"Feature","geometry":{"type":"Point","coordinates":[-108.9702,38.3684]},"properties":{"s":57.1,"pub":false}},{"type":"Feature","geometry":{"type":"Point","coordinates":[-108.9702,38.3742]},"properties":{"s":57.1,"pub":false}},{"type":"Feature","geometry":{"type":"Point","coordinates":[-108.9702,38.38]},"properties":{"s":57.1,"pub":false}},{"type":"Feature","geometry":{"type":"Point","coordinates":[-108.9702,38.3858]},"properties":{"s":14.3,"pub":false}},{"type":"Feature","geometry":{"type":"Point","coordinates":[-108.9702,38.3916]},"properties":{"s":14.3,"pub":false}},{"type":"Feature","geometry":{"type":"Point","coordinates":[-108.9702,38.3974]},"properties":{"s":14.3,"pub":false}},{"type":"Feature","geometry":{"type":"Point","coordinates":[-108.9702,38.4032]},"properties":{"s":14.3,"pub":false}},{"type":"Feature","geometry":{"type":"Point","coordinates":[-108.9702,38.409]},"properties":{"s":14.3,"pub":true}},{"type":"Feature","geometry":{"type":"Point","coordinates":[-108.9702,38.4148]},"properties":{"s":14.3,"pub":true}},{"type":"Feature","geometry":{"type":"Point","coordinates":[-108.9702,38.4206]},"properties":{"s":7.1,"pub":true}},{"type":"Feature","geometry":{"type":"Point","coordinates":[-108.9702,38.467]},"properties":{"s":10.7,"pub":true}},{"type":"Feature","geometry":{"type":"Point","coordinates":[-108.9702,38.4844]},"properties":{"s":7.1,"pub":true}},{"type":"Feature","geometry":{"type":"Point","coordinates":[-108.9702,38.4902]},"properties":{"s":7.1,"pub":true}},{"type":"Feature","geometry":{"type":"Point","coordinates":[-108.9702,38.496]},"properties":{"s":7.1,"pub":true}},{"type":"Feature","geometry":{"type":"Point","coordinates":[-108.9702,38.5018]},"properties":{"s":7.1,"pub":true}},{"type":"Feature","geometry":{"type":"Point","coordinates":[-108.9702,38.5076]},"properties":{"s":7.1,"pub":true}},{"type":"Feature","geometry":{"type":"Point","coordinates":[-108.9702,38.5134]},"properties":{"s":7.1,"pub":true}},{"type":"Feature","geometry":{"type":"Point","coordinates":[-108.9702,38.5366]},"properties":{"s":10.7,"pub":true}},{"type":"Feature","geometry":{"type":"Point","coordinates":[-108.9702,38.5424]},"properties":{"s":10.7,"pub":true}},{"type":"Feature","geometry":{"type":"Point","coordinates":[-108.9702,38.5482]},"properties":{"s":10.7,"pub":true}},{"type":"Feature","geometry":{"type":"Point","coordinates":[-108.9702,38.554]},"properties":{"s":10.7,"pub":true}},{"type":"Feature","geometry":{"type":"Point","coordinates":[-108.9702,38.5656]},"properties":{"s":10.7,"pub":true}},{"type":"Feature","geometry":{"type":"Point","coordinates":[-108.9702,38.5714]},"properties":{"s":10.7,"pub":true}},{"type":"Feature","geometry":{"type":"Point","coordinates":[-108.9702,38.5772]},"properties":{"s":10.7,"pub":true}},{"type":"Feature","geometry":{"type":"Point","coordinates":[-108.9702,38.583]},"properties":{"s":10.7,"pub":true}},{"type":"Feature","geometry":{"type":"Point","coordinates":[-108.9702,38.5888]},"properties":{"s":10.7,"pub":true}},{"type":"Feature","geometry":{"type":"Point","coordinates":[-108.9702,38.5946]},"properties":{"s":10.7,"pub":true}},{"type":"Feature","geometry":{"type":"Point","coordinates":[-108.9702,38.6004]},"properties":{"s":10.7,"pub":true}},{"type":"Feature","geometry":{"type":"Point","coordinates":[-108.9702,38.6062]},"properties":{"s":10.7,"pub":true}},{"type":"Feature","geometry":{"type":"Point","coordinates":[-108.9702,38.612]},"properties":{"s":10.7,"pub":true}},{"type":"Feature","geometry":{"type":"Point","coordinates":[-108.9702,38.6178]},"properties":{"s":10.7,"pub":true}},{"type":"Feature","geometry":{"type":"Point","coordinates":[-108.9627,38.351]},"properties":{"s":53.6,"pub":false}},{"type":"Feature","geometry":{"type":"Point","coordinates":[-108.9627,38.3568]},"properties":{"s":53.6,"pub":false}},{"type":"Feature","geometry":{"type":"Point","coordinates":[-108.9627,38.3626]},"properties":{"s":53.6,"pub":false}},{"type":"Feature","geometry":{"type":"Point","coordinates":[-108.9627,38.3684]},"properties":{"s":57.1,"pub":false}},{"type":"Feature","geometry":{"type":"Point","coordinates":[-108.9627,38.3742]},"properties":{"s":57.1,"pub":false}},{"type":"Feature","geometry":{"type":"Point","coordinates":[-108.9627,38.38]},"properties":{"s":57.1,"pub":false}},{"type":"Feature","geometry":{"type":"Point","coordinates":[-108.9627,38.3858]},"properties":{"s":57.1,"pub":false}},{"type":"Feature","geometry":{"type":"Point","coordinates":[-108.9627,38.3916]},"properties":{"s":14.3,"pub":false}},{"type":"Feature","geometry":{"type":"Point","coordinates":[-108.9627,38.3974]},"properties":{"s":14.3,"pub":false}},{"type":"Feature","geometry":{"type":"Point","coordinates":[-108.9627,38.4032]},"properties":{"s":14.3,"pub":false}},{"type":"Feature","geometry":{"type":"Point","coordinates":[-108.9627,38.409]},"properties":{"s":14.3,"pub":true}},{"type":"Feature","geometry":{"type":"Point","coordinates":[-108.9627,38.4148]},"properties":{"s":7.1,"pub":true}},{"type":"Feature","geometry":{"type":"Point","coordinates":[-108.9627,38.4612]},"properties":{"s":10.7,"pub":true}},{"type":"Feature","geometry":{"type":"Point","coordinates":[-108.9627,38.467]},"properties":{"s":10.7,"pub":true}},{"type":"Feature","geometry":{"type":"Point","coordinates":[-108.9627,38.4728]},"properties":{"s":10.7,"pub":true}},{"type":"Feature","geometry":{"type":"Point","coordinates":[-108.9627,38.4902]},"properties":{"s":7.1,"pub":true}},{"type":"Feature","geometry":{"type":"Point","coordinates":[-108.9627,38.496]},"properties":{"s":7.1,"pub":true}},{"type":"Feature","geometry":{"type":"Point","coordinates":[-108.9627,38.5018]},"properties":{"s":7.1,"pub":true}},{"type":"Feature","geometry":{"type":"Point","coordinates":[-108.9627,38.5076]},"properties":{"s":7.1,"pub":true}},{"type":"Feature","geometry":{"type":"Point","coordinates":[-108.9627,38.5366]},"properties":{"s":10.7,"pub":true}},{"type":"Feature","geometry":{"type":"Point","coordinates":[-108.9627,38.5424]},"properties":{"s":10.7,"pub":true}},{"type":"Feature","geometry":{"type":"Point","coordinates":[-108.9627,38.5482]},"properties":{"s":10.7,"pub":true}},{"type":"Feature","geometry":{"type":"Point","coordinates":[-108.9627,38.554]},"properties":{"s":10.7,"pub":true}},{"type":"Feature","geometry":{"type":"Point","coordinates":[-108.9627,38.5656]},"properties":{"s":10.7,"pub":true}},{"type":"Feature","geometry":{"type":"Point","coordinates":[-108.9627,38.5714]},"properties":{"s":10.7,"pub":true}},{"type":"Feature","geometry":{"type":"Point","coordinates":[-108.9627,38.5772]},"properties":{"s":10.7,"pub":true}},{"type":"Feature","geometry":{"type":"Point","coordinates":[-108.9627,38.583]},"properties":{"s":10.7,"pub":true}},{"type":"Feature","geometry":{"type":"Point","coordinates":[-108.9627,38.5888]},"properties":{"s":10.7,"pub":true}},{"type":"Feature","geometry":{"type":"Point","coordinates":[-108.9627,38.5946]},"properties":{"s":10.7,"pub":true}},{"type":"Feature","geometry":{"type":"Point","coordinates":[-108.9627,38.6004]},"properties":{"s":10.7,"pub":true}},{"type":"Feature","geometry":{"type":"Point","coordinates":[-108.9627,38.612]},"properties":{"s":10.7,"pub":true}},{"type":"Feature","geometry":{"type":"Point","coordinates":[-108.9552,38.351]},"properties":{"s":53.6,"pub":false}},{"type":"Feature","geometry":{"type":"Point","coordinates":[-108.9552,38.3568]},"properties":{"s":53.6,"pub":false}},{"type":"Feature","geometry":{"type":"Point","coordinates":[-108.9552,38.3626]},"properties":{"s":53.6,"pub":false}},{"type":"Feature","geometry":{"type":"Point","coordinates":[-108.9552,38.3684]},"properties":{"s":57.1,"pub":false}},{"type":"Feature","geometry":{"type":"Point","coordinates":[-108.9552,38.3742]},"properties":{"s":57.1,"pub":false}},{"type":"Feature","geometry":{"type":"Point","coordinates":[-108.9552,38.38]},"properties":{"s":57.1,"pub":false}},{"type":"Feature","geometry":{"type":"Point","coordinates":[-108.9552,38.3858]},"properties":{"s":57.1,"pub":false}},{"type":"Feature","geometry":{"type":"Point","coordinates":[-108.9552,38.3916]},"properties":{"s":14.3,"pub":false}},{"type":"Feature","geometry":{"type":"Point","coordinates":[-108.9552,38.3974]},"properties":{"s":14.3,"pub":true}},{"type":"Feature","geometry":{"type":"Point","coordinates":[-108.9552,38.4032]},"properties":{"s":14.3,"pub":true}},{"type":"Feature","geometry":{"type":"Point","coordinates":[-108.9552,38.409]},"properties":{"s":14.3,"pub":true}},{"type":"Feature","geometry":{"type":"Point","coordinates":[-108.9552,38.4612]},"properties":{"s":10.7,"pub":true}},{"type":"Feature","geometry":{"type":"Point","coordinates":[-108.9552,38.467]},"properties":{"s":10.7,"pub":true}},{"type":"Feature","geometry":{"type":"Point","coordinates":[-108.9552,38.4728]},"properties":{"s":10.7,"pub":true}},{"type":"Feature","geometry":{"type":"Point","coordinates":[-108.9552,38.5482]},"properties":{"s":10.7,"pub":true}},{"type":"Feature","geometry":{"type":"Point","coordinates":[-108.9552,38.5656]},"properties":{"s":10.7,"pub":true}},{"type":"Feature","geometry":{"type":"Point","coordinates":[-108.9552,38.5714]},"properties":{"s":10.7,"pub":true}},{"type":"Feature","geometry":{"type":"Point","coordinates":[-108.9552,38.5772]},"properties":{"s":10.7,"pub":true}},{"type":"Feature","geometry":{"type":"Point","coordinates":[-108.9552,38.583]},"properties":{"s":10.7,"pub":true}},{"type":"Feature","geometry":{"type":"Point","coordinates":[-108.9552,38.5888]},"properties":{"s":10.7,"pub":true}},{"type":"Feature","geometry":{"type":"Point","coordinates":[-108.9552,38.5946]},"properties":{"s":10.7,"pub":true}},{"type":"Feature","geometry":{"type":"Point","coordinates":[-108.9477,38.3452]},"properties":{"s":53.6,"pub":false}},{"type":"Feature","geometry":{"type":"Point","coordinates":[-108.9477,38.351]},"properties":{"s":53.6,"pub":false}},{"type":"Feature","geometry":{"type":"Point","coordinates":[-108.9477,38.3568]},"properties":{"s":53.6,"pub":false}},{"type":"Feature","geometry":{"type":"Point","coordinates":[-108.9477,38.3626]},"properties":{"s":57.1,"pub":false}},{"type":"Feature","geometry":{"type":"Point","coordinates":[-108.9477,38.3684]},"properties":{"s":57.1,"pub":false}},{"type":"Feature","geometry":{"type":"Point","coordinates":[-108.9477,38.3742]},"properties":{"s":57.1,"pub":false}},{"type":"Feature","geometry":{"type":"Point","coordinates":[-108.9477,38.38]},"properties":{"s":57.1,"pub":false}},{"type":"Feature","geometry":{"type":"Point","coordinates":[-108.9477,38.3858]},"properties":{"s":14.3,"pub":false}},{"type":"Feature","geometry":{"type":"Point","coordinates":[-108.9477,38.3916]},"properties":{"s":14.3,"pub":false}},{"type":"Feature","geometry":{"type":"Point","coordinates":[-108.9477,38.3974]},"properties":{"s":14.3,"pub":true}},{"type":"Feature","geometry":{"type":"Point","coordinates":[-108.9477,38.4032]},"properties":{"s":14.3,"pub":true}},{"type":"Feature","geometry":{"type":"Point","coordinates":[-108.9477,38.4612]},"properties":{"s":10.7,"pub":true}},{"type":"Feature","geometry":{"type":"Point","coordinates":[-108.9477,38.467]},"properties":{"s":10.7,"pub":true}},{"type":"Feature","geometry":{"type":"Point","coordinates":[-108.9477,38.4728]},"properties":{"s":10.7,"pub":true}},{"type":"Feature","geometry":{"type":"Point","coordinates":[-108.9477,38.5714]},"properties":{"s":10.7,"pub":true}},{"type":"Feature","geometry":{"type":"Point","coordinates":[-108.9477,38.5772]},"properties":{"s":10.7,"pub":true}},{"type":"Feature","geometry":{"type":"Point","coordinates":[-108.9402,38.3452]},"properties":{"s":53.6,"pub":false}},{"type":"Feature","geometry":{"type":"Point","coordinates":[-108.9402,38.351]},"properties":{"s":53.6,"pub":false}},{"type":"Feature","geometry":{"type":"Point","coordinates":[-108.9402,38.3568]},"properties":{"s":53.6,"pub":false}},{"type":"Feature","geometry":{"type":"Point","coordinates":[-108.9402,38.3626]},"properties":{"s":57.1,"pub":false}},{"type":"Feature","geometry":{"type":"Point","coordinates":[-108.9402,38.3684]},"properties":{"s":57.1,"pub":false}},{"type":"Feature","geometry":{"type":"Point","coordinates":[-108.9402,38.3742]},"properties":{"s":57.1,"pub":false}},{"type":"Feature","geometry":{"type":"Point","coordinates":[-108.9402,38.38]},"properties":{"s":14.3,"pub":false}},{"type":"Feature","geometry":{"type":"Point","coordinates":[-108.9402,38.3858]},"properties":{"s":14.3,"pub":false}},{"type":"Feature","geometry":{"type":"Point","coordinates":[-108.9402,38.3916]},"properties":{"s":14.3,"pub":true}},{"type":"Feature","geometry":{"type":"Point","coordinates":[-108.9402,38.3974]},"properties":{"s":14.3,"pub":true}},{"type":"Feature","geometry":{"type":"Point","coordinates":[-108.9402,38.4032]},"properties":{"s":14.3,"pub":true}},{"type":"Feature","geometry":{"type":"Point","coordinates":[-108.9402,38.4554]},"properties":{"s":10.7,"pub":true}},{"type":"Feature","geometry":{"type":"Point","coordinates":[-108.9402,38.4612]},"properties":{"s":10.7,"pub":true}},{"type":"Feature","geometry":{"type":"Point","coordinates":[-108.9402,38.467]},"properties":{"s":10.7,"pub":true}},{"type":"Feature","geometry":{"type":"Point","coordinates":[-108.9402,38.4728]},"properties":{"s":10.7,"pub":true}},{"type":"Feature","geometry":{"type":"Point","coordinates":[-108.9402,38.4786]},"properties":{"s":10.7,"pub":true}},{"type":"Feature","geometry":{"type":"Point","coordinates":[-108.9327,38.3394]},"properties":{"s":53.6,"pub":false}},{"type":"Feature","geometry":{"type":"Point","coordinates":[-108.9327,38.3452]},"properties":{"s":53.6,"pub":false}},{"type":"Feature","geometry":{"type":"Point","coordinates":[-108.9327,38.351]},"properties":{"s":53.6,"pub":false}},{"type":"Feature","geometry":{"type":"Point","coordinates":[-108.9327,38.3568]},"properties":{"s":53.6,"pub":false}},{"type":"Feature","geometry":{"type":"Point","coordinates":[-108.9327,38.3626]},"properties":{"s":57.1,"pub":false}},{"type":"Feature","geometry":{"type":"Point","coordinates":[-108.9327,38.3684]},"properties":{"s":57.1,"pub":false}},{"type":"Feature","geometry":{"type":"Point","coordinates":[-108.9327,38.3742]},"properties":{"s":57.1,"pub":false}},{"type":"Feature","geometry":{"type":"Point","coordinates":[-108.9327,38.38]},"properties":{"s":14.3,"pub":false}},{"type":"Feature","geometry":{"type":"Point","coordinates":[-108.9327,38.3858]},"properties":{"s":14.3,"pub":false}},{"type":"Feature","geometry":{"type":"Point","coordinates":[-108.9327,38.3916]},"properties":{"s":14.3,"pub":true}},{"type":"Feature","geometry":{"type":"Point","coordinates":[-108.9327,38.3974]},"properties":{"s":14.3,"pub":true}},{"type":"Feature","geometry":{"type":"Point","coordinates":[-108.9327,38.4554]},"properties":{"s":10.7,"pub":true}},{"type":"Feature","geometry":{"type":"Point","coordinates":[-108.9327,38.4612]},"properties":{"s":10.7,"pub":true}},{"type":"Feature","geometry":{"type":"Point","coordinates":[-108.9327,38.467]},"properties":{"s":10.7,"pub":true}},{"type":"Feature","geometry":{"type":"Point","coordinates":[-108.9327,38.4728]},"properties":{"s":10.7,"pub":true}},{"type":"Feature","geometry":{"type":"Point","coordinates":[-108.9252,38.3394]},"properties":{"s":53.6,"pub":false}},{"type":"Feature","geometry":{"type":"Point","coordinates":[-108.9252,38.3452]},"properties":{"s":53.6,"pub":false}},{"type":"Feature","geometry":{"type":"Point","coordinates":[-108.9252,38.351]},"properties":{"s":53.6,"pub":false}},{"type":"Feature","geometry":{"type":"Point","coordinates":[-108.9252,38.3568]},"properties":{"s":53.6,"pub":false}},{"type":"Feature","geometry":{"type":"Point","coordinates":[-108.9252,38.3626]},"properties":{"s":57.1,"pub":false}},{"type":"Feature","geometry":{"type":"Point","coordinates":[-108.9252,38.3684]},"properties":{"s":57.1,"pub":false}},{"type":"Feature","geometry":{"type":"Point","coordinates":[-108.9252,38.3742]},"properties":{"s":57.1,"pub":false}},{"type":"Feature","geometry":{"type":"Point","coordinates":[-108.9252,38.38]},"properties":{"s":14.3,"pub":false}},{"type":"Feature","geometry":{"type":"Point","coordinates":[-108.9252,38.3858]},"properties":{"s":14.3,"pub":false}},{"type":"Feature","geometry":{"type":"Point","coordinates":[-108.9252,38.3916]},"properties":{"s":14.3,"pub":true}},{"type":"Feature","geometry":{"type":"Point","coordinates":[-108.9252,38.3974]},"properties":{"s":10.7,"pub":true}},{"type":"Feature","geometry":{"type":"Point","coordinates":[-108.9252,38.4554]},"properties":{"s":10.7,"pub":true}},{"type":"Feature","geometry":{"type":"Point","coordinates":[-108.9252,38.4612]},"properties":{"s":10.7,"pub":true}},{"type":"Feature","geometry":{"type":"Point","coordinates":[-108.9252,38.467]},"properties":{"s":10.7,"pub":true}},{"type":"Feature","geometry":{"type":"Point","coordinates":[-108.9252,38.4728]},"properties":{"s":10.7,"pub":true}},{"type":"Feature","geometry":{"type":"Point","coordinates":[-108.9177,38.3336]},"properties":{"s":53.6,"pub":false}},{"type":"Feature","geometry":{"type":"Point","coordinates":[-108.9177,38.3394]},"properties":{"s":53.6,"pub":false}},{"type":"Feature","geometry":{"type":"Point","coordinates":[-108.9177,38.3452]},"properties":{"s":53.6,"pub":false}},{"type":"Feature","geometry":{"type":"Point","coordinates":[-108.9177,38.351]},"properties":{"s":53.6,"pub":false}},{"type":"Feature","geometry":{"type":"Point","coordinates":[-108.9177,38.3568]},"properties":{"s":53.6,"pub":false}},{"type":"Feature","geometry":{"type":"Point","coordinates":[-108.9177,38.3626]},"properties":{"s":53.6,"pub":false}},{"type":"Feature","geometry":{"type":"Point","coordinates":[-108.9177,38.3684]},"properties":{"s":57.1,"pub":false}},{"type":"Feature","geometry":{"type":"Point","coordinates":[-108.9177,38.3742]},"properties":{"s":14.3,"pub":false}},{"type":"Feature","geometry":{"type":"Point","coordinates":[-108.9177,38.38]},"properties":{"s":14.3,"pub":false}},{"type":"Feature","geometry":{"type":"Point","coordinates":[-108.9177,38.3858]},"properties":{"s":14.3,"pub":false}},{"type":"Feature","geometry":{"type":"Point","coordinates":[-108.9177,38.3916]},"properties":{"s":10.7,"pub":true}},{"type":"Feature","geometry":{"type":"Point","coordinates":[-108.9102,38.3278]},"properties":{"s":53.6,"pub":false}},{"type":"Feature","geometry":{"type":"Point","coordinates":[-108.9102,38.3336]},"properties":{"s":53.6,"pub":false}},{"type":"Feature","geometry":{"type":"Point","coordinates":[-108.9102,38.3394]},"properties":{"s":53.6,"pub":false}},{"type":"Feature","geometry":{"type":"Point","coordinates":[-108.9102,38.3452]},"properties":{"s":53.6,"pub":false}},{"type":"Feature","geometry":{"type":"Point","coordinates":[-108.9102,38.351]},"properties":{"s":53.6,"pub":false}},{"type":"Feature","geometry":{"type":"Point","coordinates":[-108.9102,38.3568]},"properties":{"s":53.6,"pub":false}},{"type":"Feature","geometry":{"type":"Point","coordinates":[-108.9102,38.3626]},"properties":{"s":53.6,"pub":false}},{"type":"Feature","geometry":{"type":"Point","coordinates":[-108.9102,38.3684]},"properties":{"s":57.1,"pub":false}},{"type":"Feature","geometry":{"type":"Point","coordinates":[-108.9102,38.3742]},"properties":{"s":14.3,"pub":false}},{"type":"Feature","geometry":{"type":"Point","coordinates":[-108.9102,38.38]},"properties":{"s":10.7,"pub":true}},{"type":"Feature","geometry":{"type":"Point","coordinates":[-108.9102,38.3858]},"properties":{"s":10.7,"pub":true}},{"type":"Feature","geometry":{"type":"Point","coordinates":[-108.9102,38.3916]},"properties":{"s":10.7,"pub":true}},{"type":"Feature","geometry":{"type":"Point","coordinates":[-108.9102,38.4322]},"properties":{"s":10.7,"pub":false}},{"type":"Feature","geometry":{"type":"Point","coordinates":[-108.9027,38.3278]},"properties":{"s":53.6,"pub":false}},{"type":"Feature","geometry":{"type":"Point","coordinates":[-108.9027,38.3336]},"properties":{"s":53.6,"pub":false}},{"type":"Feature","geometry":{"type":"Point","coordinates":[-108.9027,38.3394]},"properties":{"s":53.6,"pub":false}},{"type":"Feature","geometry":{"type":"Point","coordinates":[-108.9027,38.3452]},"properties":{"s":53.6,"pub":false}},{"type":"Feature","geometry":{"type":"Point","coordinates":[-108.9027,38.351]},"properties":{"s":53.6,"pub":false}},{"type":"Feature","geometry":{"type":"Point","coordinates":[-108.9027,38.3568]},"properties":{"s":53.6,"pub":false}},{"type":"Feature","geometry":{"type":"Point","coordinates":[-108.9027,38.3626]},"properties":{"s":53.6,"pub":false}},{"type":"Feature","geometry":{"type":"Point","coordinates":[-108.9027,38.3684]},"properties":{"s":53.6,"pub":false}},{"type":"Feature","geometry":{"type":"Point","coordinates":[-108.9027,38.3742]},"properties":{"s":10.7,"pub":true}},{"type":"Feature","geometry":{"type":"Point","coordinates":[-108.9027,38.38]},"properties":{"s":10.7,"pub":true}},{"type":"Feature","geometry":{"type":"Point","coordinates":[-108.9027,38.3858]},"properties":{"s":10.7,"pub":true}},{"type":"Feature","geometry":{"type":"Point","coordinates":[-108.9027,38.3916]},"properties":{"s":10.7,"pub":true}},{"type":"Feature","geometry":{"type":"Point","coordinates":[-108.9027,38.4322]},"properties":{"s":10.7,"pub":false}},{"type":"Feature","geometry":{"type":"Point","coordinates":[-108.8952,38.322]},"properties":{"s":53.6,"pub":false}},{"type":"Feature","geometry":{"type":"Point","coordinates":[-108.8952,38.3278]},"properties":{"s":53.6,"pub":false}},{"type":"Feature","geometry":{"type":"Point","coordinates":[-108.8952,38.3336]},"properties":{"s":53.6,"pub":false}},{"type":"Feature","geometry":{"type":"Point","coordinates":[-108.8952,38.3394]},"properties":{"s":53.6,"pub":false}},{"type":"Feature","geometry":{"type":"Point","coordinates":[-108.8952,38.3452]},"properties":{"s":53.6,"pub":false}},{"type":"Feature","geometry":{"type":"Point","coordinates":[-108.8952,38.351]},"properties":{"s":53.6,"pub":true}},{"type":"Feature","geometry":{"type":"Point","coordinates":[-108.8952,38.3568]},"properties":{"s":53.6,"pub":false}},{"type":"Feature","geometry":{"type":"Point","coordinates":[-108.8952,38.3626]},"properties":{"s":53.6,"pub":false}},{"type":"Feature","geometry":{"type":"Point","coordinates":[-108.8952,38.3684]},"properties":{"s":53.6,"pub":true}},{"type":"Feature","geometry":{"type":"Point","coordinates":[-108.8952,38.3742]},"properties":{"s":10.7,"pub":true}},{"type":"Feature","geometry":{"type":"Point","coordinates":[-108.8952,38.38]},"properties":{"s":10.7,"pub":true}},{"type":"Feature","geometry":{"type":"Point","coordinates":[-108.8952,38.3858]},"properties":{"s":10.7,"pub":true}},{"type":"Feature","geometry":{"type":"Point","coordinates":[-108.8952,38.3916]},"properties":{"s":10.7,"pub":true}},{"type":"Feature","geometry":{"type":"Point","coordinates":[-108.8952,38.3974]},"properties":{"s":10.7,"pub":true}},{"type":"Feature","geometry":{"type":"Point","coordinates":[-108.8952,38.4032]},"properties":{"s":10.7,"pub":true}},{"type":"Feature","geometry":{"type":"Point","coordinates":[-108.8952,38.409]},"properties":{"s":10.7,"pub":true}},{"type":"Feature","geometry":{"type":"Point","coordinates":[-108.8952,38.4322]},"properties":{"s":10.7,"pub":false}},{"type":"Feature","geometry":{"type":"Point","coordinates":[-108.8877,38.3162]},"properties":{"s":53.6,"pub":false}},{"type":"Feature","geometry":{"type":"Point","coordinates":[-108.8877,38.322]},"properties":{"s":53.6,"pub":false}},{"type":"Feature","geometry":{"type":"Point","coordinates":[-108.8877,38.3278]},"properties":{"s":53.6,"pub":false}},{"type":"Feature","geometry":{"type":"Point","coordinates":[-108.8877,38.3336]},"properties":{"s":53.6,"pub":false}},{"type":"Feature","geometry":{"type":"Point","coordinates":[-108.8877,38.3394]},"properties":{"s":53.6,"pub":true}},{"type":"Feature","geometry":{"type":"Point","coordinates":[-108.8877,38.3452]},"properties":{"s":53.6,"pub":false}},{"type":"Feature","geometry":{"type":"Point","coordinates":[-108.8877,38.351]},"properties":{"s":53.6,"pub":false}},{"type":"Feature","geometry":{"type":"Point","coordinates":[-108.8877,38.3568]},"properties":{"s":53.6,"pub":false}},{"type":"Feature","geometry":{"type":"Point","coordinates":[-108.8877,38.3626]},"properties":{"s":53.6,"pub":false}},{"type":"Feature","geometry":{"type":"Point","coordinates":[-108.8877,38.3684]},"properties":{"s":53.6,"pub":true}},{"type":"Feature","geometry":{"type":"Point","coordinates":[-108.8877,38.3742]},"properties":{"s":10.7,"pub":true}},{"type":"Feature","geometry":{"type":"Point","coordinates":[-108.8877,38.38]},"properties":{"s":10.7,"pub":true}},{"type":"Feature","geometry":{"type":"Point","coordinates":[-108.8877,38.3858]},"properties":{"s":10.7,"pub":true}},{"type":"Feature","geometry":{"type":"Point","coordinates":[-108.8877,38.3916]},"properties":{"s":10.7,"pub":true}},{"type":"Feature","geometry":{"type":"Point","coordinates":[-108.8877,38.3974]},"properties":{"s":10.7,"pub":true}},{"type":"Feature","geometry":{"type":"Point","coordinates":[-108.8877,38.4032]},"properties":{"s":10.7,"pub":true}},{"type":"Feature","geometry":{"type":"Point","coordinates":[-108.8877,38.409]},"properties":{"s":10.7,"pub":true}},{"type":"Feature","geometry":{"type":"Point","coordinates":[-108.8877,38.4148]},"properties":{"s":10.7,"pub":true}},{"type":"Feature","geometry":{"type":"Point","coordinates":[-108.8877,38.4206]},"properties":{"s":10.7,"pub":true}},{"type":"Feature","geometry":{"type":"Point","coordinates":[-108.8877,38.4264]},"properties":{"s":10.7,"pub":true}},{"type":"Feature","geometry":{"type":"Point","coordinates":[-108.8877,38.4322]},"properties":{"s":10.7,"pub":true}},{"type":"Feature","geometry":{"type":"Point","coordinates":[-108.8877,38.438]},"properties":{"s":10.7,"pub":true}},{"type":"Feature","geometry":{"type":"Point","coordinates":[-108.8802,38.322]},"properties":{"s":53.6,"pub":false}},{"type":"Feature","geometry":{"type":"Point","coordinates":[-108.8802,38.3278]},"properties":{"s":53.6,"pub":false}},{"type":"Feature","geometry":{"type":"Point","coordinates":[-108.8802,38.3336]},"properties":{"s":53.6,"pub":false}},{"type":"Feature","geometry":{"type":"Point","coordinates":[-108.8802,38.3394]},"properties":{"s":53.6,"pub":false}},{"type":"Feature","geometry":{"type":"Point","coordinates":[-108.8802,38.3452]},"properties":{"s":53.6,"pub":false}},{"type":"Feature","geometry":{"type":"Point","coordinates":[-108.8802,38.351]},"properties":{"s":53.6,"pub":false}},{"type":"Feature","geometry":{"type":"Point","coordinates":[-108.8802,38.3568]},"properties":{"s":53.6,"pub":false}},{"type":"Feature","geometry":{"type":"Point","coordinates":[-108.8802,38.3626]},"properties":{"s":53.6,"pub":true}},{"type":"Feature","geometry":{"type":"Point","coordinates":[-108.8802,38.3684]},"properties":{"s":10.7,"pub":true}},{"type":"Feature","geometry":{"type":"Point","coordinates":[-108.8802,38.3742]},"properties":{"s":10.7,"pub":true}},{"type":"Feature","geometry":{"type":"Point","coordinates":[-108.8802,38.38]},"properties":{"s":10.7,"pub":true}},{"type":"Feature","geometry":{"type":"Point","coordinates":[-108.8802,38.3858]},"properties":{"s":10.7,"pub":true}},{"type":"Feature","geometry":{"type":"Point","coordinates":[-108.8802,38.3916]},"properties":{"s":10.7,"pub":true}},{"type":"Feature","geometry":{"type":"Point","coordinates":[-108.8802,38.3974]},"properties":{"s":10.7,"pub":true}},{"type":"Feature","geometry":{"type":"Point","coordinates":[-108.8802,38.4032]},"properties":{"s":10.7,"pub":true}},{"type":"Feature","geometry":{"type":"Point","coordinates":[-108.8802,38.409]},"properties":{"s":10.7,"pub":true}},{"type":"Feature","geometry":{"type":"Point","coordinates":[-108.8802,38.4148]},"properties":{"s":10.7,"pub":true}},{"type":"Feature","geometry":{"type":"Point","coordinates":[-108.8802,38.4206]},"properties":{"s":10.7,"pub":true}},{"type":"Feature","geometry":{"type":"Point","coordinates":[-108.8802,38.4264]},"properties":{"s":10.7,"pub":true}},{"type":"Feature","geometry":{"type":"Point","coordinates":[-108.8802,38.4322]},"properties":{"s":10.7,"pub":true}},{"type":"Feature","geometry":{"type":"Point","coordinates":[-108.8802,38.438]},"properties":{"s":10.7,"pub":true}},{"type":"Feature","geometry":{"type":"Point","coordinates":[-108.8802,38.4438]},"properties":{"s":10.7,"pub":true}},{"type":"Feature","geometry":{"type":"Point","coordinates":[-108.8802,38.4496]},"properties":{"s":10.7,"pub":true}},{"type":"Feature","geometry":{"type":"Point","coordinates":[-108.8802,38.4554]},"properties":{"s":10.7,"pub":true}},{"type":"Feature","geometry":{"type":"Point","coordinates":[-108.8727,38.3162]},"properties":{"s":53.6,"pub":false}},{"type":"Feature","geometry":{"type":"Point","coordinates":[-108.8727,38.322]},"properties":{"s":53.6,"pub":false}},{"type":"Feature","geometry":{"type":"Point","coordinates":[-108.8727,38.3278]},"properties":{"s":53.6,"pub":false}},{"type":"Feature","geometry":{"type":"Point","coordinates":[-108.8727,38.3336]},"properties":{"s":53.6,"pub":false}},{"type":"Feature","geometry":{"type":"Point","coordinates":[-108.8727,38.3394]},"properties":{"s":53.6,"pub":false}},{"type":"Feature","geometry":{"type":"Point","coordinates":[-108.8727,38.3452]},"properties":{"s":53.6,"pub":false}},{"type":"Feature","geometry":{"type":"Point","coordinates":[-108.8727,38.351]},"properties":{"s":53.6,"pub":false}},{"type":"Feature","geometry":{"type":"Point","coordinates":[-108.8727,38.3568]},"properties":{"s":53.6,"pub":false}},{"type":"Feature","geometry":{"type":"Point","coordinates":[-108.8727,38.3626]},"properties":{"s":53.6,"pub":true}},{"type":"Feature","geometry":{"type":"Point","coordinates":[-108.8727,38.3684]},"properties":{"s":10.7,"pub":true}},{"type":"Feature","geometry":{"type":"Point","coordinates":[-108.8727,38.3742]},"properties":{"s":10.7,"pub":true}},{"type":"Feature","geometry":{"type":"Point","coordinates":[-108.8727,38.38]},"properties":{"s":10.7,"pub":true}},{"type":"Feature","geometry":{"type":"Point","coordinates":[-108.8727,38.3858]},"properties":{"s":10.7,"pub":true}},{"type":"Feature","geometry":{"type":"Point","coordinates":[-108.8727,38.3916]},"properties":{"s":10.7,"pub":true}},{"type":"Feature","geometry":{"type":"Point","coordinates":[-108.8727,38.3974]},"properties":{"s":10.7,"pub":true}},{"type":"Feature","geometry":{"type":"Point","coordinates":[-108.8727,38.4032]},"properties":{"s":10.7,"pub":true}},{"type":"Feature","geometry":{"type":"Point","coordinates":[-108.8727,38.409]},"properties":{"s":10.7,"pub":true}},{"type":"Feature","geometry":{"type":"Point","coordinates":[-108.8727,38.4148]},"properties":{"s":10.7,"pub":true}},{"type":"Feature","geometry":{"type":"Point","coordinates":[-108.8727,38.4206]},"properties":{"s":10.7,"pub":true}},{"type":"Feature","geometry":{"type":"Point","coordinates":[-108.8727,38.4264]},"properties":{"s":10.7,"pub":true}},{"type":"Feature","geometry":{"type":"Point","coordinates":[-108.8727,38.4322]},"properties":{"s":10.7,"pub":true}},{"type":"Feature","geometry":{"type":"Point","coordinates":[-108.8727,38.438]},"properties":{"s":10.7,"pub":true}},{"type":"Feature","geometry":{"type":"Point","coordinates":[-108.8727,38.4438]},"properties":{"s":10.7,"pub":true}},{"type":"Feature","geometry":{"type":"Point","coordinates":[-108.8727,38.4496]},"properties":{"s":10.7,"pub":true}},{"type":"Feature","geometry":{"type":"Point","coordinates":[-108.8727,38.4554]},"properties":{"s":10.7,"pub":true}},{"type":"Feature","geometry":{"type":"Point","coordinates":[-108.8652,38.3162]},"properties":{"s":53.6,"pub":false}},{"type":"Feature","geometry":{"type":"Point","coordinates":[-108.8652,38.3278]},"properties":{"s":53.6,"pub":false}},{"type":"Feature","geometry":{"type":"Point","coordinates":[-108.8652,38.3336]},"properties":{"s":53.6,"pub":false}},{"type":"Feature","geometry":{"type":"Point","coordinates":[-108.8652,38.3394]},"properties":{"s":53.6,"pub":false}},{"type":"Feature","geometry":{"type":"Point","coordinates":[-108.8652,38.3452]},"properties":{"s":53.6,"pub":false}},{"type":"Feature","geometry":{"type":"Point","coordinates":[-108.8652,38.351]},"properties":{"s":53.6,"pub":false}},{"type":"Feature","geometry":{"type":"Point","coordinates":[-108.8652,38.3568]},"properties":{"s":53.6,"pub":false}},{"type":"Feature","geometry":{"type":"Point","coordinates":[-108.8652,38.3626]},"properties":{"s":10.7,"pub":true}},{"type":"Feature","geometry":{"type":"Point","coordinates":[-108.8652,38.3684]},"properties":{"s":10.7,"pub":true}},{"type":"Feature","geometry":{"type":"Point","coordinates":[-108.8652,38.3742]},"properties":{"s":10.7,"pub":true}},{"type":"Feature","geometry":{"type":"Point","coordinates":[-108.8652,38.38]},"properties":{"s":10.7,"pub":true}},{"type":"Feature","geometry":{"type":"Point","coordinates":[-108.8652,38.3858]},"properties":{"s":10.7,"pub":true}},{"type":"Feature","geometry":{"type":"Point","coordinates":[-108.8652,38.3916]},"properties":{"s":10.7,"pub":true}},{"type":"Feature","geometry":{"type":"Point","coordinates":[-108.8652,38.3974]},"properties":{"s":10.7,"pub":true}},{"type":"Feature","geometry":{"type":"Point","coordinates":[-108.8652,38.4032]},"properties":{"s":10.7,"pub":true}},{"type":"Feature","geometry":{"type":"Point","coordinates":[-108.8652,38.409]},"properties":{"s":10.7,"pub":true}},{"type":"Feature","geometry":{"type":"Point","coordinates":[-108.8652,38.4148]},"properties":{"s":10.7,"pub":true}},{"type":"Feature","geometry":{"type":"Point","coordinates":[-108.8652,38.4206]},"properties":{"s":10.7,"pub":true}},{"type":"Feature","geometry":{"type":"Point","coordinates":[-108.8652,38.4264]},"properties":{"s":10.7,"pub":true}},{"type":"Feature","geometry":{"type":"Point","coordinates":[-108.8652,38.4322]},"properties":{"s":10.7,"pub":true}},{"type":"Feature","geometry":{"type":"Point","coordinates":[-108.8652,38.438]},"properties":{"s":10.7,"pub":true}},{"type":"Feature","geometry":{"type":"Point","coordinates":[-108.8652,38.4438]},"properties":{"s":10.7,"pub":true}},{"type":"Feature","geometry":{"type":"Point","coordinates":[-108.8652,38.4496]},"properties":{"s":10.7,"pub":true}},{"type":"Feature","geometry":{"type":"Point","coordinates":[-108.8652,38.4554]},"properties":{"s":10.7,"pub":true}},{"type":"Feature","geometry":{"type":"Point","coordinates":[-108.8577,38.3336]},"properties":{"s":53.6,"pub":false}},{"type":"Feature","geometry":{"type":"Point","coordinates":[-108.8577,38.3452]},"properties":{"s":53.6,"pub":false}},{"type":"Feature","geometry":{"type":"Point","coordinates":[-108.8577,38.351]},"properties":{"s":53.6,"pub":true}},{"type":"Feature","geometry":{"type":"Point","coordinates":[-108.8577,38.3568]},"properties":{"s":10.7,"pub":true}},{"type":"Feature","geometry":{"type":"Point","coordinates":[-108.8577,38.3626]},"properties":{"s":10.7,"pub":true}},{"type":"Feature","geometry":{"type":"Point","coordinates":[-108.8577,38.3684]},"properties":{"s":10.7,"pub":true}},{"type":"Feature","geometry":{"type":"Point","coordinates":[-108.8577,38.3742]},"properties":{"s":10.7,"pub":true}},{"type":"Feature","geometry":{"type":"Point","coordinates":[-108.8577,38.38]},"properties":{"s":10.7,"pub":true}},{"type":"Feature","geometry":{"type":"Point","coordinates":[-108.8577,38.3858]},"properties":{"s":10.7,"pub":true}},{"type":"Feature","geometry":{"type":"Point","coordinates":[-108.8577,38.3916]},"properties":{"s":10.7,"pub":true}},{"type":"Feature","geometry":{"type":"Point","coordinates":[-108.8577,38.3974]},"properties":{"s":10.7,"pub":true}},{"type":"Feature","geometry":{"type":"Point","coordinates":[-108.8577,38.4032]},"properties":{"s":10.7,"pub":true}},{"type":"Feature","geometry":{"type":"Point","coordinates":[-108.8577,38.409]},"properties":{"s":10.7,"pub":true}},{"type":"Feature","geometry":{"type":"Point","coordinates":[-108.8577,38.4148]},"properties":{"s":10.7,"pub":true}},{"type":"Feature","geometry":{"type":"Point","coordinates":[-108.8577,38.4206]},"properties":{"s":10.7,"pub":true}},{"type":"Feature","geometry":{"type":"Point","coordinates":[-108.8577,38.4264]},"properties":{"s":10.7,"pub":true}},{"type":"Feature","geometry":{"type":"Point","coordinates":[-108.8577,38.4322]},"properties":{"s":10.7,"pub":true}},{"type":"Feature","geometry":{"type":"Point","coordinates":[-108.8577,38.438]},"properties":{"s":10.7,"pub":true}},{"type":"Feature","geometry":{"type":"Point","coordinates":[-108.8577,38.4438]},"properties":{"s":10.7,"pub":true}},{"type":"Feature","geometry":{"type":"Point","coordinates":[-108.8502,38.351]},"properties":{"s":10.7,"pub":true}},{"type":"Feature","geometry":{"type":"Point","coordinates":[-108.8502,38.3568]},"properties":{"s":10.7,"pub":true}},{"type":"Feature","geometry":{"type":"Point","coordinates":[-108.8502,38.3626]},"properties":{"s":10.7,"pub":true}},{"type":"Feature","geometry":{"type":"Point","coordinates":[-108.8502,38.3684]},"properties":{"s":10.7,"pub":true}},{"type":"Feature","geometry":{"type":"Point","coordinates":[-108.8502,38.3742]},"properties":{"s":10.7,"pub":true}},{"type":"Feature","geometry":{"type":"Point","coordinates":[-108.8502,38.38]},"properties":{"s":10.7,"pub":true}},{"type":"Feature","geometry":{"type":"Point","coordinates":[-108.8502,38.3858]},"properties":{"s":10.7,"pub":true}},{"type":"Feature","geometry":{"type":"Point","coordinates":[-108.8502,38.3916]},"properties":{"s":10.7,"pub":true}},{"type":"Feature","geometry":{"type":"Point","coordinates":[-108.8502,38.3974]},"properties":{"s":10.7,"pub":true}},{"type":"Feature","geometry":{"type":"Point","coordinates":[-108.8502,38.4032]},"properties":{"s":10.7,"pub":true}},{"type":"Feature","geometry":{"type":"Point","coordinates":[-108.8502,38.409]},"properties":{"s":10.7,"pub":true}},{"type":"Feature","geometry":{"type":"Point","coordinates":[-108.8502,38.4148]},"properties":{"s":10.7,"pub":true}},{"type":"Feature","geometry":{"type":"Point","coordinates":[-108.8502,38.4206]},"properties":{"s":10.7,"pub":true}},{"type":"Feature","geometry":{"type":"Point","coordinates":[-108.8502,38.4264]},"properties":{"s":10.7,"pub":true}},{"type":"Feature","geometry":{"type":"Point","coordinates":[-108.8502,38.4322]},"properties":{"s":10.7,"pub":true}},{"type":"Feature","geometry":{"type":"Point","coordinates":[-108.8502,38.438]},"properties":{"s":10.7,"pub":true}},{"type":"Feature","geometry":{"type":"Point","coordinates":[-108.8502,38.4438]},"properties":{"s":10.7,"pub":true}},{"type":"Feature","geometry":{"type":"Point","coordinates":[-108.8427,38.3568]},"properties":{"s":10.7,"pub":true}},{"type":"Feature","geometry":{"type":"Point","coordinates":[-108.8427,38.3626]},"properties":{"s":10.7,"pub":true}},{"type":"Feature","geometry":{"type":"Point","coordinates":[-108.8427,38.3684]},"properties":{"s":10.7,"pub":true}},{"type":"Feature","geometry":{"type":"Point","coordinates":[-108.8427,38.3742]},"properties":{"s":10.7,"pub":true}},{"type":"Feature","geometry":{"type":"Point","coordinates":[-108.8427,38.38]},"properties":{"s":10.7,"pub":true}},{"type":"Feature","geometry":{"type":"Point","coordinates":[-108.8427,38.3858]},"properties":{"s":10.7,"pub":true}},{"type":"Feature","geometry":{"type":"Point","coordinates":[-108.8427,38.3916]},"properties":{"s":10.7,"pub":true}},{"type":"Feature","geometry":{"type":"Point","coordinates":[-108.8427,38.3974]},"properties":{"s":10.7,"pub":true}},{"type":"Feature","geometry":{"type":"Point","coordinates":[-108.8427,38.4032]},"properties":{"s":10.7,"pub":true}},{"type":"Feature","geometry":{"type":"Point","coordinates":[-108.8427,38.409]},"properties":{"s":10.7,"pub":true}},{"type":"Feature","geometry":{"type":"Point","coordinates":[-108.8427,38.4148]},"properties":{"s":10.7,"pub":true}},{"type":"Feature","geometry":{"type":"Point","coordinates":[-108.8427,38.4206]},"properties":{"s":10.7,"pub":true}},{"type":"Feature","geometry":{"type":"Point","coordinates":[-108.8427,38.4264]},"properties":{"s":10.7,"pub":true}},{"type":"Feature","geometry":{"type":"Point","coordinates":[-108.8427,38.4322]},"properties":{"s":10.7,"pub":true}},{"type":"Feature","geometry":{"type":"Point","coordinates":[-108.8427,38.438]},"properties":{"s":10.7,"pub":true}},{"type":"Feature","geometry":{"type":"Point","coordinates":[-108.8427,38.4496]},"properties":{"s":10.7,"pub":true}},{"type":"Feature","geometry":{"type":"Point","coordinates":[-108.8352,38.3626]},"properties":{"s":10.7,"pub":true}},{"type":"Feature","geometry":{"type":"Point","coordinates":[-108.8352,38.3684]},"properties":{"s":10.7,"pub":true}},{"type":"Feature","geometry":{"type":"Point","coordinates":[-108.8352,38.3742]},"properties":{"s":10.7,"pub":true}},{"type":"Feature","geometry":{"type":"Point","coordinates":[-108.8352,38.38]},"properties":{"s":10.7,"pub":true}},{"type":"Feature","geometry":{"type":"Point","coordinates":[-108.8352,38.3858]},"properties":{"s":10.7,"pub":true}},{"type":"Feature","geometry":{"type":"Point","coordinates":[-108.8352,38.3916]},"properties":{"s":10.7,"pub":true}},{"type":"Feature","geometry":{"type":"Point","coordinates":[-108.8352,38.3974]},"properties":{"s":10.7,"pub":true}},{"type":"Feature","geometry":{"type":"Point","coordinates":[-108.8352,38.4032]},"properties":{"s":10.7,"pub":true}},{"type":"Feature","geometry":{"type":"Point","coordinates":[-108.8352,38.409]},"properties":{"s":10.7,"pub":true}},{"type":"Feature","geometry":{"type":"Point","coordinates":[-108.8352,38.4148]},"properties":{"s":10.7,"pub":true}},{"type":"Feature","geometry":{"type":"Point","coordinates":[-108.8352,38.4206]},"properties":{"s":10.7,"pub":true}},{"type":"Feature","geometry":{"type":"Point","coordinates":[-108.8352,38.4264]},"properties":{"s":10.7,"pub":true}},{"type":"Feature","geometry":{"type":"Point","coordinates":[-108.8277,38.3626]},"properties":{"s":10.7,"pub":true}},{"type":"Feature","geometry":{"type":"Point","coordinates":[-108.8277,38.3684]},"properties":{"s":10.7,"pub":true}},{"type":"Feature","geometry":{"type":"Point","coordinates":[-108.8277,38.3742]},"properties":{"s":10.7,"pub":true}},{"type":"Feature","geometry":{"type":"Point","coordinates":[-108.8277,38.38]},"properties":{"s":10.7,"pub":true}},{"type":"Feature","geometry":{"type":"Point","coordinates":[-108.8277,38.3858]},"properties":{"s":10.7,"pub":true}},{"type":"Feature","geometry":{"type":"Point","coordinates":[-108.8277,38.3916]},"properties":{"s":10.7,"pub":true}},{"type":"Feature","geometry":{"type":"Point","coordinates":[-108.8277,38.3974]},"properties":{"s":10.7,"pub":true}},{"type":"Feature","geometry":{"type":"Point","coordinates":[-108.8277,38.4032]},"properties":{"s":10.7,"pub":true}},{"type":"Feature","geometry":{"type":"Point","coordinates":[-108.8277,38.409]},"properties":{"s":10.7,"pub":true}},{"type":"Feature","geometry":{"type":"Point","coordinates":[-108.8277,38.4148]},"properties":{"s":10.7,"pub":true}},{"type":"Feature","geometry":{"type":"Point","coordinates":[-108.8277,38.4206]},"properties":{"s":10.7,"pub":true}},{"type":"Feature","geometry":{"type":"Point","coordinates":[-108.8277,38.4264]},"properties":{"s":10.7,"pub":true}},{"type":"Feature","geometry":{"type":"Point","coordinates":[-108.8202,38.3626]},"properties":{"s":10.7,"pub":true}},{"type":"Feature","geometry":{"type":"Point","coordinates":[-108.8202,38.3684]},"properties":{"s":10.7,"pub":true}},{"type":"Feature","geometry":{"type":"Point","coordinates":[-108.8202,38.3742]},"properties":{"s":10.7,"pub":true}},{"type":"Feature","geometry":{"type":"Point","coordinates":[-108.8202,38.38]},"properties":{"s":10.7,"pub":true}},{"type":"Feature","geometry":{"type":"Point","coordinates":[-108.8202,38.3858]},"properties":{"s":10.7,"pub":true}},{"type":"Feature","geometry":{"type":"Point","coordinates":[-108.8202,38.3916]},"properties":{"s":10.7,"pub":true}},{"type":"Feature","geometry":{"type":"Point","coordinates":[-108.8202,38.3974]},"properties":{"s":10.7,"pub":true}},{"type":"Feature","geometry":{"type":"Point","coordinates":[-108.8202,38.4032]},"properties":{"s":10.7,"pub":true}},{"type":"Feature","geometry":{"type":"Point","coordinates":[-108.8202,38.409]},"properties":{"s":10.7,"pub":true}},{"type":"Feature","geometry":{"type":"Point","coordinates":[-108.8202,38.4148]},"properties":{"s":10.7,"pub":true}},{"type":"Feature","geometry":{"type":"Point","coordinates":[-108.8127,38.38]},"properties":{"s":10.7,"pub":true}},{"type":"Feature","geometry":{"type":"Point","coordinates":[-108.8127,38.3858]},"properties":{"s":10.7,"pub":true}},{"type":"Feature","geometry":{"type":"Point","coordinates":[-108.8127,38.3916]},"properties":{"s":10.7,"pub":true}},{"type":"Feature","geometry":{"type":"Point","coordinates":[-108.8127,38.3974]},"properties":{"s":10.7,"pub":true}},{"type":"Feature","geometry":{"type":"Point","coordinates":[-108.8052,38.3742]},"properties":{"s":10.7,"pub":true}}]}