{"type":"FeatureCollection","features":[{"type":"Feature","geometry":{"type":"Point","coordinates":[-107.8833,38.68]},"properties":{"s":10.0,"pub":true}},{"type":"Feature","geometry":{"type":"Point","coordinates":[-107.8833,38.6858]},"properties":{"s":10.0,"pub":true}},{"type":"Feature","geometry":{"type":"Point","coordinates":[-107.8833,38.6916]},"properties":{"s":10.0,"pub":true}},{"type":"Feature","geometry":{"type":"Point","coordinates":[-107.8758,38.6336]},"properties":{"s":10.0,"pub":true}},{"type":"Feature","geometry":{"type":"Point","coordinates":[-107.8758,38.6394]},"properties":{"s":10.0,"pub":true}},{"type":"Feature","geometry":{"type":"Point","coordinates":[-107.8758,38.6452]},"properties":{"s":10.0,"pub":true}},{"type":"Feature","geometry":{"type":"Point","coordinates":[-107.8758,38.651]},"properties":{"s":10.0,"pub":true}},{"type":"Feature","geometry":{"type":"Point","coordinates":[-107.8758,38.6568]},"properties":{"s":10.0,"pub":true}},{"type":"Feature","geometry":{"type":"Point","coordinates":[-107.8758,38.6626]},"properties":{"s":10.0,"pub":true}},{"type":"Feature","geometry":{"type":"Point","coordinates":[-107.8758,38.6684]},"properties":{"s":10.0,"pub":true}},{"type":"Feature","geometry":{"type":"Point","coordinates":[-107.8758,38.6742]},"properties":{"s":10.0,"pub":true}},{"type":"Feature","geometry":{"type":"Point","coordinates":[-107.8758,38.68]},"properties":{"s":10.0,"pub":true}},{"type":"Feature","geometry":{"type":"Point","coordinates":[-107.8758,38.6858]},"properties":{"s":10.0,"pub":true}},{"type":"Feature","geometry":{"type":"Point","coordinates":[-107.8758,38.6916]},"properties":{"s":10.0,"pub":true}},{"type":"Feature","geometry":{"type":"Point","coordinates":[-107.8758,38.6974]},"properties":{"s":10.0,"pub":true}},{"type":"Feature","geometry":{"type":"Point","coordinates":[-107.8683,38.6046]},"properties":{"s":10.0,"pub":true}},{"type":"Feature","geometry":{"type":"Point","coordinates":[-107.8683,38.6104]},"properties":{"s":10.0,"pub":true}},{"type":"Feature","geometry":{"type":"Point","coordinates":[-107.8683,38.6162]},"properties":{"s":10.0,"pub":true}},{"type":"Feature","geometry":{"type":"Point","coordinates":[-107.8683,38.622]},"properties":{"s":10.0,"pub":true}},{"type":"Feature","geometry":{"type":"Point","coordinates":[-107.8683,38.6278]},"properties":{"s":10.0,"pub":true}},{"type":"Feature","geometry":{"type":"Point","coordinates":[-107.8683,38.6336]},"properties":{"s":10.0,"pub":true}},{"type":"Feature","geometry":{"type":"Point","coordinates":[-107.8683,38.6394]},"properties":{"s":10.0,"pub":true}},{"type":"Feature","geometry":{"type":"Point","coordinates":[-107.8683,38.6452]},"properties":{"s":10.0,"pub":true}},{"type":"Feature","geometry":{"type":"Point","coordinates":[-107.8683,38.651]},"properties":{"s":10.0,"pub":true}},{"type":"Feature","geometry":{"type":"Point","coordinates":[-107.8683,38.6568]},"properties":{"s":10.0,"pub":true}},{"type":"Feature","geometry":{"type":"Point","coordinates":[-107.8683,38.6626]},"properties":{"s":10.0,"pub":true}},{"type":"Feature","geometry":{"type":"Point","coordinates":[-107.8683,38.6684]},"properties":{"s":10.0,"pub":true}},{"type":"Feature","geometry":{"type":"Point","coordinates":[-107.8683,38.6742]},"properties":{"s":10.0,"pub":true}},{"type":"Feature","geometry":{"type":"Point","coordinates":[-107.8683,38.68]},"properties":{"s":10.0,"pub":true}},{"type":"Feature","geometry":{"type":"Point","coordinates":[-107.8683,38.6858]},"properties":{"s":10.0,"pub":true}},{"type":"Feature","geometry":{"type":"Point","coordinates":[-107.8683,38.6916]},"properties":{"s":10.0,"pub":true}},{"type":"Feature","geometry":{"type":"Point","coordinates":[-107.8683,38.6974]},"properties":{"s":10.0,"pub":true}},{"type":"Feature","geometry":{"type":"Point","coordinates":[-107.8683,38.7032]},"properties":{"s":10.0,"pub":true}},{"type":"Feature","geometry":{"type":"Point","coordinates":[-107.8608,38.5756]},"properties":{"s":10.0,"pub":false}},{"type":"Feature","geometry":{"type":"Point","coordinates":[-107.8608,38.5814]},"properties":{"s":10.0,"pub":false}},{"type":"Feature","geometry":{"type":"Point","coordinates":[-107.8608,38.5872]},"properties":{"s":10.0,"pub":true}},{"type":"Feature","geometry":{"type":"Point","coordinates":[-107.8608,38.593]},"properties":{"s":10.0,"pub":true}},{"type":"Feature","geometry":{"type":"Point","coordinates":[-107.8608,38.5988]},"properties":{"s":10.0,"pub":true}},{"type":"Feature","geometry":{"type":"Point","coordinates":[-107.8608,38.6046]},"properties":{"s":10.0,"pub":true}},{"type":"Feature","geometry":{"type":"Point","coordinates":[-107.8608,38.6104]},"properties":{"s":10.0,"pub":true}},{"type":"Feature","geometry":{"type":"Point","coordinates":[-107.8608,38.6162]},"properties":{"s":10.0,"pub":true}},{"type":"Feature","geometry":{"type":"Point","coordinates":[-107.8608,38.622]},"properties":{"s":10.0,"pub":true}},{"type":"Feature","geometry":{"type":"Point","coordinates":[-107.8608,38.6278]},"properties":{"s":10.0,"pub":true}},{"type":"Feature","geometry":{"type":"Point","coordinates":[-107.8608,38.6336]},"properties":{"s":10.0,"pub":true}},{"type":"Feature","geometry":{"type":"Point","coordinates":[-107.8608,38.6394]},"properties":{"s":10.0,"pub":true}},{"type":"Feature","geometry":{"type":"Point","coordinates":[-107.8608,38.6452]},"properties":{"s":10.0,"pub":true}},{"type":"Feature","geometry":{"type":"Point","coordinates":[-107.8608,38.651]},"properties":{"s":10.0,"pub":true}},{"type":"Feature","geometry":{"type":"Point","coordinates":[-107.8608,38.6568]},"properties":{"s":10.0,"pub":true}},{"type":"Feature","geometry":{"type":"Point","coordinates":[-107.8608,38.6626]},"properties":{"s":10.0,"pub":true}},{"type":"Feature","geometry":{"type":"Point","coordinates":[-107.8608,38.6684]},"properties":{"s":10.0,"pub":true}},{"type":"Feature","geometry":{"type":"Point","coordinates":[-107.8608,38.6742]},"properties":{"s":10.0,"pub":true}},{"type":"Feature","geometry":{"type":"Point","coordinates":[-107.8608,38.68]},"properties":{"s":10.0,"pub":true}},{"type":"Feature","geometry":{"type":"Point","coordinates":[-107.8608,38.6858]},"properties":{"s":10.0,"pub":true}},{"type":"Feature","geometry":{"type":"Point","coordinates":[-107.8608,38.6916]},"properties":{"s":10.0,"pub":true}},{"type":"Feature","geometry":{"type":"Point","coordinates":[-107.8608,38.6974]},"properties":{"s":10.0,"pub":true}},{"type":"Feature","geometry":{"type":"Point","coordinates":[-107.8608,38.7032]},"properties":{"s":10.0,"pub":true}},{"type":"Feature","geometry":{"type":"Point","coordinates":[-107.8608,38.709]},"properties":{"s":10.0,"pub":true}},{"type":"Feature","geometry":{"type":"Point","coordinates":[-107.8533,38.5698]},"properties":{"s":10.0,"pub":true}},{"type":"Feature","geometry":{"type":"Point","coordinates":[-107.8533,38.5756]},"properties":{"s":10.0,"pub":false}},{"type":"Feature","geometry":{"type":"Point","coordinates":[-107.8533,38.5814]},"properties":{"s":10.0,"pub":true}},{"type":"Feature","geometry":{"type":"Point","coordinates":[-107.8533,38.5872]},"properties":{"s":10.0,"pub":true}},{"type":"Feature","geometry":{"type":"Point","coordinates":[-107.8533,38.593]},"properties":{"s":10.0,"pub":true}},{"type":"Feature","geometry":{"type":"Point","coordinates":[-107.8533,38.5988]},"properties":{"s":10.0,"pub":true}},{"type":"Feature","geometry":{"type":"Point","coordinates":[-107.8533,38.6046]},"properties":{"s":10.0,"pub":true}},{"type":"Feature","geometry":{"type":"Point","coordinates":[-107.8533,38.6104]},"properties":{"s":10.0,"pub":true}},{"type":"Feature","geometry":{"type":"Point","coordinates":[-107.8533,38.6162]},"properties":{"s":10.0,"pub":true}},{"type":"Feature","geometry":{"type":"Point","coordinates":[-107.8533,38.622]},"properties":{"s":10.0,"pub":true}},{"type":"Feature","geometry":{"type":"Point","coordinates":[-107.8533,38.6278]},"properties":{"s":10.0,"pub":true}},{"type":"Feature","geometry":{"type":"Point","coordinates":[-107.8533,38.6336]},"properties":{"s":10.0,"pub":true}},{"type":"Feature","geometry":{"type":"Point","coordinates":[-107.8533,38.6684]},"properties":{"s":10.0,"pub":true}},{"type":"Feature","geometry":{"type":"Point","coordinates":[-107.8533,38.6742]},"properties":{"s":10.0,"pub":true}},{"type":"Feature","geometry":{"type":"Point","coordinates":[-107.8533,38.68]},"properties":{"s":10.0,"pub":true}},{"type":"Feature","geometry":{"type":"Point","coordinates":[-107.8533,38.7032]},"properties":{"s":10.0,"pub":true}},{"type":"Feature","geometry":{"type":"Point","coordinates":[-107.8458,38.5698]},"properties":{"s":10.0,"pub":true}},{"type":"Feature","geometry":{"type":"Point","coordinates":[-107.8458,38.5756]},"properties":{"s":10.0,"pub":true}},{"type":"Feature","geometry":{"type":"Point","coordinates":[-107.8458,38.5814]},"properties":{"s":10.0,"pub":true}},{"type":"Feature","geometry":{"type":"Point","coordinates":[-107.8458,38.5872]},"properties":{"s":10.0,"pub":true}},{"type":"Feature","geometry":{"type":"Point","coordinates":[-107.8458,38.593]},"properties":{"s":10.0,"pub":true}},{"type":"Feature","geometry":{"type":"Point","coordinates":[-107.8458,38.5988]},"properties":{"s":10.0,"pub":true}},{"type":"Feature","geometry":{"type":"Point","coordinates":[-107.8458,38.6046]},"properties":{"s":10.0,"pub":true}},{"type":"Feature","geometry":{"type":"Point","coordinates":[-107.8458,38.6104]},"properties":{"s":10.0,"pub":true}},{"type":"Feature","geometry":{"type":"Point","coordinates":[-107.8458,38.6162]},"properties":{"s":10.0,"pub":true}},{"type":"Feature","geometry":{"type":"Point","coordinates":[-107.8458,38.622]},"properties":{"s":10.0,"pub":true}},{"type":"Feature","geometry":{"type":"Point","coordinates":[-107.8383,38.5698]},"properties":{"s":10.0,"pub":true}},{"type":"Feature","geometry":{"type":"Point","coordinates":[-107.8383,38.5756]},"properties":{"s":10.0,"pub":true}},{"type":"Feature","geometry":{"type":"Point","coordinates":[-107.8383,38.5814]},"properties":{"s":10.0,"pub":true}},{"type":"Feature","geometry":{"type":"Point","coordinates":[-107.8383,38.5872]},"properties":{"s":10.0,"pub":true}},{"type":"Feature","geometry":{"type":"Point","coordinates":[-107.8383,38.593]},"properties":{"s":10.0,"pub":true}},{"type":"Feature","geometry":{"type":"Point","coordinates":[-107.8383,38.5988]},"properties":{"s":10.0,"pub":true}},{"type":"Feature","geometry":{"type":"Point","coordinates":[-107.8383,38.6046]},"properties":{"s":10.0,"pub":true}},{"type":"Feature","geometry":{"type":"Point","coordinates":[-107.8383,38.6104]},"properties":{"s":10.0,"pub":true}},{"type":"Feature","geometry":{"type":"Point","coordinates":[-107.8383,38.6162]},"properties":{"s":10.0,"pub":true}},{"type":"Feature","geometry":{"type":"Point","coordinates":[-107.8383,38.622]},"properties":{"s":10.0,"pub":true}},{"type":"Feature","geometry":{"type":"Point","coordinates":[-107.8308,38.5698]},"properties":{"s":10.0,"pub":true}},{"type":"Feature","geometry":{"type":"Point","coordinates":[-107.8308,38.5756]},"properties":{"s":10.0,"pub":true}},{"type":"Feature","geometry":{"type":"Point","coordinates":[-107.8308,38.5814]},"properties":{"s":10.0,"pub":true}},{"type":"Feature","geometry":{"type":"Point","coordinates":[-107.8308,38.5872]},"properties":{"s":10.0,"pub":true}},{"type":"Feature","geometry":{"type":"Point","coordinates":[-107.8308,38.593]},"properties":{"s":10.0,"pub":true}},{"type":"Feature","geometry":{"type":"Point","coordinates":[-107.8308,38.5988]},"properties":{"s":10.0,"pub":true}},{"type":"Feature","geometry":{"type":"Point","coordinates":[-107.8308,38.6046]},"properties":{"s":10.0,"pub":true}},{"type":"Feature","geometry":{"type":"Point","coordinates":[-107.8308,38.6104]},"properties":{"s":10.0,"pub":true}},{"type":"Feature","geometry":{"type":"Point","coordinates":[-107.8308,38.6162]},"properties":{"s":10.0,"pub":true}},{"type":"Feature","geometry":{"type":"Point","coordinates":[-107.8233,38.564]},"properties":{"s":10.0,"pub":true}},{"type":"Feature","geometry":{"type":"Point","coordinates":[-107.8233,38.5698]},"properties":{"s":10.0,"pub":true}},{"type":"Feature","geometry":{"type":"Point","coordinates":[-107.8233,38.5756]},"properties":{"s":10.0,"pub":true}},{"type":"Feature","geometry":{"type":"Point","coordinates":[-107.8233,38.5814]},"properties":{"s":10.0,"pub":true}},{"type":"Feature","geometry":{"type":"Point","coordinates":[-107.8233,38.5872]},"properties":{"s":10.0,"pub":true}},{"type":"Feature","geometry":{"type":"Point","coordinates":[-107.8233,38.593]},"properties":{"s":10.0,"pub":true}},{"type":"Feature","geometry":{"type":"Point","coordinates":[-107.8233,38.5988]},"properties":{"s":10.0,"pub":true}},{"type":"Feature","geometry":{"type":"Point","coordinates":[-107.8233,38.6046]},"properties":{"s":10.0,"pub":true}},{"type":"Feature","geometry":{"type":"Point","coordinates":[-107.8233,38.6104]},"properties":{"s":10.0,"pub":true}},{"type":"Feature","geometry":{"type":"Point","coordinates":[-107.8158,38.564]},"properties":{"s":10.0,"pub":true}},{"type":"Feature","geometry":{"type":"Point","coordinates":[-107.8158,38.5698]},"properties":{"s":10.0,"pub":true}},{"type":"Feature","geometry":{"type":"Point","coordinates":[-107.8158,38.5756]},"properties":{"s":10.0,"pub":true}},{"type":"Feature","geometry":{"type":"Point","coordinates":[-107.8158,38.5814]},"properties":{"s":10.0,"pub":true}},{"type":"Feature","geometry":{"type":"Point","coordinates":[-107.8158,38.5872]},"properties":{"s":10.0,"pub":true}},{"type":"Feature","geometry":{"type":"Point","coordinates":[-107.8158,38.593]},"properties":{"s":10.0,"pub":true}},{"type":"Feature","geometry":{"type":"Point","coordinates":[-107.8158,38.5988]},"properties":{"s":10.0,"pub":true}},{"type":"Feature","geometry":{"type":"Point","coordinates":[-107.8083,38.5582]},"properties":{"s":10.0,"pub":true}},{"type":"Feature","geometry":{"type":"Point","coordinates":[-107.8083,38.564]},"properties":{"s":10.0,"pub":true}},{"type":"Feature","geometry":{"type":"Point","coordinates":[-107.8083,38.5698]},"properties":{"s":10.0,"pub":true}},{"type":"Feature","geometry":{"type":"Point","coordinates":[-107.8083,38.5756]},"properties":{"s":10.0,"pub":true}},{"type":"Feature","geometry":{"type":"Point","coordinates":[-107.8083,38.5814]},"properties":{"s":10.0,"pub":true}},{"type":"Feature","geometry":{"type":"Point","coordinates":[-107.8083,38.5872]},"properties":{"s":10.0,"pub":true}},{"type":"Feature","geometry":{"type":"Point","coordinates":[-107.8083,38.593]},"properties":{"s":10.0,"pub":true}},{"type":"Feature","geometry":{"type":"Point","coordinates":[-107.8083,38.5988]},"properties":{"s":10.0,"pub":true}},{"type":"Feature","geometry":{"type":"Point","coordinates":[-107.8008,38.5524]},"properties":{"s":10.0,"pub":true}},{"type":"Feature","geometry":{"type":"Point","coordinates":[-107.8008,38.5582]},"properties":{"s":10.0,"pub":true}},{"type":"Feature","geometry":{"type":"Point","coordinates":[-107.8008,38.564]},"properties":{"s":10.0,"pub":true}},{"type":"Feature","geometry":{"type":"Point","coordinates":[-107.8008,38.5698]},"properties":{"s":10.0,"pub":true}},{"type":"Feature","geometry":{"type":"Point","coordinates":[-107.8008,38.5756]},"properties":{"s":10.0,"pub":true}},{"type":"Feature","geometry":{"type":"Point","coordinates":[-107.8008,38.5814]},"properties":{"s":10.0,"pub":true}},{"type":"Feature","geometry":{"type":"Point","coordinates":[-107.8008,38.5872]},"properties":{"s":10.0,"pub":true}},{"type":"Feature","geometry":{"type":"Point","coordinates":[-107.7933,38.5466]},"properties":{"s":10.0,"pub":true}},{"type":"Feature","geometry":{"type":"Point","coordinates":[-107.7933,38.5524]},"properties":{"s":10.0,"pub":true}},{"type":"Feature","geometry":{"type":"Point","coordinates":[-107.7933,38.5582]},"properties":{"s":10.0,"pub":true}},{"type":"Feature","geometry":{"type":"Point","coordinates":[-107.7933,38.564]},"properties":{"s":10.0,"pub":true}},{"type":"Feature","geometry":{"type":"Point","coordinates":[-107.7933,38.5698]},"properties":{"s":10.0,"pub":true}},{"type":"Feature","geometry":{"type":"Point","coordinates":[-107.7933,38.5756]},"properties":{"s":10.0,"pub":true}},{"type":"Feature","geometry":{"type":"Point","coordinates":[-107.7858,38.5408]},"properties":{"s":10.0,"pub":true}},{"type":"Feature","geometry":{"type":"Point","coordinates":[-107.7858,38.5466]},"properties":{"s":10.0,"pub":true}},{"type":"Feature","geometry":{"type":"Point","coordinates":[-107.7858,38.5524]},"properties":{"s":10.0,"pub":true}},{"type":"Feature","geometry":{"type":"Point","coordinates":[-107.7858,38.5582]},"properties":{"s":10.0,"pub":true}},{"type":"Feature","geometry":{"type":"Point","coordinates":[-107.7858,38.564]},"properties":{"s":30.0,"pub":true}},{"type":"Feature","geometry":{"type":"Point","coordinates":[-107.7783,38.5176]},"properties":{"s":10.0,"pub":false}},{"type":"Feature","geometry":{"type":"Point","coordinates":[-107.7783,38.5234]},"properties":{"s":10.0,"pub":false}},{"type":"Feature","geometry":{"type":"Point","coordinates":[-107.7783,38.5292]},"properties":{"s":10.0,"pub":false}},{"type":"Feature","geometry":{"type":"Point","coordinates":[-107.7783,38.535]},"properties":{"s":10.0,"pub":false}},{"type":"Feature","geometry":{"type":"Point","coordinates":[-107.7783,38.5408]},"properties":{"s":10.0,"pub":false}},{"type":"Feature","geometry":{"type":"Point","coordinates":[-107.7783,38.5466]},"properties":{"s":10.0,"pub":true}},{"type":"Feature","geometry":{"type":"Point","coordinates":[-107.7783,38.5524]},"properties":{"s":10.0,"pub":false}},{"type":"Feature","geometry":{"type":"Point","coordinates":[-107.7783,38.5582]},"properties":{"s":10.0,"pub":true}},{"type":"Feature","geometry":{"type":"Point","coordinates":[-107.7783,38.564]},"properties":{"s":23.3,"pub":true}},{"type":"Feature","geometry":{"type":"Point","coordinates":[-107.7708,38.5118]},"properties":{"s":10.0,"pub":false}},{"type":"Feature","geometry":{"type":"Point","coordinates":[-107.7708,38.5176]},"properties":{"s":10.0,"pub":false}},{"type":"Feature","geometry":{"type":"Point","coordinates":[-107.7708,38.5234]},"properties":{"s":10.0,"pub":false}},{"type":"Feature","geometry":{"type":"Point","coordinates":[-107.7708,38.5292]},"properties":{"s":10.0,"pub":false}},{"type":"Feature","geometry":{"type":"Point","coordinates":[-107.7708,38.535]},"properties":{"s":10.0,"pub":false}},{"type":"Feature","geometry":{"type":"Point","coordinates":[-107.7708,38.5408]},"properties":{"s":10.0,"pub":false}},{"type":"Feature","geometry":{"type":"Point","coordinates":[-107.7708,38.5466]},"properties":{"s":10.0,"pub":false}},{"type":"Feature","geometry":{"type":"Point","coordinates":[-107.7708,38.5524]},"properties":{"s":10.0,"pub":false}},{"type":"Feature","geometry":{"type":"Point","coordinates":[-107.7708,38.5582]},"properties":{"s":23.3,"pub":true}},{"type":"Feature","geometry":{"type":"Point","coordinates":[-107.7708,38.564]},"properties":{"s":23.3,"pub":true}},{"type":"Feature","geometry":{"type":"Point","coordinates":[-107.7633,38.5002]},"properties":{"s":10.0,"pub":true}},{"type":"Feature","geometry":{"type":"Point","coordinates":[-107.7633,38.506]},"properties":{"s":10.0,"pub":true}},{"type":"Feature","geometry":{"type":"Point","coordinates":[-107.7633,38.5118]},"properties":{"s":10.0,"pub":false}},{"type":"Feature","geometry":{"type":"Point","coordinates":[-107.7633,38.5176]},"properties":{"s":10.0,"pub":false}},{"type":"Feature","geometry":{"type":"Point","coordinates":[-107.7633,38.5234]},"properties":{"s":10.0,"pub":false}},{"type":"Feature","geometry":{"type":"Point","coordinates":[-107.7633,38.5292]},"properties":{"s":10.0,"pub":false}},{"type":"Feature","geometry":{"type":"Point","coordinates":[-107.7633,38.535]},"properties":{"s":10.0,"pub":false}},{"type":"Feature","geometry":{"type":"Point","coordinates":[-107.7633,38.5408]},"properties":{"s":10.0,"pub":false}},{"type":"Feature","geometry":{"type":"Point","coordinates":[-107.7633,38.5466]},"properties":{"s":10.0,"pub":false}},{"type":"Feature","geometry":{"type":"Point","coordinates":[-107.7633,38.5524]},"properties":{"s":10.0,"pub":false}},{"type":"Feature","geometry":{"type":"Point","coordinates":[-107.7633,38.5582]},"properties":{"s":63.3,"pub":true}},{"type":"Feature","geometry":{"type":"Point","coordinates":[-107.7633,38.564]},"properties":{"s":23.3,"pub":true}},{"type":"Feature","geometry":{"type":"Point","coordinates":[-107.7558,38.4944]},"properties":{"s":10.0,"pub":true}},{"type":"Feature","geometry":{"type":"Point","coordinates":[-107.7558,38.5002]},"properties":{"s":10.0,"pub":true}},{"type":"Feature","geometry":{"type":"Point","coordinates":[-107.7558,38.506]},"properties":{"s":10.0,"pub":false}},{"type":"Feature","geometry":{"type":"Point","coordinates":[-107.7558,38.5118]},"properties":{"s":10.0,"pub":false}},{"type":"Feature","geometry":{"type":"Point","coordinates":[-107.7558,38.5176]},"properties":{"s":10.0,"pub":false}},{"type":"Feature","geometry":{"type":"Point","coordinates":[-107.7558,38.5234]},"properties":{"s":10.0,"pub":false}},{"type":"Feature","geometry":{"type":"Point","coordinates":[-107.7558,38.5292]},"properties":{"s":10.0,"pub":false}},{"type":"Feature","geometry":{"type":"Point","coordinates":[-107.7558,38.535]},"properties":{"s":10.0,"pub":false}},{"type":"Feature","geometry":{"type":"Point","coordinates":[-107.7558,38.5408]},"properties":{"s":10.0,"pub":false}},{"type":"Feature","geometry":{"type":"Point","coordinates":[-107.7558,38.5466]},"properties":{"s":10.0,"pub":false}},{"type":"Feature","geometry":{"type":"Point","coordinates":[-107.7558,38.5524]},"properties":{"s":43.3,"pub":false}},{"type":"Feature","geometry":{"type":"Point","coordinates":[-107.7558,38.5582]},"properties":{"s":63.3,"pub":true}},{"type":"Feature","geometry":{"type":"Point","coordinates":[-107.7558,38.564]},"properties":{"s":23.3,"pub":true}},{"type":"Feature","geometry":{"type":"Point","coordinates":[-107.7483,38.4886]},"properties":{"s":10.0,"pub":false}},{"type":"Feature","geometry":{"type":"Point","coordinates":[-107.7483,38.4944]},"properties":{"s":10.0,"pub":false}},{"type":"Feature","geometry":{"type":"Point","coordinates":[-107.7483,38.5002]},"properties":{"s":10.0,"pub":false}},{"type":"Feature","geometry":{"type":"Point","coordinates":[-107.7483,38.506]},"properties":{"s":10.0,"pub":false}},{"type":"Feature","geometry":{"type":"Point","coordinates":[-107.7483,38.5118]},"properties":{"s":10.0,"pub":false}},{"type":"Feature","geometry":{"type":"Point","coordinates":[-107.7483,38.5176]},"properties":{"s":10.0,"pub":false}},{"type":"Feature","geometry":{"type":"Point","coordinates":[-107.7483,38.5234]},"properties":{"s":10.0,"pub":false}},{"type":"Feature","geometry":{"type":"Point","coordinates":[-107.7483,38.5292]},"properties":{"s":10.0,"pub":false}},{"type":"Feature","geometry":{"type":"Point","coordinates":[-107.7483,38.535]},"properties":{"s":10.0,"pub":false}},{"type":"Feature","geometry":{"type":"Point","coordinates":[-107.7483,38.5408]},"properties":{"s":30.0,"pub":false}},{"type":"Feature","geometry":{"type":"Point","coordinates":[-107.7483,38.5466]},"properties":{"s":63.3,"pub":true}},{"type":"Feature","geometry":{"type":"Point","coordinates":[-107.7483,38.5524]},"properties":{"s":63.3,"pub":true}},{"type":"Feature","geometry":{"type":"Point","coordinates":[-107.7483,38.5582]},"properties":{"s":63.3,"pub":true}},{"type":"Feature","geometry":{"type":"Point","coordinates":[-107.7483,38.564]},"properties":{"s":23.3,"pub":true}},{"type":"Feature","geometry":{"type":"Point","coordinates":[-107.7408,38.4886]},"properties":{"s":10.0,"pub":false}},{"type":"Feature","geometry":{"type":"Point","coordinates":[-107.7408,38.4944]},"properties":{"s":10.0,"pub":false}},{"type":"Feature","geometry":{"type":"Point","coordinates":[-107.7408,38.5002]},"properties":{"s":10.0,"pub":false}},{"type":"Feature","geometry":{"type":"Point","coordinates":[-107.7408,38.506]},"properties":{"s":10.0,"pub":false}},{"type":"Feature","geometry":{"type":"Point","coordinates":[-107.7408,38.5118]},"properties":{"s":10.0,"pub":false}},{"type":"Feature","geometry":{"type":"Point","coordinates":[-107.7408,38.5176]},"properties":{"s":30.0,"pub":false}},{"type":"Feature","geometry":{"type":"Point","coordinates":[-107.7408,38.5234]},"properties":{"s":23.3,"pub":true}},{"type":"Feature","geometry":{"type":"Point","coordinates":[-107.7408,38.5292]},"properties":{"s":23.3,"pub":true}},{"type":"Feature","geometry":{"type":"Point","coordinates":[-107.7408,38.535]},"properties":{"s":23.3,"pub":false}},{"type":"Feature","geometry":{"type":"Point","coordinates":[-107.7408,38.5408]},"properties":{"s":63.3,"pub":false}},{"type":"Feature","geometry":{"type":"Point","coordinates":[-107.7408,38.5466]},"properties":{"s":63.3,"pub":true}},{"type":"Feature","geometry":{"type":"Point","coordinates":[-107.7408,38.5524]},"properties":{"s":63.3,"pub":true}},{"type":"Feature","geometry":{"type":"Point","coordinates":[-107.7408,38.5582]},"properties":{"s":63.3,"pub":true}},{"type":"Feature","geometry":{"type":"Point","coordinates":[-107.7333,38.4886]},"properties":{"s":10.0,"pub":false}},{"type":"Feature","geometry":{"type":"Point","coordinates":[-107.7333,38.4944]},"properties":{"s":10.0,"pub":true}},{"type":"Feature","geometry":{"type":"Point","coordinates":[-107.7333,38.5002]},"properties":{"s":10.0,"pub":false}},{"type":"Feature","geometry":{"type":"Point","coordinates":[-107.7333,38.506]},"properties":{"s":10.0,"pub":false}},{"type":"Feature","geometry":{"type":"Point","coordinates":[-107.7333,38.5118]},"properties":{"s":10.0,"pub":false}},{"type":"Feature","geometry":{"type":"Point","coordinates":[-107.7333,38.5176]},"properties":{"s":23.3,"pub":true}},{"type":"Feature","geometry":{"type":"Point","coordinates":[-107.7333,38.5234]},"properties":{"s":23.3,"pub":false}},{"type":"Feature","geometry":{"type":"Point","coordinates":[-107.7333,38.5292]},"properties":{"s":63.3,"pub":false}},{"type":"Feature","geometry":{"type":"Point","coordinates":[-107.7333,38.535]},"properties":{"s":63.3,"pub":true}},{"type":"Feature","geometry":{"type":"Point","coordinates":[-107.7333,38.5408]},"properties":{"s":63.3,"pub":true}},{"type":"Feature","geometry":{"type":"Point","coordinates":[-107.7333,38.5466]},"properties":{"s":63.3,"pub":true}},{"type":"Feature","geometry":{"type":"Point","coordinates":[-107.7333,38.5524]},"properties":{"s":63.3,"pub":true}},{"type":"Feature","geometry":{"type":"Point","coordinates":[-107.7333,38.5582]},"properties":{"s":23.3,"pub":true}},{"type":"Feature","geometry":{"type":"Point","coordinates":[-107.7333,38.564]},"properties":{"s":23.3,"pub":true}},{"type":"Feature","geometry":{"type":"Point","coordinates":[-107.7258,38.4886]},"properties":{"s":10.0,"pub":false}},{"type":"Feature","geometry":{"type":"Point","coordinates":[-107.7258,38.4944]},"properties":{"s":10.0,"pub":false}},{"type":"Feature","geometry":{"type":"Point","coordinates":[-107.7258,38.5002]},"properties":{"s":10.0,"pub":false}},{"type":"Feature","geometry":{"type":"Point","coordinates":[-107.7258,38.506]},"properties":{"s":10.0,"pub":false}},{"type":"Feature","geometry":{"type":"Point","coordinates":[-107.7258,38.5118]},"properties":{"s":23.3,"pub":false}},{"type":"Feature","geometry":{"type":"Point","coordinates":[-107.7258,38.5176]},"properties":{"s":23.3,"pub":false}},{"type":"Feature","geometry":{"type":"Point","coordinates":[-107.7258,38.5234]},"properties":{"s":23.3,"pub":false}},{"type":"Feature","geometry":{"type":"Point","coordinates":[-107.7258,38.5292]},"properties":{"s":63.3,"pub":false}},{"type":"Feature","geometry":{"type":"Point","coordinates":[-107.7258,38.535]},"properties":{"s":63.3,"pub":true}},{"type":"Feature","geometry":{"type":"Point","coordinates":[-107.7258,38.5408]},"properties":{"s":63.3,"pub":true}},{"type":"Feature","geometry":{"type":"Point","coordinates":[-107.7258,38.5466]},"properties":{"s":63.3,"pub":true}},{"type":"Feature","geometry":{"type":"Point","coordinates":[-107.7258,38.5524]},"properties":{"s":23.3,"pub":true}},{"type":"Feature","geometry":{"type":"Point","coordinates":[-107.7258,38.5582]},"properties":{"s":23.3,"pub":true}},{"type":"Feature","geometry":{"type":"Point","coordinates":[-107.7258,38.564]},"properties":{"s":50.0,"pub":true}},{"type":"Feature","geometry":{"type":"Point","coordinates":[-107.7258,38.5698]},"properties":{"s":50.0,"pub":true}},{"type":"Feature","geometry":{"type":"Point","coordinates":[-107.7183,38.4828]},"properties":{"s":13.3,"pub":false}},{"type":"Feature","geometry":{"type":"Point","coordinates":[-107.7183,38.4886]},"properties":{"s":13.3,"pub":false}},{"type":"Feature","geometry":{"type":"Point","coordinates":[-107.7183,38.4944]},"properties":{"s":10.0,"pub":false}},{"type":"Feature","geometry":{"type":"Point","coordinates":[-107.7183,38.5002]},"properties":{"s":10.0,"pub":false}},{"type":"Feature","geometry":{"type":"Point","coordinates":[-107.7183,38.5118]},"properties":{"s":23.3,"pub":false}},{"type":"Feature","geometry":{"type":"Point","coordinates":[-107.7183,38.5176]},"properties":{"s":23.3,"pub":false}},{"type":"Feature","geometry":{"type":"Point","coordinates":[-107.7183,38.5234]},"properties":{"s":23.3,"pub":false}},{"type":"Feature","geometry":{"type":"Point","coordinates":[-107.7183,38.5292]},"properties":{"s":23.3,"pub":true}},{"type":"Feature","geometry":{"type":"Point","coordinates":[-107.7183,38.535]},"properties":{"s":23.3,"pub":true}},{"type":"Feature","geometry":{"type":"Point","coordinates":[-107.7183,38.5408]},"properties":{"s":23.3,"pub":true}},{"type":"Feature","geometry":{"type":"Point","coordinates":[-107.7183,38.5466]},"properties":{"s":23.3,"pub":true}},{"type":"Feature","geometry":{"type":"Point","coordinates":[-107.7183,38.5524]},"properties":{"s":23.3,"pub":true}},{"type":"Feature","geometry":{"type":"Point","coordinates":[-107.7183,38.5582]},"properties":{"s":50.0,"pub":true}},{"type":"Feature","geometry":{"type":"Point","coordinates":[-107.7183,38.564]},"properties":{"s":50.0,"pub":true}},{"type":"Feature","geometry":{"type":"Point","coordinates":[-107.7183,38.5698]},"properties":{"s":23.3,"pub":true}},{"type":"Feature","geometry":{"type":"Point","coordinates":[-107.7183,38.5756]},"properties":{"s":23.3,"pub":true}},{"type":"Feature","geometry":{"type":"Point","coordinates":[-107.7108,38.4828]},"properties":{"s":13.3,"pub":false}},{"type":"Feature","geometry":{"type":"Point","coordinates":[-107.7108,38.4886]},"properties":{"s":13.3,"pub":false}},{"type":"Feature","geometry":{"type":"Point","coordinates":[-107.7108,38.5002]},"properties":{"s":23.3,"pub":false}},{"type":"Feature","geometry":{"type":"Point","coordinates":[-107.7108,38.506]},"properties":{"s":23.3,"pub":false}},{"type":"Feature","geometry":{"type":"Point","coordinates":[-107.7108,38.5118]},"properties":{"s":23.3,"pub":false}},{"type":"Feature","geometry":{"type":"Point","coordinates":[-107.7108,38.5176]},"properties":{"s":23.3,"pub":false}},{"type":"Feature","geometry":{"type":"Point","coordinates":[-107.7108,38.5234]},"properties":{"s":23.3,"pub":false}},{"type":"Feature","geometry":{"type":"Point","coordinates":[-107.7108,38.5292]},"properties":{"s":23.3,"pub":false}},{"type":"Feature","geometry":{"type":"Point","coordinates":[-107.7108,38.535]},"properties":{"s":23.3,"pub":true}},{"type":"Feature","geometry":{"type":"Point","coordinates":[-107.7108,38.5408]},"properties":{"s":23.3,"pub":true}},{"type":"Feature","geometry":{"type":"Point","coordinates":[-107.7108,38.5466]},"properties":{"s":23.3,"pub":true}},{"type":"Feature","geometry":{"type":"Point","coordinates":[-107.7108,38.5524]},"properties":{"s":50.0,"pub":true}},{"type":"Feature","geometry":{"type":"Point","coordinates":[-107.7108,38.5582]},"properties":{"s":50.0,"pub":true}},{"type":"Feature","geometry":{"type":"Point","coordinates":[-107.7108,38.564]},"properties":{"s":50.0,"pub":true}},{"type":"Feature","geometry":{"type":"Point","coordinates":[-107.7108,38.5698]},"properties":{"s":23.3,"pub":true}},{"type":"Feature","geometry":{"type":"Point","coordinates":[-107.7108,38.5756]},"properties":{"s":23.3,"pub":true}},{"type":"Feature","geometry":{"type":"Point","coordinates":[-107.7033,38.477]},"properties":{"s":13.3,"pub":false}},{"type":"Feature","geometry":{"type":"Point","coordinates":[-107.7033,38.4828]},"properties":{"s":13.3,"pub":false}},{"type":"Feature","geometry":{"type":"Point","coordinates":[-107.7033,38.4944]},"properties":{"s":23.3,"pub":false}},{"type":"Feature","geometry":{"type":"Point","coordinates":[-107.7033,38.5002]},"properties":{"s":23.3,"pub":false}},{"type":"Feature","geometry":{"type":"Point","coordinates":[-107.7033,38.506]},"properties":{"s":23.3,"pub":false}},{"type":"Feature","geometry":{"type":"Point","coordinates":[-107.7033,38.5118]},"properties":{"s":23.3,"pub":false}},{"type":"Feature","geometry":{"type":"Point","coordinates":[-107.7033,38.5176]},"properties":{"s":23.3,"pub":false}},{"type":"Feature","geometry":{"type":"Point","coordinates":[-107.7033,38.5234]},"properties":{"s":23.3,"pub":false}},{"type":"Feature","geometry":{"type":"Point","coordinates":[-107.7033,38.5292]},"properties":{"s":23.3,"pub":false}},{"type":"Feature","geometry":{"type":"Point","coordinates":[-107.7033,38.535]},"properties":{"s":23.3,"pub":true}},{"type":"Feature","geometry":{"type":"Point","coordinates":[-107.7033,38.5408]},"properties":{"s":23.3,"pub":true}},{"type":"Feature","geometry":{"type":"Point","coordinates":[-107.7033,38.5466]},"properties":{"s":23.3,"pub":true}},{"type":"Feature","geometry":{"type":"Point","coordinates":[-107.7033,38.5524]},"properties":{"s":23.3,"pub":true}},{"type":"Feature","geometry":{"type":"Point","coordinates":[-107.7033,38.5582]},"properties":{"s":23.3,"pub":true}},{"type":"Feature","geometry":{"type":"Point","coordinates":[-107.7033,38.564]},"properties":{"s":23.3,"pub":true}},{"type":"Feature","geometry":{"type":"Point","coordinates":[-107.6958,38.4944]},"properties":{"s":23.3,"pub":false}},{"type":"Feature","geometry":{"type":"Point","coordinates":[-107.6958,38.5002]},"properties":{"s":63.3,"pub":false}},{"type":"Feature","geometry":{"type":"Point","coordinates":[-107.6958,38.506]},"properties":{"s":63.3,"pub":false}},{"type":"Feature","geometry":{"type":"Point","coordinates":[-107.6958,38.5118]},"properties":{"s":63.3,"pub":false}},{"type":"Feature","geometry":{"type":"Point","coordinates":[-107.6958,38.5176]},"properties":{"s":63.3,"pub":false}},{"type":"Feature","geometry":{"type":"Point","coordinates":[-107.6958,38.5234]},"properties":{"s":23.3,"pub":false}},{"type":"Feature","geometry":{"type":"Point","coordinates":[-107.6958,38.5292]},"properties":{"s":23.3,"pub":true}},{"type":"Feature","geometry":{"type":"Point","coordinates":[-107.6958,38.535]},"properties":{"s":23.3,"pub":false}},{"type":"Feature","geometry":{"type":"Point","coordinates":[-107.6958,38.5408]},"properties":{"s":23.3,"pub":true}},{"type":"Feature","geometry":{"type":"Point","coordinates":[-107.6958,38.5466]},"properties":{"s":50.0,"pub":true}},{"type":"Feature","geometry":{"type":"Point","coordinates":[-107.6958,38.5524]},"properties":{"s":23.3,"pub":true}},{"type":"Feature","geometry":{"type":"Point","coordinates":[-107.6883,38.4886]},"properties":{"s":23.3,"pub":false}},{"type":"Feature","geometry":{"type":"Point","coordinates":[-107.6883,38.4944]},"properties":{"s":63.3,"pub":false}},{"type":"Feature","geometry":{"type":"Point","coordinates":[-107.6883,38.5002]},"properties":{"s":63.3,"pub":false}},{"type":"Feature","geometry":{"type":"Point","coordinates":[-107.6883,38.506]},"properties":{"s":63.3,"pub":false}},{"type":"Feature","geometry":{"type":"Point","coordinates":[-107.6883,38.5118]},"properties":{"s":63.3,"pub":false}},{"type":"Feature","geometry":{"type":"Point","coordinates":[-107.6883,38.5176]},"properties":{"s":63.3,"pub":false}},{"type":"Feature","geometry":{"type":"Point","coordinates":[-107.6883,38.5234]},"properties":{"s":63.3,"pub":false}},{"type":"Feature","geometry":{"type":"Point","coordinates":[-107.6883,38.5292]},"properties":{"s":23.3,"pub":true}},{"type":"Feature","geometry":{"type":"Point","coordinates":[-107.6883,38.535]},"properties":{"s":50.0,"pub":true}},{"type":"Feature","geometry":{"type":"Point","coordinates":[-107.6883,38.5408]},"properties":{"s":50.0,"pub":true}},{"type":"Feature","geometry":{"type":"Point","coordinates":[-107.6883,38.5466]},"properties":{"s":23.3,"pub":true}},{"type":"Feature","geometry":{"type":"Point","coordinates":[-107.6883,38.5524]},"properties":{"s":23.3,"pub":true}},{"type":"Feature","geometry":{"type":"Point","coordinates":[-107.6808,38.4828]},"properties":{"s":26.7,"pub":false}},{"type":"Feature","geometry":{"type":"Point","coordinates":[-107.6808,38.4886]},"properties":{"s":23.3,"pub":false}},{"type":"Feature","geometry":{"type":"Point","coordinates":[-107.6808,38.4944]},"properties":{"s":63.3,"pub":false}},{"type":"Feature","geometry":{"type":"Point","coordinates":[-107.6808,38.5002]},"properties":{"s":63.3,"pub":false}},{"type":"Feature","geometry":{"type":"Point","coordinates":[-107.6808,38.506]},"properties":{"s":63.3,"pub":false}},{"type":"Feature","geometry":{"type":"Point","coordinates":[-107.6808,38.5118]},"properties":{"s":63.3,"pub":false}},{"type":"Feature","geometry":{"type":"Point","coordinates":[-107.6808,38.5176]},"properties":{"s":63.3,"pub":false}},{"type":"Feature","geometry":{"type":"Point","coordinates":[-107.6808,38.5234]},"properties":{"s":90.0,"pub":false}},{"type":"Feature","geometry":{"type":"Point","coordinates":[-107.6808,38.5292]},"properties":{"s":90.0,"pub":true}},{"type":"Feature","geometry":{"type":"Point","coordinates":[-107.6808,38.535]},"properties":{"s":23.3,"pub":true}},{"type":"Feature","geometry":{"type":"Point","coordinates":[-107.6733,38.4828]},"properties":{"s":23.3,"pub":false}},{"type":"Feature","geometry":{"type":"Point","coordinates":[-107.6733,38.4886]},"properties":{"s":63.3,"pub":false}},{"type":"Feature","geometry":{"type":"Point","coordinates":[-107.6733,38.4944]},"properties":{"s":63.3,"pub":false}},{"type":"Feature","geometry":{"type":"Point","coordinates":[-107.6733,38.5002]},"properties":{"s":63.3,"pub":false}},{"type":"Feature","geometry":{"type":"Point","coordinates":[-107.6733,38.506]},"properties":{"s":63.3,"pub":false}},{"type":"Feature","geometry":{"type":"Point","coordinates":[-107.6733,38.5118]},"properties":{"s":63.3,"pub":false}},{"type":"Feature","geometry":{"type":"Point","coordinates":[-107.6733,38.5176]},"properties":{"s":63.3,"pub":false}},{"type":"Feature","geometry":{"type":"Point","coordinates":[-107.6733,38.5234]},"properties":{"s":90.0,"pub":true}},{"type":"Feature","geometry":{"type":"Point","coordinates":[-107.6733,38.5292]},"properties":{"s":90.0,"pub":true}},{"type":"Feature","geometry":{"type":"Point","coordinates":[-107.6658,38.477]},"properties":{"s":23.3,"pub":false}},{"type":"Feature","geometry":{"type":"Point","coordinates":[-107.6658,38.4828]},"properties":{"s":63.3,"pub":false}},{"type":"Feature","geometry":{"type":"Point","coordinates":[-107.6658,38.4886]},"properties":{"s":63.3,"pub":false}},{"type":"Feature","geometry":{"type":"Point","coordinates":[-107.6658,38.4944]},"properties":{"s":63.3,"pub":false}},{"type":"Feature","geometry":{"type":"Point","coordinates":[-107.6658,38.5002]},"properties":{"s":63.3,"pub":false}},{"type":"Feature","geometry":{"type":"Point","coordinates":[-107.6658,38.506]},"properties":{"s":63.3,"pub":false}},{"type":"Feature","geometry":{"type":"Point","coordinates":[-107.6658,38.5118]},"properties":{"s":63.3,"pub":false}},{"type":"Feature","geometry":{"type":"Point","coordinates":[-107.6658,38.5176]},"properties":{"s":63.3,"pub":true}},{"type":"Feature","geometry":{"type":"Point","coordinates":[-107.6658,38.5234]},"properties":{"s":63.3,"pub":true}},{"type":"Feature","geometry":{"type":"Point","coordinates":[-107.6658,38.5292]},"properties":{"s":23.3,"pub":true}},{"type":"Feature","geometry":{"type":"Point","coordinates":[-107.6583,38.4712]},"properties":{"s":46.7,"pub":false}},{"type":"Feature","geometry":{"type":"Point","coordinates":[-107.6583,38.477]},"properties":{"s":63.3,"pub":false}},{"type":"Feature","geometry":{"type":"Point","coordinates":[-107.6583,38.4828]},"properties":{"s":63.3,"pub":false}},{"type":"Feature","geometry":{"type":"Point","coordinates":[-107.6583,38.4886]},"properties":{"s":63.3,"pub":false}},{"type":"Feature","geometry":{"type":"Point","coordinates":[-107.6583,38.4944]},"properties":{"s":63.3,"pub":false}},{"type":"Feature","geometry":{"type":"Point","coordinates":[-107.6583,38.5002]},"properties":{"s":63.3,"pub":false}},{"type":"Feature","geometry":{"type":"Point","coordinates":[-107.6583,38.506]},"properties":{"s":63.3,"pub":false}},{"type":"Feature","geometry":{"type":"Point","coordinates":[-107.6583,38.5118]},"properties":{"s":63.3,"pub":false}},{"type":"Feature","geometry":{"type":"Point","coordinates":[-107.6583,38.5176]},"properties":{"s":63.3,"pub":true}},{"type":"Feature","geometry":{"type":"Point","coordinates":[-107.6583,38.5234]},"properties":{"s":23.3,"pub":true}},{"type":"Feature","geometry":{"type":"Point","coordinates":[-107.6583,38.5292]},"properties":{"s":23.3,"pub":true}},{"type":"Feature","geometry":{"type":"Point","coordinates":[-107.6508,38.4654]},"properties":{"s":46.7,"pub":false}},{"type":"Feature","geometry":{"type":"Point","coordinates":[-107.6508,38.4712]},"properties":{"s":43.3,"pub":false}},{"type":"Feature","geometry":{"type":"Point","coordinates":[-107.6508,38.477]},"properties":{"s":63.3,"pub":false}},{"type":"Feature","geometry":{"type":"Point","coordinates":[-107.6508,38.4828]},"properties":{"s":23.3,"pub":false}},{"type":"Feature","geometry":{"type":"Point","coordinates":[-107.6508,38.4886]},"properties":{"s":23.3,"pub":false}},{"type":"Feature","geometry":{"type":"Point","coordinates":[-107.6508,38.4944]},"properties":{"s":23.3,"pub":false}},{"type":"Feature","geometry":{"type":"Point","coordinates":[-107.6508,38.5002]},"properties":{"s":23.3,"pub":false}},{"type":"Feature","geometry":{"type":"Point","coordinates":[-107.6508,38.506]},"properties":{"s":23.3,"pub":false}},{"type":"Feature","geometry":{"type":"Point","coordinates":[-107.6508,38.5118]},"properties":{"s":23.3,"pub":false}},{"type":"Feature","geometry":{"type":"Point","coordinates":[-107.6508,38.5234]},"properties":{"s":23.3,"pub":true}},{"type":"Feature","geometry":{"type":"Point","coordinates":[-107.6508,38.5292]},"properties":{"s":23.3,"pub":true}},{"type":"Feature","geometry":{"type":"Point","coordinates":[-107.6433,38.4654]},"properties":{"s":46.7,"pub":false}},{"type":"Feature","geometry":{"type":"Point","coordinates":[-107.6433,38.4712]},"properties":{"s":43.3,"pub":false}},{"type":"Feature","geometry":{"type":"Point","coordinates":[-107.6433,38.477]},"properties":{"s":23.3,"pub":false}},{"type":"Feature","geometry":{"type":"Point","coordinates":[-107.6433,38.4828]},"properties":{"s":23.3,"pub":false}},{"type":"Feature","geometry":{"type":"Point","coordinates":[-107.6433,38.4886]},"properties":{"s":23.3,"pub":false}},{"type":"Feature","geometry":{"type":"Point","coordinates":[-107.6433,38.4944]},"properties":{"s":23.3,"pub":false}},{"type":"Feature","geometry":{"type":"Point","coordinates":[-107.6433,38.5002]},"properties":{"s":23.3,"pub":false}},{"type":"Feature","geometry":{"type":"Point","coordinates":[-107.6433,38.506]},"properties":{"s":23.3,"pub":true}},{"type":"Feature","geometry":{"type":"Point","coordinates":[-107.6433,38.5118]},"properties":{"s":23.3,"pub":true}},{"type":"Feature","geometry":{"type":"Point","coordinates":[-107.6358,38.4654]},"properties":{"s":43.3,"pub":false}},{"type":"Feature","geometry":{"type":"Point","coordinates":[-107.6358,38.4712]},"properties":{"s":43.3,"pub":false}},{"type":"Feature","geometry":{"type":"Point","coordinates":[-107.6358,38.477]},"properties":{"s":23.3,"pub":false}},{"type":"Feature","geometry":{"type":"Point","coordinates":[-107.6358,38.4828]},"properties":{"s":23.3,"pub":false}},{"type":"Feature","geometry":{"type":"Point","coordinates":[-107.6358,38.4886]},"properties":{"s":23.3,"pub":false}},{"type":"Feature","geometry":{"type":"Point","coordinates":[-107.6358,38.4944]},"properties":{"s":23.3,"pub":false}},{"type":"Feature","geometry":{"type":"Point","coordinates":[-107.6358,38.5002]},"properties":{"s":23.3,"pub":false}},{"type":"Feature","geometry":{"type":"Point","coordinates":[-107.6358,38.506]},"properties":{"s":23.3,"pub":true}},{"type":"Feature","geometry":{"type":"Point","coordinates":[-107.6358,38.5118]},"properties":{"s":23.3,"pub":true}},{"type":"Feature","geometry":{"type":"Point","coordinates":[-107.6283,38.477]},"properties":{"s":23.3,"pub":false}},{"type":"Feature","geometry":{"type":"Point","coordinates":[-107.6283,38.4828]},"properties":{"s":23.3,"pub":false}},{"type":"Feature","geometry":{"type":"Point","coordinates":[-107.6283,38.4886]},"properties":{"s":23.3,"pub":false}},{"type":"Feature","geometry":{"type":"Point","coordinates":[-107.6283,38.4944]},"properties":{"s":23.3,"pub":false}},{"type":"Feature","geometry":{"type":"Point","coordinates":[-107.6208,38.4712]},"properties":{"s":23.3,"pub":false}},{"type":"Feature","geometry":{"type":"Point","coordinates":[-107.6208,38.477]},"properties":{"s":23.3,"pub":false}},{"type":"Feature","geometry":{"type":"Point","coordinates":[-107.6208,38.4828]},"properties":{"s":23.3,"pub":false}},{"type":"Feature","geometry":{"type":"Point","coordinates":[-107.6208,38.4886]},"properties":{"s":23.3,"pub":false}},{"type":"Feature","geometry":{"type":"Point","coordinates":[-107.6133,38.4654]},"properties":{"s":23.3,"pub":false}},{"type":"Feature","geometry":{"type":"Point","coordinates":[-107.6133,38.4712]},"properties":{"s":23.3,"pub":false}},{"type":"Feature","geometry":{"type":"Point","coordinates":[-107.6133,38.477]},"properties":{"s":23.3,"pub":false}},{"type":"Feature","geometry":{"type":"Point","coordinates":[-107.6133,38.4828]},"properties":{"s":23.3,"pub":false}},{"type":"Feature","geometry":{"type":"Point","coordinates":[-107.6133,38.4886]},"properties":{"s":23.3,"pub":true}},{"type":"Feature","geometry":{"type":"Point","coordinates":[-107.6058,38.4538]},"properties":{"s":13.3,"pub":false}},{"type":"Feature","geometry":{"type":"Point","coordinates":[-107.6058,38.4654]},"properties":{"s":23.3,"pub":false}},{"type":"Feature","geometry":{"type":"Point","coordinates":[-107.6058,38.4712]},"properties":{"s":23.3,"pub":false}},{"type":"Feature","geometry":{"type":"Point","coordinates":[-107.6058,38.477]},"properties":{"s":23.3,"pub":false}},{"type":"Feature","geometry":{"type":"Point","coordinates":[-107.6058,38.4828]},"properties":{"s":23.3,"pub":false}},{"type":"Feature","geometry":{"type":"Point","coordinates":[-107.5983,38.4538]},"properties":{"s":13.3,"pub":false}},{"type":"Feature","geometry":{"type":"Point","coordinates":[-107.5983,38.4654]},"properties":{"s":23.3,"pub":false}},{"type":"Feature","geometry":{"type":"Point","coordinates":[-107.5983,38.4712]},"properties":{"s":23.3,"pub":false}},{"type":"Feature","geometry":{"type":"Point","coordinates":[-107.5983,38.477]},"properties":{"s":23.3,"pub":false}},{"type":"Feature","geometry":{"type":"Point","coordinates":[-107.5908,38.448]},"properties":{"s":13.3,"pub":false}},{"type":"Feature","geometry":{"type":"Point","coordinates":[-107.5908,38.4538]},"properties":{"s":10.0,"pub":false}},{"type":"Feature","geometry":{"type":"Point","coordinates":[-107.5908,38.4654]},"properties":{"s":23.3,"pub":false}},{"type":"Feature","geometry":{"type":"Point","coordinates":[-107.5908,38.4712]},"properties":{"s":23.3,"pub":false}},{"type":"Feature","geometry":{"type":"Point","coordinates":[-107.5833,38.448]},"properties":{"s":13.3,"pub":false}},{"type":"Feature","geometry":{"type":"Point","coordinates":[-107.5833,38.4596]},"properties":{"s":23.3,"pub":true}},{"type":"Feature","geometry":{"type":"Point","coordinates":[-107.5833,38.4654]},"properties":{"s":23.3,"pub":false}},{"type":"Feature","geometry":{"type":"Point","coordinates":[-107.5758,38.4422]},"properties":{"s":13.3,"pub":true}},{"type":"Feature","geometry":{"type":"Point","coordinates":[-107.5758,38.448]},"properties":{"s":13.3,"pub":true}},{"type":"Feature","geometry":{"type":"Point","coordinates":[-107.5758,38.4596]},"properties":{"s":23.3,"pub":true}},{"type":"Feature","geometry":{"type":"Point","coordinates":[-107.5683,38.4422]},"properties":{"s":13.3,"pub":true}},{"type":"Feature","geometry":{"type":"Point","coordinates":[-107.5683,38.448]},"properties":{"s":10.0,"pub":true}},{"type":"Feature","geometry":{"type":"Point","coordinates":[-107.5608,38.4538]},"properties":{"s":23.3,"pub":true}},{"type":"Feature","geometry":{"type":"Point","coordinates":[-107.5533,38.4422]},"properties":{"s":10.0,"pub":true}},{"type":"Feature","geometry":{"type":"Point","coordinates":[-107.5533,38.4538]},"properties":{"s":23.3,"pub":true}},{"type":"Feature","geometry":{"type":"Point","coordinates":[-107.5458,38.4364]},"properties":{"s":10.0,"pub":false}},{"type":"Feature","geometry":{"type":"Point","coordinates":[-107.5458,38.4422]},"properties":{"s":10.0,"pub":true}},{"type":"Feature","geometry":{"type":"Point","coordinates":[-107.5458,38.448]},"properties":{"s":23.3,"pub":true}},{"type":"Feature","geometry":{"type":"Point","coordinates":[-107.5383,38.4306]},"properties":{"s":30.0,"pub":false}},{"type":"Feature","geometry":{"type":"Point","coordinates":[-107.5383,38.4364]},"properties":{"s":23.3,"pub":true}},{"type":"Feature","geometry":{"type":"Point","coordinates":[-107.5383,38.4422]},"properties":{"s":23.3,"pub":true}},{"type":"Feature","geometry":{"type":"Point","coordinates":[-107.5308,38.4248]},"properties":{"s":30.0,"pub":true}},{"type":"Feature","geometry":{"type":"Point","coordinates":[-107.5308,38.4306]},"properties":{"s":30.0,"pub":true}},{"type":"Feature","geometry":{"type":"Point","coordinates":[-107.5308,38.4364]},"properties":{"s":23.3,"pub":true}},{"type":"Feature","geometry":{"type":"Point","coordinates":[-107.5308,38.4422]},"properties":{"s":23.3,"pub":true}},{"type":"Feature","geometry":{"type":"Point","coordinates":[-107.5233,38.4132]},"properties":{"s":30.0,"pub":false}},{"type":"Feature","geometry":{"type":"Point","coordinates":[-107.5233,38.419]},"properties":{"s":30.0,"pub":true}},{"type":"Feature","geometry":{"type":"Point","coordinates":[-107.5233,38.4248]},"properties":{"s":30.0,"pub":true}},{"type":"Feature","geometry":{"type":"Point","coordinates":[-107.5233,38.4306]},"properties":{"s":23.3,"pub":true}},{"type":"Feature","geometry":{"type":"Point","coordinates":[-107.5233,38.4364]},"properties":{"s":23.3,"pub":true}},{"type":"Feature","geometry":{"type":"Point","coordinates":[-107.5158,38.4074]},"properties":{"s":30.0,"pub":false}},{"type":"Feature","geometry":{"type":"Point","coordinates":[-107.5158,38.4132]},"properties":{"s":30.0,"pub":true}},{"type":"Feature","geometry":{"type":"Point","coordinates":[-107.5158,38.419]},"properties":{"s":30.0,"pub":true}},{"type":"Feature","geometry":{"type":"Point","coordinates":[-107.5158,38.4248]},"properties":{"s":23.3,"pub":true}},{"type":"Feature","geometry":{"type":"Point","coordinates":[-107.5158,38.4306]},"properties":{"s":23.3,"pub":true}},{"type":"Feature","geometry":{"type":"Point","coordinates":[-107.5158,38.4364]},"properties":{"s":23.3,"pub":true}},{"type":"Feature","geometry":{"type":"Point","coordinates":[-107.5083,38.4074]},"properties":{"s":30.0,"pub":true}},{"type":"Feature","geometry":{"type":"Point","coordinates":[-107.5083,38.4132]},"properties":{"s":30.0,"pub":true}},{"type":"Feature","geometry":{"type":"Point","coordinates":[-107.5083,38.419]},"properties":{"s":23.3,"pub":true}},{"type":"Feature","geometry":{"type":"Point","coordinates":[-107.5083,38.4248]},"properties":{"s":23.3,"pub":true}},{"type":"Feature","geometry":{"type":"Point","coordinates":[-107.5083,38.4306]},"properties":{"s":23.3,"pub":true}},{"type":"Feature","geometry":{"type":"Point","coordinates":[-107.5083,38.4364]},"properties":{"s":23.3,"pub":true}},{"type":"Feature","geometry":{"type":"Point","coordinates":[-107.5008,38.4016]},"properties":{"s":30.0,"pub":false}},{"type":"Feature","geometry":{"type":"Point","coordinates":[-107.5008,38.4074]},"properties":{"s":30.0,"pub":false}},{"type":"Feature","geometry":{"type":"Point","coordinates":[-107.5008,38.4132]},"properties":{"s":23.3,"pub":false}},{"type":"Feature","geometry":{"type":"Point","coordinates":[-107.5008,38.419]},"properties":{"s":23.3,"pub":false}},{"type":"Feature","geometry":{"type":"Point","coordinates":[-107.5008,38.4248]},"properties":{"s":23.3,"pub":true}},{"type":"Feature","geometry":{"type":"Point","coordinates":[-107.5008,38.4306]},"properties":{"s":23.3,"pub":true}},{"type":"Feature","geometry":{"type":"Point","coordinates":[-107.5008,38.4364]},"properties":{"s":23.3,"pub":true}},{"type":"Feature","geometry":{"type":"Point","coordinates":[-107.4933,38.4016]},"properties":{"s":30.0,"pub":false}},{"type":"Feature","geometry":{"type":"Point","coordinates":[-107.4933,38.4074]},"properties":{"s":23.3,"pub":false}},{"type":"Feature","geometry":{"type":"Point","coordinates":[-107.4933,38.4132]},"properties":{"s":23.3,"pub":false}},{"type":"Feature","geometry":{"type":"Point","coordinates":[-107.4933,38.419]},"properties":{"s":23.3,"pub":true}},{"type":"Feature","geometry":{"type":"Point","coordinates":[-107.4933,38.4248]},"properties":{"s":23.3,"pub":true}},{"type":"Feature","geometry":{"type":"Point","coordinates":[-107.4933,38.4306]},"properties":{"s":23.3,"pub":false}},{"type":"Feature","geometry":{"type":"Point","coordinates":[-107.4933,38.4364]},"properties":{"s":23.3,"pub":false}},{"type":"Feature","geometry":{"type":"Point","coordinates":[-107.4858,38.3958]},"properties":{"s":96.7,"pub":false}},{"type":"Feature","geometry":{"type":"Point","coordinates":[-107.4858,38.4016]},"properties":{"s":30.0,"pub":false}},{"type":"Feature","geometry":{"type":"Point","coordinates":[-107.4858,38.4074]},"properties":{"s":23.3,"pub":false}},{"type":"Feature","geometry":{"type":"Point","coordinates":[-107.4858,38.4132]},"properties":{"s":23.3,"pub":false}},{"type":"Feature","geometry":{"type":"Point","coordinates":[-107.4858,38.419]},"properties":{"s":23.3,"pub":true}},{"type":"Feature","geometry":{"type":"Point","coordinates":[-107.4858,38.4248]},"properties":{"s":23.3,"pub":true}},{"type":"Feature","geometry":{"type":"Point","coordinates":[-107.4858,38.4306]},"properties":{"s":23.3,"pub":false}},{"type":"Feature","geometry":{"type":"Point","coordinates":[-107.4858,38.4364]},"properties":{"s":23.3,"pub":false}},{"type":"Feature","geometry":{"type":"Point","coordinates":[-107.4783,38.4016]},"properties":{"s":63.3,"pub":false}},{"type":"Feature","geometry":{"type":"Point","coordinates":[-107.4783,38.4074]},"properties":{"s":23.3,"pub":false}},{"type":"Feature","geometry":{"type":"Point","coordinates":[-107.4783,38.4132]},"properties":{"s":23.3,"pub":false}},{"type":"Feature","geometry":{"type":"Point","coordinates":[-107.4783,38.419]},"properties":{"s":23.3,"pub":false}},{"type":"Feature","geometry":{"type":"Point","coordinates":[-107.4783,38.4248]},"properties":{"s":23.3,"pub":false}},{"type":"Feature","geometry":{"type":"Point","coordinates":[-107.4783,38.4306]},"properties":{"s":23.3,"pub":false}},{"type":"Feature","geometry":{"type":"Point","coordinates":[-107.4783,38.4364]},"properties":{"s":23.3,"pub":false}},{"type":"Feature","geometry":{"type":"Point","coordinates":[-107.4708,38.3958]},"properties":{"s":100.0,"pub":false}},{"type":"Feature","geometry":{"type":"Point","coordinates":[-107.4708,38.4016]},"properties":{"s":90.0,"pub":false}},{"type":"Feature","geometry":{"type":"Point","coordinates":[-107.4708,38.4074]},"properties":{"s":63.3,"pub":false}},{"type":"Feature","geometry":{"type":"Point","coordinates":[-107.4708,38.4132]},"properties":{"s":23.3,"pub":false}},{"type":"Feature","geometry":{"type":"Point","coordinates":[-107.4708,38.419]},"properties":{"s":23.3,"pub":false}},{"type":"Feature","geometry":{"type":"Point","coordinates":[-107.4708,38.4248]},"properties":{"s":23.3,"pub":false}},{"type":"Feature","geometry":{"type":"Point","coordinates":[-107.4708,38.4306]},"properties":{"s":23.3,"pub":false}},{"type":"Feature","geometry":{"type":"Point","coordinates":[-107.4708,38.4364]},"properties":{"s":23.3,"pub":false}},{"type":"Feature","geometry":{"type":"Point","coordinates":[-107.4633,38.4016]},"properties":{"s":90.0,"pub":false}},{"type":"Feature","geometry":{"type":"Point","coordinates":[-107.4633,38.4074]},"properties":{"s":63.3,"pub":false}},{"type":"Feature","geometry":{"type":"Point","coordinates":[-107.4633,38.4132]},"properties":{"s":23.3,"pub":false}},{"type":"Feature","geometry":{"type":"Point","coordinates":[-107.4633,38.419]},"properties":{"s":23.3,"pub":false}},{"type":"Feature","geometry":{"type":"Point","coordinates":[-107.4633,38.4248]},"properties":{"s":23.3,"pub":false}},{"type":"Feature","geometry":{"type":"Point","coordinates":[-107.4633,38.4306]},"properties":{"s":23.3,"pub":false}},{"type":"Feature","geometry":{"type":"Point","coordinates":[-107.4633,38.4364]},"properties":{"s":23.3,"pub":true}},{"type":"Feature","geometry":{"type":"Point","coordinates":[-107.4558,38.3958]},"properties":{"s":93.3,"pub":false}},{"type":"Feature","geometry":{"type":"Point","coordinates":[-107.4558,38.4016]},"properties":{"s":93.3,"pub":false}},{"type":"Feature","geometry":{"type":"Point","coordinates":[-107.4558,38.4074]},"properties":{"s":63.3,"pub":false}},{"type":"Feature","geometry":{"type":"Point","coordinates":[-107.4558,38.4132]},"properties":{"s":23.3,"pub":false}},{"type":"Feature","geometry":{"type":"Point","coordinates":[-107.4558,38.419]},"properties":{"s":23.3,"pub":false}},{"type":"Feature","geometry":{"type":"Point","coordinates":[-107.4558,38.4248]},"properties":{"s":23.3,"pub":false}},{"type":"Feature","geometry":{"type":"Point","coordinates":[-107.4558,38.4306]},"properties":{"s":23.3,"pub":false}},{"type":"Feature","geometry":{"type":"Point","coordinates":[-107.4558,38.4364]},"properties":{"s":23.3,"pub":true}},{"type":"Feature","geometry":{"type":"Point","coordinates":[-107.4483,38.3958]},"properties":{"s":93.3,"pub":false}},{"type":"Feature","geometry":{"type":"Point","coordinates":[-107.4483,38.4016]},"properties":{"s":93.3,"pub":false}},{"type":"Feature","geometry":{"type":"Point","coordinates":[-107.4483,38.4074]},"properties":{"s":90.0,"pub":false}},{"type":"Feature","geometry":{"type":"Point","coordinates":[-107.4483,38.4132]},"properties":{"s":23.3,"pub":false}},{"type":"Feature","geometry":{"type":"Point","coordinates":[-107.4483,38.419]},"properties":{"s":23.3,"pub":false}},{"type":"Feature","geometry":{"type":"Point","coordinates":[-107.4483,38.4248]},"properties":{"s":23.3,"pub":false}},{"type":"Feature","geometry":{"type":"Point","coordinates":[-107.4483,38.4306]},"properties":{"s":23.3,"pub":false}},{"type":"Feature","geometry":{"type":"Point","coordinates":[-107.4483,38.4364]},"properties":{"s":23.3,"pub":true}},{"type":"Feature","geometry":{"type":"Point","coordinates":[-107.4408,38.3958]},"properties":{"s":93.3,"pub":false}},{"type":"Feature","geometry":{"type":"Point","coordinates":[-107.4408,38.4016]},"properties":{"s":93.3,"pub":false}},{"type":"Feature","geometry":{"type":"Point","coordinates":[-107.4408,38.4074]},"properties":{"s":90.0,"pub":false}},{"type":"Feature","geometry":{"type":"Point","coordinates":[-107.4408,38.4132]},"properties":{"s":63.3,"pub":false}},{"type":"Feature","geometry":{"type":"Point","coordinates":[-107.4408,38.419]},"properties":{"s":63.3,"pub":false}},{"type":"Feature","geometry":{"type":"Point","coordinates":[-107.4408,38.4248]},"properties":{"s":63.3,"pub":false}},{"type":"Feature","geometry":{"type":"Point","coordinates":[-107.4408,38.4306]},"properties":{"s":23.3,"pub":false}},{"type":"Feature","geometry":{"type":"Point","coordinates":[-107.4408,38.4364]},"properties":{"s":23.3,"pub":true}},{"type":"Feature","geometry":{"type":"Point","coordinates":[-107.4408,38.4422]},"properties":{"s":23.3,"pub":true}},{"type":"Feature","geometry":{"type":"Point","coordinates":[-107.4333,38.39]},"properties":{"s":93.3,"pub":false}},{"type":"Feature","geometry":{"type":"Point","coordinates":[-107.4333,38.3958]},"properties":{"s":93.3,"pub":false}},{"type":"Feature","geometry":{"type":"Point","coordinates":[-107.4333,38.4016]},"properties":{"s":93.3,"pub":false}},{"type":"Feature","geometry":{"type":"Point","coordinates":[-107.4333,38.4074]},"properties":{"s":90.0,"pub":false}},{"type":"Feature","geometry":{"type":"Point","coordinates":[-107.4333,38.4132]},"properties":{"s":90.0,"pub":false}},{"type":"Feature","geometry":{"type":"Point","coordinates":[-107.4333,38.419]},"properties":{"s":63.3,"pub":false}},{"type":"Feature","geometry":{"type":"Point","coordinates":[-107.4333,38.4248]},"properties":{"s":63.3,"pub":false}},{"type":"Feature","geometry":{"type":"Point","coordinates":[-107.4333,38.4306]},"properties":{"s":23.3,"pub":false}},{"type":"Feature","geometry":{"type":"Point","coordinates":[-107.4333,38.4364]},"properties":{"s":23.3,"pub":false}},{"type":"Feature","geometry":{"type":"Point","coordinates":[-107.4333,38.4422]},"properties":{"s":23.3,"pub":true}},{"type":"Feature","geometry":{"type":"Point","coordinates":[-107.4258,38.39]},"properties":{"s":93.3,"pub":false}},{"type":"Feature","geometry":{"type":"Point","coordinates":[-107.4258,38.3958]},"properties":{"s":93.3,"pub":false}},{"type":"Feature","geometry":{"type":"Point","coordinates":[-107.4258,38.4016]},"properties":{"s":93.3,"pub":false}},{"type":"Feature","geometry":{"type":"Point","coordinates":[-107.4258,38.4074]},"properties":{"s":93.3,"pub":false}},{"type":"Feature","geometry":{"type":"Point","coordinates":[-107.4258,38.4132]},"properties":{"s":90.0,"pub":false}},{"type":"Feature","geometry":{"type":"Point","coordinates":[-107.4258,38.419]},"properties":{"s":90.0,"pub":false}},{"type":"Feature","geometry":{"type":"Point","coordinates":[-107.4258,38.4248]},"properties":{"s":63.3,"pub":false}},{"type":"Feature","geometry":{"type":"Point","coordinates":[-107.4258,38.4306]},"properties":{"s":63.3,"pub":false}},{"type":"Feature","geometry":{"type":"Point","coordinates":[-107.4258,38.4364]},"properties":{"s":23.3,"pub":false}},{"type":"Feature","geometry":{"type":"Point","coordinates":[-107.4258,38.4422]},"properties":{"s":23.3,"pub":true}},{"type":"Feature","geometry":{"type":"Point","coordinates":[-107.4183,38.3958]},"properties":{"s":93.3,"pub":false}},{"type":"Feature","geometry":{"type":"Point","coordinates":[-107.4183,38.4016]},"properties":{"s":93.3,"pub":false}},{"type":"Feature","geometry":{"type":"Point","coordinates":[-107.4183,38.4074]},"properties":{"s":93.3,"pub":false}},{"type":"Feature","geometry":{"type":"Point","coordinates":[-107.4183,38.4132]},"properties":{"s":90.0,"pub":false}},{"type":"Feature","geometry":{"type":"Point","coordinates":[-107.4183,38.419]},"properties":{"s":90.0,"pub":false}},{"type":"Feature","geometry":{"type":"Point","coordinates":[-107.4183,38.4248]},"properties":{"s":90.0,"pub":false}},{"type":"Feature","geometry":{"type":"Point","coordinates":[-107.4183,38.4306]},"properties":{"s":63.3,"pub":false}},{"type":"Feature","geometry":{"type":"Point","coordinates":[-107.4183,38.4364]},"properties":{"s":23.3,"pub":true}},{"type":"Feature","geometry":{"type":"Point","coordinates":[-107.4183,38.4422]},"properties":{"s":23.3,"pub":true}},{"type":"Feature","geometry":{"type":"Point","coordinates":[-107.4108,38.4074]},"properties":{"s":93.3,"pub":false}},{"type":"Feature","geometry":{"type":"Point","coordinates":[-107.4108,38.4132]},"properties":{"s":90.0,"pub":false}},{"type":"Feature","geometry":{"type":"Point","coordinates":[-107.4108,38.419]},"properties":{"s":90.0,"pub":false}},{"type":"Feature","geometry":{"type":"Point","coordinates":[-107.4108,38.4248]},"properties":{"s":90.0,"pub":false}},{"type":"Feature","geometry":{"type":"Point","coordinates":[-107.4108,38.4306]},"properties":{"s":63.3,"pub":true}}]}