{"type":"FeatureCollection","features":[{"type":"Feature","geometry":{"type":"Point","coordinates":[-105.4862,37.5951]},"properties":{"s":62.1,"pub":true}},{"type":"Feature","geometry":{"type":"Point","coordinates":[-105.4862,37.6183]},"properties":{"s":62.1,"pub":true}},{"type":"Feature","geometry":{"type":"Point","coordinates":[-105.4862,37.6299]},"properties":{"s":62.1,"pub":true}},{"type":"Feature","geometry":{"type":"Point","coordinates":[-105.4862,37.6357]},"properties":{"s":62.1,"pub":true}},{"type":"Feature","geometry":{"type":"Point","coordinates":[-105.4862,37.6415]},"properties":{"s":89.7,"pub":true}},{"type":"Feature","geometry":{"type":"Point","coordinates":[-105.4862,37.6473]},"properties":{"s":62.1,"pub":true}},{"type":"Feature","geometry":{"type":"Point","coordinates":[-105.4862,37.6531]},"properties":{"s":62.1,"pub":true}},{"type":"Feature","geometry":{"type":"Point","coordinates":[-105.4787,37.5951]},"properties":{"s":62.1,"pub":true}},{"type":"Feature","geometry":{"type":"Point","coordinates":[-105.4787,37.6009]},"properties":{"s":62.1,"pub":true}},{"type":"Feature","geometry":{"type":"Point","coordinates":[-105.4787,37.6067]},"properties":{"s":62.1,"pub":true}},{"type":"Feature","geometry":{"type":"Point","coordinates":[-105.4787,37.6125]},"properties":{"s":62.1,"pub":true}},{"type":"Feature","geometry":{"type":"Point","coordinates":[-105.4787,37.6183]},"properties":{"s":89.7,"pub":true}},{"type":"Feature","geometry":{"type":"Point","coordinates":[-105.4787,37.6241]},"properties":{"s":89.7,"pub":true}},{"type":"Feature","geometry":{"type":"Point","coordinates":[-105.4787,37.6299]},"properties":{"s":89.7,"pub":true}},{"type":"Feature","geometry":{"type":"Point","coordinates":[-105.4787,37.6357]},"properties":{"s":89.7,"pub":true}},{"type":"Feature","geometry":{"type":"Point","coordinates":[-105.4787,37.6415]},"properties":{"s":89.7,"pub":true}},{"type":"Feature","geometry":{"type":"Point","coordinates":[-105.4787,37.6473]},"properties":{"s":89.7,"pub":true}},{"type":"Feature","geometry":{"type":"Point","coordinates":[-105.4787,37.6531]},"properties":{"s":89.7,"pub":true}},{"type":"Feature","geometry":{"type":"Point","coordinates":[-105.4787,37.6589]},"properties":{"s":89.7,"pub":true}},{"type":"Feature","geometry":{"type":"Point","coordinates":[-105.4787,37.6879]},"properties":{"s":89.7,"pub":true}},{"type":"Feature","geometry":{"type":"Point","coordinates":[-105.4787,37.6937]},"properties":{"s":89.7,"pub":true}},{"type":"Feature","geometry":{"type":"Point","coordinates":[-105.4787,37.6995]},"properties":{"s":89.7,"pub":true}},{"type":"Feature","geometry":{"type":"Point","coordinates":[-105.4712,37.6009]},"properties":{"s":62.1,"pub":true}},{"type":"Feature","geometry":{"type":"Point","coordinates":[-105.4712,37.6067]},"properties":{"s":62.1,"pub":true}},{"type":"Feature","geometry":{"type":"Point","coordinates":[-105.4712,37.6125]},"properties":{"s":89.7,"pub":true}},{"type":"Feature","geometry":{"type":"Point","coordinates":[-105.4712,37.6183]},"properties":{"s":89.7,"pub":true}},{"type":"Feature","geometry":{"type":"Point","coordinates":[-105.4712,37.6241]},"properties":{"s":89.7,"pub":true}},{"type":"Feature","geometry":{"type":"Point","coordinates":[-105.4712,37.6299]},"properties":{"s":89.7,"pub":true}},{"type":"Feature","geometry":{"type":"Point","coordinates":[-105.4712,37.6357]},"properties":{"s":89.7,"pub":true}},{"type":"Feature","geometry":{"type":"Point","coordinates":[-105.4712,37.6415]},"properties":{"s":89.7,"pub":true}},{"type":"Feature","geometry":{"type":"Point","coordinates":[-105.4712,37.6473]},"properties":{"s":89.7,"pub":true}},{"type":"Feature","geometry":{"type":"Point","coordinates":[-105.4712,37.6531]},"properties":{"s":89.7,"pub":false}},{"type":"Feature","geometry":{"type":"Point","coordinates":[-105.4712,37.6589]},"properties":{"s":89.7,"pub":false}},{"type":"Feature","geometry":{"type":"Point","coordinates":[-105.4712,37.6647]},"properties":{"s":89.7,"pub":false}},{"type":"Feature","geometry":{"type":"Point","coordinates":[-105.4712,37.6705]},"properties":{"s":89.7,"pub":true}},{"type":"Feature","geometry":{"type":"Point","coordinates":[-105.4712,37.6763]},"properties":{"s":89.7,"pub":true}},{"type":"Feature","geometry":{"type":"Point","coordinates":[-105.4712,37.6821]},"properties":{"s":89.7,"pub":true}},{"type":"Feature","geometry":{"type":"Point","coordinates":[-105.4712,37.6879]},"properties":{"s":89.7,"pub":true}},{"type":"Feature","geometry":{"type":"Point","coordinates":[-105.4712,37.6937]},"properties":{"s":89.7,"pub":true}},{"type":"Feature","geometry":{"type":"Point","coordinates":[-105.4712,37.6995]},"properties":{"s":89.7,"pub":true}},{"type":"Feature","geometry":{"type":"Point","coordinates":[-105.4712,37.7053]},"properties":{"s":89.7,"pub":true}},{"type":"Feature","geometry":{"type":"Point","coordinates":[-105.4712,37.8851]},"properties":{"s":89.7,"pub":true}},{"type":"Feature","geometry":{"type":"Point","coordinates":[-105.4637,37.6299]},"properties":{"s":62.1,"pub":true}},{"type":"Feature","geometry":{"type":"Point","coordinates":[-105.4637,37.6357]},"properties":{"s":89.7,"pub":true}},{"type":"Feature","geometry":{"type":"Point","coordinates":[-105.4637,37.6415]},"properties":{"s":89.7,"pub":true}},{"type":"Feature","geometry":{"type":"Point","coordinates":[-105.4637,37.6473]},"properties":{"s":89.7,"pub":true}},{"type":"Feature","geometry":{"type":"Point","coordinates":[-105.4637,37.6531]},"properties":{"s":89.7,"pub":false}},{"type":"Feature","geometry":{"type":"Point","coordinates":[-105.4637,37.6589]},"properties":{"s":89.7,"pub":false}},{"type":"Feature","geometry":{"type":"Point","coordinates":[-105.4637,37.6647]},"properties":{"s":89.7,"pub":false}},{"type":"Feature","geometry":{"type":"Point","coordinates":[-105.4637,37.6705]},"properties":{"s":93.1,"pub":true}},{"type":"Feature","geometry":{"type":"Point","coordinates":[-105.4637,37.6763]},"properties":{"s":89.7,"pub":true}},{"type":"Feature","geometry":{"type":"Point","coordinates":[-105.4637,37.6821]},"properties":{"s":93.1,"pub":true}},{"type":"Feature","geometry":{"type":"Point","coordinates":[-105.4637,37.6879]},"properties":{"s":93.1,"pub":true}},{"type":"Feature","geometry":{"type":"Point","coordinates":[-105.4637,37.6937]},"properties":{"s":93.1,"pub":true}},{"type":"Feature","geometry":{"type":"Point","coordinates":[-105.4637,37.6995]},"properties":{"s":93.1,"pub":true}},{"type":"Feature","geometry":{"type":"Point","coordinates":[-105.4637,37.7053]},"properties":{"s":89.7,"pub":true}},{"type":"Feature","geometry":{"type":"Point","coordinates":[-105.4637,37.7111]},"properties":{"s":89.7,"pub":true}},{"type":"Feature","geometry":{"type":"Point","coordinates":[-105.4637,37.8851]},"properties":{"s":89.7,"pub":true}},{"type":"Feature","geometry":{"type":"Point","coordinates":[-105.4637,37.8909]},"properties":{"s":89.7,"pub":true}},{"type":"Feature","geometry":{"type":"Point","coordinates":[-105.4562,37.6299]},"properties":{"s":48.3,"pub":true}},{"type":"Feature","geometry":{"type":"Point","coordinates":[-105.4562,37.6357]},"properties":{"s":89.7,"pub":true}},{"type":"Feature","geometry":{"type":"Point","coordinates":[-105.4562,37.6415]},"properties":{"s":89.7,"pub":true}},{"type":"Feature","geometry":{"type":"Point","coordinates":[-105.4562,37.6473]},"properties":{"s":89.7,"pub":true}},{"type":"Feature","geometry":{"type":"Point","coordinates":[-105.4562,37.6531]},"properties":{"s":89.7,"pub":false}},{"type":"Feature","geometry":{"type":"Point","coordinates":[-105.4562,37.6589]},"properties":{"s":89.7,"pub":false}},{"type":"Feature","geometry":{"type":"Point","coordinates":[-105.4562,37.6647]},"properties":{"s":93.1,"pub":false}},{"type":"Feature","geometry":{"type":"Point","coordinates":[-105.4562,37.6705]},"properties":{"s":93.1,"pub":false}},{"type":"Feature","geometry":{"type":"Point","coordinates":[-105.4562,37.6763]},"properties":{"s":93.1,"pub":true}},{"type":"Feature","geometry":{"type":"Point","coordinates":[-105.4562,37.6821]},"properties":{"s":93.1,"pub":true}},{"type":"Feature","geometry":{"type":"Point","coordinates":[-105.4562,37.6879]},"properties":{"s":93.1,"pub":true}},{"type":"Feature","geometry":{"type":"Point","coordinates":[-105.4562,37.6937]},"properties":{"s":93.1,"pub":true}},{"type":"Feature","geometry":{"type":"Point","coordinates":[-105.4562,37.6995]},"properties":{"s":93.1,"pub":true}},{"type":"Feature","geometry":{"type":"Point","coordinates":[-105.4562,37.7053]},"properties":{"s":93.1,"pub":true}},{"type":"Feature","geometry":{"type":"Point","coordinates":[-105.4562,37.7111]},"properties":{"s":93.1,"pub":false}},{"type":"Feature","geometry":{"type":"Point","coordinates":[-105.4562,37.7169]},"properties":{"s":93.1,"pub":true}},{"type":"Feature","geometry":{"type":"Point","coordinates":[-105.4562,37.8851]},"properties":{"s":89.7,"pub":true}},{"type":"Feature","geometry":{"type":"Point","coordinates":[-105.4562,37.8909]},"properties":{"s":89.7,"pub":true}},{"type":"Feature","geometry":{"type":"Point","coordinates":[-105.4487,37.6299]},"properties":{"s":89.7,"pub":true}},{"type":"Feature","geometry":{"type":"Point","coordinates":[-105.4487,37.6357]},"properties":{"s":89.7,"pub":true}},{"type":"Feature","geometry":{"type":"Point","coordinates":[-105.4487,37.6415]},"properties":{"s":89.7,"pub":true}},{"type":"Feature","geometry":{"type":"Point","coordinates":[-105.4487,37.6473]},"properties":{"s":89.7,"pub":true}},{"type":"Feature","geometry":{"type":"Point","coordinates":[-105.4487,37.6531]},"properties":{"s":89.7,"pub":false}},{"type":"Feature","geometry":{"type":"Point","coordinates":[-105.4487,37.6589]},"properties":{"s":93.1,"pub":false}},{"type":"Feature","geometry":{"type":"Point","coordinates":[-105.4487,37.6647]},"properties":{"s":93.1,"pub":false}},{"type":"Feature","geometry":{"type":"Point","coordinates":[-105.4487,37.6705]},"properties":{"s":93.1,"pub":false}},{"type":"Feature","geometry":{"type":"Point","coordinates":[-105.4487,37.6763]},"properties":{"s":93.1,"pub":false}},{"type":"Feature","geometry":{"type":"Point","coordinates":[-105.4487,37.6821]},"properties":{"s":93.1,"pub":false}},{"type":"Feature","geometry":{"type":"Point","coordinates":[-105.4487,37.6879]},"properties":{"s":93.1,"pub":false}},{"type":"Feature","geometry":{"type":"Point","coordinates":[-105.4487,37.6937]},"properties":{"s":93.1,"pub":true}},{"type":"Feature","geometry":{"type":"Point","coordinates":[-105.4487,37.6995]},"properties":{"s":93.1,"pub":true}},{"type":"Feature","geometry":{"type":"Point","coordinates":[-105.4487,37.7053]},"properties":{"s":51.7,"pub":true}},{"type":"Feature","geometry":{"type":"Point","coordinates":[-105.4487,37.7111]},"properties":{"s":93.1,"pub":false}},{"type":"Feature","geometry":{"type":"Point","coordinates":[-105.4487,37.7169]},"properties":{"s":100.0,"pub":true}},{"type":"Feature","geometry":{"type":"Point","coordinates":[-105.4487,37.7227]},"properties":{"s":93.1,"pub":true}},{"type":"Feature","geometry":{"type":"Point","coordinates":[-105.4487,37.7285]},"properties":{"s":93.1,"pub":true}},{"type":"Feature","geometry":{"type":"Point","coordinates":[-105.4487,37.7343]},"properties":{"s":58.6,"pub":true}},{"type":"Feature","geometry":{"type":"Point","coordinates":[-105.4487,37.7401]},"properties":{"s":24.1,"pub":true}},{"type":"Feature","geometry":{"type":"Point","coordinates":[-105.4487,37.7459]},"properties":{"s":24.1,"pub":true}},{"type":"Feature","geometry":{"type":"Point","coordinates":[-105.4487,37.7517]},"properties":{"s":24.1,"pub":true}},{"type":"Feature","geometry":{"type":"Point","coordinates":[-105.4487,37.7575]},"properties":{"s":24.1,"pub":true}},{"type":"Feature","geometry":{"type":"Point","coordinates":[-105.4487,37.7633]},"properties":{"s":24.1,"pub":true}},{"type":"Feature","geometry":{"type":"Point","coordinates":[-105.4487,37.8793]},"properties":{"s":89.7,"pub":true}},{"type":"Feature","geometry":{"type":"Point","coordinates":[-105.4487,37.8851]},"properties":{"s":89.7,"pub":true}},{"type":"Feature","geometry":{"type":"Point","coordinates":[-105.4487,37.8909]},"properties":{"s":89.7,"pub":true}},{"type":"Feature","geometry":{"type":"Point","coordinates":[-105.4412,37.6241]},"properties":{"s":62.1,"pub":true}},{"type":"Feature","geometry":{"type":"Point","coordinates":[-105.4412,37.6299]},"properties":{"s":89.7,"pub":true}},{"type":"Feature","geometry":{"type":"Point","coordinates":[-105.4412,37.6357]},"properties":{"s":89.7,"pub":true}},{"type":"Feature","geometry":{"type":"Point","coordinates":[-105.4412,37.6415]},"properties":{"s":89.7,"pub":true}},{"type":"Feature","geometry":{"type":"Point","coordinates":[-105.4412,37.6473]},"properties":{"s":89.7,"pub":true}},{"type":"Feature","geometry":{"type":"Point","coordinates":[-105.4412,37.6531]},"properties":{"s":93.1,"pub":false}},{"type":"Feature","geometry":{"type":"Point","coordinates":[-105.4412,37.6589]},"properties":{"s":93.1,"pub":false}},{"type":"Feature","geometry":{"type":"Point","coordinates":[-105.4412,37.6647]},"properties":{"s":93.1,"pub":false}},{"type":"Feature","geometry":{"type":"Point","coordinates":[-105.4412,37.6705]},"properties":{"s":65.5,"pub":false}},{"type":"Feature","geometry":{"type":"Point","coordinates":[-105.4412,37.6763]},"properties":{"s":24.1,"pub":false}},{"type":"Feature","geometry":{"type":"Point","coordinates":[-105.4412,37.6821]},"properties":{"s":24.1,"pub":false}},{"type":"Feature","geometry":{"type":"Point","coordinates":[-105.4412,37.6879]},"properties":{"s":51.7,"pub":false}},{"type":"Feature","geometry":{"type":"Point","coordinates":[-105.4412,37.6937]},"properties":{"s":51.7,"pub":true}},{"type":"Feature","geometry":{"type":"Point","coordinates":[-105.4412,37.6995]},"properties":{"s":51.7,"pub":true}},{"type":"Feature","geometry":{"type":"Point","coordinates":[-105.4412,37.7053]},"properties":{"s":24.1,"pub":true}},{"type":"Feature","geometry":{"type":"Point","coordinates":[-105.4412,37.7459]},"properties":{"s":31.0,"pub":false}},{"type":"Feature","geometry":{"type":"Point","coordinates":[-105.4412,37.7517]},"properties":{"s":31.0,"pub":false}},{"type":"Feature","geometry":{"type":"Point","coordinates":[-105.4412,37.7575]},"properties":{"s":31.0,"pub":false}},{"type":"Feature","geometry":{"type":"Point","coordinates":[-105.4412,37.7633]},"properties":{"s":24.1,"pub":true}},{"type":"Feature","geometry":{"type":"Point","coordinates":[-105.4412,37.7691]},"properties":{"s":24.1,"pub":true}},{"type":"Feature","geometry":{"type":"Point","coordinates":[-105.4412,37.8735]},"properties":{"s":89.7,"pub":true}},{"type":"Feature","geometry":{"type":"Point","coordinates":[-105.4412,37.8793]},"properties":{"s":89.7,"pub":true}},{"type":"Feature","geometry":{"type":"Point","coordinates":[-105.4412,37.8851]},"properties":{"s":89.7,"pub":true}},{"type":"Feature","geometry":{"type":"Point","coordinates":[-105.4412,37.8909]},"properties":{"s":93.1,"pub":true}},{"type":"Feature","geometry":{"type":"Point","coordinates":[-105.4412,37.8967]},"properties":{"s":93.1,"pub":true}},{"type":"Feature","geometry":{"type":"Point","coordinates":[-105.4337,37.6183]},"properties":{"s":62.1,"pub":true}},{"type":"Feature","geometry":{"type":"Point","coordinates":[-105.4337,37.6241]},"properties":{"s":62.1,"pub":true}},{"type":"Feature","geometry":{"type":"Point","coordinates":[-105.4337,37.6299]},"properties":{"s":62.1,"pub":true}},{"type":"Feature","geometry":{"type":"Point","coordinates":[-105.4337,37.6357]},"properties":{"s":89.7,"pub":true}},{"type":"Feature","geometry":{"type":"Point","coordinates":[-105.4337,37.6415]},"properties":{"s":89.7,"pub":true}},{"type":"Feature","geometry":{"type":"Point","coordinates":[-105.4337,37.6473]},"properties":{"s":89.7,"pub":true}},{"type":"Feature","geometry":{"type":"Point","coordinates":[-105.4337,37.6531]},"properties":{"s":93.1,"pub":false}},{"type":"Feature","geometry":{"type":"Point","coordinates":[-105.4337,37.6589]},"properties":{"s":93.1,"pub":false}},{"type":"Feature","geometry":{"type":"Point","coordinates":[-105.4337,37.6647]},"properties":{"s":93.1,"pub":false}},{"type":"Feature","geometry":{"type":"Point","coordinates":[-105.4337,37.6705]},"properties":{"s":24.1,"pub":false}},{"type":"Feature","geometry":{"type":"Point","coordinates":[-105.4337,37.6763]},"properties":{"s":24.1,"pub":false}},{"type":"Feature","geometry":{"type":"Point","coordinates":[-105.4337,37.6821]},"properties":{"s":24.1,"pub":false}},{"type":"Feature","geometry":{"type":"Point","coordinates":[-105.4337,37.6879]},"properties":{"s":24.1,"pub":false}},{"type":"Feature","geometry":{"type":"Point","coordinates":[-105.4337,37.6937]},"properties":{"s":24.1,"pub":false}},{"type":"Feature","geometry":{"type":"Point","coordinates":[-105.4337,37.6995]},"properties":{"s":24.1,"pub":false}},{"type":"Feature","geometry":{"type":"Point","coordinates":[-105.4337,37.7517]},"properties":{"s":31.0,"pub":false}},{"type":"Feature","geometry":{"type":"Point","coordinates":[-105.4337,37.7575]},"properties":{"s":31.0,"pub":false}},{"type":"Feature","geometry":{"type":"Point","coordinates":[-105.4337,37.7633]},"properties":{"s":31.0,"pub":true}},{"type":"Feature","geometry":{"type":"Point","coordinates":[-105.4337,37.7691]},"properties":{"s":93.1,"pub":true}},{"type":"Feature","geometry":{"type":"Point","coordinates":[-105.4337,37.7749]},"properties":{"s":93.1,"pub":true}},{"type":"Feature","geometry":{"type":"Point","coordinates":[-105.4337,37.7807]},"properties":{"s":93.1,"pub":true}},{"type":"Feature","geometry":{"type":"Point","coordinates":[-105.4337,37.7865]},"properties":{"s":89.7,"pub":true}},{"type":"Feature","geometry":{"type":"Point","coordinates":[-105.4337,37.7923]},"properties":{"s":89.7,"pub":true}},{"type":"Feature","geometry":{"type":"Point","coordinates":[-105.4337,37.7981]},"properties":{"s":89.7,"pub":true}},{"type":"Feature","geometry":{"type":"Point","coordinates":[-105.4337,37.8619]},"properties":{"s":89.7,"pub":true}},{"type":"Feature","geometry":{"type":"Point","coordinates":[-105.4337,37.8677]},"properties":{"s":89.7,"pub":true}},{"type":"Feature","geometry":{"type":"Point","coordinates":[-105.4337,37.8735]},"properties":{"s":89.7,"pub":true}},{"type":"Feature","geometry":{"type":"Point","coordinates":[-105.4337,37.8793]},"properties":{"s":89.7,"pub":true}},{"type":"Feature","geometry":{"type":"Point","coordinates":[-105.4337,37.8851]},"properties":{"s":93.1,"pub":true}},{"type":"Feature","geometry":{"type":"Point","coordinates":[-105.4337,37.8909]},"properties":{"s":93.1,"pub":true}},{"type":"Feature","geometry":{"type":"Point","coordinates":[-105.4262,37.6183]},"properties":{"s":62.1,"pub":false}},{"type":"Feature","geometry":{"type":"Point","coordinates":[-105.4262,37.6241]},"properties":{"s":62.1,"pub":false}},{"type":"Feature","geometry":{"type":"Point","coordinates":[-105.4262,37.6299]},"properties":{"s":89.7,"pub":true}},{"type":"Feature","geometry":{"type":"Point","coordinates":[-105.4262,37.6357]},"properties":{"s":89.7,"pub":true}},{"type":"Feature","geometry":{"type":"Point","coordinates":[-105.4262,37.6415]},"properties":{"s":89.7,"pub":true}},{"type":"Feature","geometry":{"type":"Point","coordinates":[-105.4262,37.6473]},"properties":{"s":89.7,"pub":true}},{"type":"Feature","geometry":{"type":"Point","coordinates":[-105.4262,37.6531]},"properties":{"s":93.1,"pub":false}},{"type":"Feature","geometry":{"type":"Point","coordinates":[-105.4262,37.6589]},"properties":{"s":93.1,"pub":false}},{"type":"Feature","geometry":{"type":"Point","coordinates":[-105.4262,37.6647]},"properties":{"s":93.1,"pub":false}},{"type":"Feature","geometry":{"type":"Point","coordinates":[-105.4262,37.6705]},"properties":{"s":24.1,"pub":false}},{"type":"Feature","geometry":{"type":"Point","coordinates":[-105.4262,37.6763]},"properties":{"s":24.1,"pub":false}},{"type":"Feature","geometry":{"type":"Point","coordinates":[-105.4262,37.7575]},"properties":{"s":31.0,"pub":false}},{"type":"Feature","geometry":{"type":"Point","coordinates":[-105.4262,37.7633]},"properties":{"s":31.0,"pub":false}},{"type":"Feature","geometry":{"type":"Point","coordinates":[-105.4262,37.7691]},"properties":{"s":31.0,"pub":true}},{"type":"Feature","geometry":{"type":"Point","coordinates":[-105.4262,37.7749]},"properties":{"s":93.1,"pub":true}},{"type":"Feature","geometry":{"type":"Point","coordinates":[-105.4262,37.7807]},"properties":{"s":93.1,"pub":true}},{"type":"Feature","geometry":{"type":"Point","coordinates":[-105.4262,37.7865]},"properties":{"s":93.1,"pub":true}},{"type":"Feature","geometry":{"type":"Point","coordinates":[-105.4262,37.7923]},"properties":{"s":93.1,"pub":true}},{"type":"Feature","geometry":{"type":"Point","coordinates":[-105.4262,37.7981]},"properties":{"s":93.1,"pub":true}},{"type":"Feature","geometry":{"type":"Point","coordinates":[-105.4262,37.8039]},"properties":{"s":93.1,"pub":true}},{"type":"Feature","geometry":{"type":"Point","coordinates":[-105.4262,37.8097]},"properties":{"s":89.7,"pub":true}},{"type":"Feature","geometry":{"type":"Point","coordinates":[-105.4262,37.8155]},"properties":{"s":89.7,"pub":true}},{"type":"Feature","geometry":{"type":"Point","coordinates":[-105.4262,37.8213]},"properties":{"s":89.7,"pub":true}},{"type":"Feature","geometry":{"type":"Point","coordinates":[-105.4262,37.8271]},"properties":{"s":89.7,"pub":true}},{"type":"Feature","geometry":{"type":"Point","coordinates":[-105.4262,37.8329]},"properties":{"s":89.7,"pub":true}},{"type":"Feature","geometry":{"type":"Point","coordinates":[-105.4262,37.8387]},"properties":{"s":89.7,"pub":true}},{"type":"Feature","geometry":{"type":"Point","coordinates":[-105.4262,37.8445]},"properties":{"s":89.7,"pub":true}},{"type":"Feature","geometry":{"type":"Point","coordinates":[-105.4262,37.8503]},"properties":{"s":89.7,"pub":true}},{"type":"Feature","geometry":{"type":"Point","coordinates":[-105.4262,37.8561]},"properties":{"s":89.7,"pub":true}},{"type":"Feature","geometry":{"type":"Point","coordinates":[-105.4262,37.8619]},"properties":{"s":89.7,"pub":true}},{"type":"Feature","geometry":{"type":"Point","coordinates":[-105.4262,37.8677]},"properties":{"s":89.7,"pub":true}},{"type":"Feature","geometry":{"type":"Point","coordinates":[-105.4262,37.8735]},"properties":{"s":89.7,"pub":true}},{"type":"Feature","geometry":{"type":"Point","coordinates":[-105.4262,37.8793]},"properties":{"s":89.7,"pub":true}},{"type":"Feature","geometry":{"type":"Point","coordinates":[-105.4262,37.8851]},"properties":{"s":93.1,"pub":true}},{"type":"Feature","geometry":{"type":"Point","coordinates":[-105.4262,37.8909]},"properties":{"s":93.1,"pub":true}},{"type":"Feature","geometry":{"type":"Point","coordinates":[-105.4187,37.6183]},"properties":{"s":62.1,"pub":false}},{"type":"Feature","geometry":{"type":"Point","coordinates":[-105.4187,37.6241]},"properties":{"s":89.7,"pub":false}},{"type":"Feature","geometry":{"type":"Point","coordinates":[-105.4187,37.6299]},"properties":{"s":89.7,"pub":true}},{"type":"Feature","geometry":{"type":"Point","coordinates":[-105.4187,37.6357]},"properties":{"s":89.7,"pub":true}},{"type":"Feature","geometry":{"type":"Point","coordinates":[-105.4187,37.6415]},"properties":{"s":89.7,"pub":true}},{"type":"Feature","geometry":{"type":"Point","coordinates":[-105.4187,37.6473]},"properties":{"s":89.7,"pub":true}},{"type":"Feature","geometry":{"type":"Point","coordinates":[-105.4187,37.6531]},"properties":{"s":89.7,"pub":false}},{"type":"Feature","geometry":{"type":"Point","coordinates":[-105.4187,37.6589]},"properties":{"s":93.1,"pub":false}},{"type":"Feature","geometry":{"type":"Point","coordinates":[-105.4187,37.6647]},"properties":{"s":93.1,"pub":false}},{"type":"Feature","geometry":{"type":"Point","coordinates":[-105.4187,37.6705]},"properties":{"s":24.1,"pub":false}},{"type":"Feature","geometry":{"type":"Point","coordinates":[-105.4187,37.7749]},"properties":{"s":31.0,"pub":true}},{"type":"Feature","geometry":{"type":"Point","coordinates":[-105.4187,37.7807]},"properties":{"s":31.0,"pub":true}},{"type":"Feature","geometry":{"type":"Point","coordinates":[-105.4187,37.7865]},"properties":{"s":24.1,"pub":true}},{"type":"Feature","geometry":{"type":"Point","coordinates":[-105.4187,37.7923]},"properties":{"s":24.1,"pub":true}},{"type":"Feature","geometry":{"type":"Point","coordinates":[-105.4187,37.7981]},"properties":{"s":24.1,"pub":true}},{"type":"Feature","geometry":{"type":"Point","coordinates":[-105.4187,37.8097]},"properties":{"s":93.1,"pub":true}},{"type":"Feature","geometry":{"type":"Point","coordinates":[-105.4187,37.8155]},"properties":{"s":93.1,"pub":true}},{"type":"Feature","geometry":{"type":"Point","coordinates":[-105.4187,37.8213]},"properties":{"s":93.1,"pub":true}},{"type":"Feature","geometry":{"type":"Point","coordinates":[-105.4187,37.8271]},"properties":{"s":89.7,"pub":true}},{"type":"Feature","geometry":{"type":"Point","coordinates":[-105.4187,37.8329]},"properties":{"s":89.7,"pub":true}},{"type":"Feature","geometry":{"type":"Point","coordinates":[-105.4187,37.8387]},"properties":{"s":89.7,"pub":true}},{"type":"Feature","geometry":{"type":"Point","coordinates":[-105.4187,37.8445]},"properties":{"s":89.7,"pub":true}},{"type":"Feature","geometry":{"type":"Point","coordinates":[-105.4187,37.8503]},"properties":{"s":89.7,"pub":true}},{"type":"Feature","geometry":{"type":"Point","coordinates":[-105.4187,37.8561]},"properties":{"s":89.7,"pub":true}},{"type":"Feature","geometry":{"type":"Point","coordinates":[-105.4187,37.8619]},"properties":{"s":89.7,"pub":true}},{"type":"Feature","geometry":{"type":"Point","coordinates":[-105.4187,37.8677]},"properties":{"s":89.7,"pub":true}},{"type":"Feature","geometry":{"type":"Point","coordinates":[-105.4187,37.8735]},"properties":{"s":89.7,"pub":true}},{"type":"Feature","geometry":{"type":"Point","coordinates":[-105.4187,37.8793]},"properties":{"s":93.1,"pub":true}},{"type":"Feature","geometry":{"type":"Point","coordinates":[-105.4187,37.8851]},"properties":{"s":93.1,"pub":true}},{"type":"Feature","geometry":{"type":"Point","coordinates":[-105.4112,37.6183]},"properties":{"s":62.1,"pub":false}},{"type":"Feature","geometry":{"type":"Point","coordinates":[-105.4112,37.6241]},"properties":{"s":89.7,"pub":false}},{"type":"Feature","geometry":{"type":"Point","coordinates":[-105.4112,37.6299]},"properties":{"s":89.7,"pub":true}},{"type":"Feature","geometry":{"type":"Point","coordinates":[-105.4112,37.6357]},"properties":{"s":89.7,"pub":true}},{"type":"Feature","geometry":{"type":"Point","coordinates":[-105.4112,37.6415]},"properties":{"s":89.7,"pub":true}},{"type":"Feature","geometry":{"type":"Point","coordinates":[-105.4112,37.6473]},"properties":{"s":89.7,"pub":true}},{"type":"Feature","geometry":{"type":"Point","coordinates":[-105.4112,37.6531]},"properties":{"s":89.7,"pub":false}},{"type":"Feature","geometry":{"type":"Point","coordinates":[-105.4112,37.6589]},"properties":{"s":89.7,"pub":false}},{"type":"Feature","geometry":{"type":"Point","coordinates":[-105.4112,37.6647]},"properties":{"s":89.7,"pub":false}},{"type":"Feature","geometry":{"type":"Point","coordinates":[-105.4112,37.8097]},"properties":{"s":24.1,"pub":false}},{"type":"Feature","geometry":{"type":"Point","coordinates":[-105.4112,37.8155]},"properties":{"s":93.1,"pub":false}},{"type":"Feature","geometry":{"type":"Point","coordinates":[-105.4112,37.8213]},"properties":{"s":93.1,"pub":false}},{"type":"Feature","geometry":{"type":"Point","coordinates":[-105.4112,37.8271]},"properties":{"s":93.1,"pub":true}},{"type":"Feature","geometry":{"type":"Point","coordinates":[-105.4112,37.8329]},"properties":{"s":89.7,"pub":true}},{"type":"Feature","geometry":{"type":"Point","coordinates":[-105.4112,37.8387]},"properties":{"s":89.7,"pub":true}},{"type":"Feature","geometry":{"type":"Point","coordinates":[-105.4112,37.8445]},"properties":{"s":89.7,"pub":true}},{"type":"Feature","geometry":{"type":"Point","coordinates":[-105.4112,37.8503]},"properties":{"s":89.7,"pub":true}},{"type":"Feature","geometry":{"type":"Point","coordinates":[-105.4112,37.8561]},"properties":{"s":89.7,"pub":true}},{"type":"Feature","geometry":{"type":"Point","coordinates":[-105.4112,37.8619]},"properties":{"s":89.7,"pub":true}},{"type":"Feature","geometry":{"type":"Point","coordinates":[-105.4112,37.8677]},"properties":{"s":89.7,"pub":true}},{"type":"Feature","geometry":{"type":"Point","coordinates":[-105.4112,37.8735]},"properties":{"s":89.7,"pub":true}},{"type":"Feature","geometry":{"type":"Point","coordinates":[-105.4112,37.8793]},"properties":{"s":93.1,"pub":true}},{"type":"Feature","geometry":{"type":"Point","coordinates":[-105.4112,37.8851]},"properties":{"s":93.1,"pub":true}},{"type":"Feature","geometry":{"type":"Point","coordinates":[-105.4112,37.8909]},"properties":{"s":93.1,"pub":true}},{"type":"Feature","geometry":{"type":"Point","coordinates":[-105.4037,37.6183]},"properties":{"s":62.1,"pub":false}},{"type":"Feature","geometry":{"type":"Point","coordinates":[-105.4037,37.6241]},"properties":{"s":89.7,"pub":false}},{"type":"Feature","geometry":{"type":"Point","coordinates":[-105.4037,37.6299]},"properties":{"s":89.7,"pub":true}},{"type":"Feature","geometry":{"type":"Point","coordinates":[-105.4037,37.6357]},"properties":{"s":89.7,"pub":true}},{"type":"Feature","geometry":{"type":"Point","coordinates":[-105.4037,37.6415]},"properties":{"s":89.7,"pub":true}},{"type":"Feature","geometry":{"type":"Point","coordinates":[-105.4037,37.6473]},"properties":{"s":89.7,"pub":true}},{"type":"Feature","geometry":{"type":"Point","coordinates":[-105.4037,37.6531]},"properties":{"s":89.7,"pub":true}},{"type":"Feature","geometry":{"type":"Point","coordinates":[-105.4037,37.6589]},"properties":{"s":89.7,"pub":true}},{"type":"Feature","geometry":{"type":"Point","coordinates":[-105.4037,37.6647]},"properties":{"s":89.7,"pub":true}},{"type":"Feature","geometry":{"type":"Point","coordinates":[-105.4037,37.6705]},"properties":{"s":89.7,"pub":true}},{"type":"Feature","geometry":{"type":"Point","coordinates":[-105.4037,37.8097]},"properties":{"s":93.1,"pub":false}},{"type":"Feature","geometry":{"type":"Point","coordinates":[-105.4037,37.8155]},"properties":{"s":93.1,"pub":false}},{"type":"Feature","geometry":{"type":"Point","coordinates":[-105.4037,37.8213]},"properties":{"s":93.1,"pub":false}},{"type":"Feature","geometry":{"type":"Point","coordinates":[-105.4037,37.8271]},"properties":{"s":93.1,"pub":true}},{"type":"Feature","geometry":{"type":"Point","coordinates":[-105.4037,37.8329]},"properties":{"s":93.1,"pub":true}},{"type":"Feature","geometry":{"type":"Point","coordinates":[-105.4037,37.8387]},"properties":{"s":93.1,"pub":true}},{"type":"Feature","geometry":{"type":"Point","coordinates":[-105.4037,37.8445]},"properties":{"s":93.1,"pub":false}},{"type":"Feature","geometry":{"type":"Point","coordinates":[-105.4037,37.8503]},"properties":{"s":93.1,"pub":true}},{"type":"Feature","geometry":{"type":"Point","coordinates":[-105.4037,37.8561]},"properties":{"s":93.1,"pub":true}},{"type":"Feature","geometry":{"type":"Point","coordinates":[-105.4037,37.8619]},"properties":{"s":93.1,"pub":true}},{"type":"Feature","geometry":{"type":"Point","coordinates":[-105.4037,37.8677]},"properties":{"s":93.1,"pub":true}},{"type":"Feature","geometry":{"type":"Point","coordinates":[-105.4037,37.8735]},"properties":{"s":93.1,"pub":true}},{"type":"Feature","geometry":{"type":"Point","coordinates":[-105.4037,37.8793]},"properties":{"s":93.1,"pub":true}},{"type":"Feature","geometry":{"type":"Point","coordinates":[-105.4037,37.8851]},"properties":{"s":93.1,"pub":true}},{"type":"Feature","geometry":{"type":"Point","coordinates":[-105.4037,37.8909]},"properties":{"s":24.1,"pub":false}},{"type":"Feature","geometry":{"type":"Point","coordinates":[-105.3962,37.6183]},"properties":{"s":62.1,"pub":false}},{"type":"Feature","geometry":{"type":"Point","coordinates":[-105.3962,37.6241]},"properties":{"s":62.1,"pub":false}},{"type":"Feature","geometry":{"type":"Point","coordinates":[-105.3962,37.6299]},"properties":{"s":89.7,"pub":true}},{"type":"Feature","geometry":{"type":"Point","coordinates":[-105.3962,37.6357]},"properties":{"s":89.7,"pub":true}},{"type":"Feature","geometry":{"type":"Point","coordinates":[-105.3962,37.6415]},"properties":{"s":89.7,"pub":true}},{"type":"Feature","geometry":{"type":"Point","coordinates":[-105.3962,37.6473]},"properties":{"s":89.7,"pub":true}},{"type":"Feature","geometry":{"type":"Point","coordinates":[-105.3962,37.6531]},"properties":{"s":89.7,"pub":true}},{"type":"Feature","geometry":{"type":"Point","coordinates":[-105.3962,37.6589]},"properties":{"s":89.7,"pub":true}},{"type":"Feature","geometry":{"type":"Point","coordinates":[-105.3962,37.6647]},"properties":{"s":89.7,"pub":true}},{"type":"Feature","geometry":{"type":"Point","coordinates":[-105.3962,37.6705]},"properties":{"s":89.7,"pub":true}},{"type":"Feature","geometry":{"type":"Point","coordinates":[-105.3962,37.6763]},"properties":{"s":62.1,"pub":true}},{"type":"Feature","geometry":{"type":"Point","coordinates":[-105.3962,37.6821]},"properties":{"s":24.1,"pub":true}},{"type":"Feature","geometry":{"type":"Point","coordinates":[-105.3962,37.8039]},"properties":{"s":24.1,"pub":false}},{"type":"Feature","geometry":{"type":"Point","coordinates":[-105.3962,37.8097]},"properties":{"s":93.1,"pub":false}},{"type":"Feature","geometry":{"type":"Point","coordinates":[-105.3962,37.8155]},"properties":{"s":93.1,"pub":false}},{"type":"Feature","geometry":{"type":"Point","coordinates":[-105.3962,37.8213]},"properties":{"s":93.1,"pub":false}},{"type":"Feature","geometry":{"type":"Point","coordinates":[-105.3962,37.8271]},"properties":{"s":93.1,"pub":false}},{"type":"Feature","geometry":{"type":"Point","coordinates":[-105.3962,37.8329]},"properties":{"s":93.1,"pub":false}},{"type":"Feature","geometry":{"type":"Point","coordinates":[-105.3962,37.8387]},"properties":{"s":93.1,"pub":false}},{"type":"Feature","geometry":{"type":"Point","coordinates":[-105.3962,37.8445]},"properties":{"s":93.1,"pub":false}},{"type":"Feature","geometry":{"type":"Point","coordinates":[-105.3962,37.8503]},"properties":{"s":93.1,"pub":false}},{"type":"Feature","geometry":{"type":"Point","coordinates":[-105.3962,37.8561]},"properties":{"s":93.1,"pub":false}},{"type":"Feature","geometry":{"type":"Point","coordinates":[-105.3962,37.8619]},"properties":{"s":93.1,"pub":false}},{"type":"Feature","geometry":{"type":"Point","coordinates":[-105.3962,37.8677]},"properties":{"s":93.1,"pub":false}},{"type":"Feature","geometry":{"type":"Point","coordinates":[-105.3962,37.8735]},"properties":{"s":93.1,"pub":false}},{"type":"Feature","geometry":{"type":"Point","coordinates":[-105.3962,37.8793]},"properties":{"s":93.1,"pub":false}},{"type":"Feature","geometry":{"type":"Point","coordinates":[-105.3962,37.8851]},"properties":{"s":93.1,"pub":false}},{"type":"Feature","geometry":{"type":"Point","coordinates":[-105.3962,37.8909]},"properties":{"s":24.1,"pub":false}},{"type":"Feature","geometry":{"type":"Point","coordinates":[-105.3962,37.8967]},"properties":{"s":24.1,"pub":false}},{"type":"Feature","geometry":{"type":"Point","coordinates":[-105.3887,37.6241]},"properties":{"s":62.1,"pub":false}},{"type":"Feature","geometry":{"type":"Point","coordinates":[-105.3887,37.6299]},"properties":{"s":62.1,"pub":true}},{"type":"Feature","geometry":{"type":"Point","coordinates":[-105.3887,37.6357]},"properties":{"s":62.1,"pub":true}},{"type":"Feature","geometry":{"type":"Point","coordinates":[-105.3887,37.6415]},"properties":{"s":89.7,"pub":true}},{"type":"Feature","geometry":{"type":"Point","coordinates":[-105.3887,37.6473]},"properties":{"s":89.7,"pub":true}},{"type":"Feature","geometry":{"type":"Point","coordinates":[-105.3887,37.6531]},"properties":{"s":89.7,"pub":true}},{"type":"Feature","geometry":{"type":"Point","coordinates":[-105.3887,37.6589]},"properties":{"s":89.7,"pub":true}},{"type":"Feature","geometry":{"type":"Point","coordinates":[-105.3887,37.6647]},"properties":{"s":89.7,"pub":true}},{"type":"Feature","geometry":{"type":"Point","coordinates":[-105.3887,37.6705]},"properties":{"s":89.7,"pub":true}},{"type":"Feature","geometry":{"type":"Point","coordinates":[-105.3887,37.6763]},"properties":{"s":65.5,"pub":true}},{"type":"Feature","geometry":{"type":"Point","coordinates":[-105.3887,37.6821]},"properties":{"s":31.0,"pub":true}},{"type":"Feature","geometry":{"type":"Point","coordinates":[-105.3887,37.6879]},"properties":{"s":31.0,"pub":true}},{"type":"Feature","geometry":{"type":"Point","coordinates":[-105.3887,37.8039]},"properties":{"s":24.1,"pub":false}},{"type":"Feature","geometry":{"type":"Point","coordinates":[-105.3887,37.8097]},"properties":{"s":93.1,"pub":false}},{"type":"Feature","geometry":{"type":"Point","coordinates":[-105.3887,37.8155]},"properties":{"s":93.1,"pub":false}},{"type":"Feature","geometry":{"type":"Point","coordinates":[-105.3887,37.8213]},"properties":{"s":93.1,"pub":false}},{"type":"Feature","geometry":{"type":"Point","coordinates":[-105.3887,37.8271]},"properties":{"s":93.1,"pub":false}},{"type":"Feature","geometry":{"type":"Point","coordinates":[-105.3887,37.8329]},"properties":{"s":93.1,"pub":false}},{"type":"Feature","geometry":{"type":"Point","coordinates":[-105.3887,37.8387]},"properties":{"s":93.1,"pub":false}},{"type":"Feature","geometry":{"type":"Point","coordinates":[-105.3887,37.8445]},"properties":{"s":93.1,"pub":false}},{"type":"Feature","geometry":{"type":"Point","coordinates":[-105.3887,37.8503]},"properties":{"s":93.1,"pub":false}},{"type":"Feature","geometry":{"type":"Point","coordinates":[-105.3887,37.8561]},"properties":{"s":93.1,"pub":false}},{"type":"Feature","geometry":{"type":"Point","coordinates":[-105.3887,37.8619]},"properties":{"s":93.1,"pub":false}},{"type":"Feature","geometry":{"type":"Point","coordinates":[-105.3887,37.8677]},"properties":{"s":93.1,"pub":false}},{"type":"Feature","geometry":{"type":"Point","coordinates":[-105.3887,37.8735]},"properties":{"s":93.1,"pub":false}},{"type":"Feature","geometry":{"type":"Point","coordinates":[-105.3887,37.8793]},"properties":{"s":93.1,"pub":false}},{"type":"Feature","geometry":{"type":"Point","coordinates":[-105.3887,37.8851]},"properties":{"s":93.1,"pub":false}},{"type":"Feature","geometry":{"type":"Point","coordinates":[-105.3887,37.8909]},"properties":{"s":24.1,"pub":false}},{"type":"Feature","geometry":{"type":"Point","coordinates":[-105.3887,37.8967]},"properties":{"s":24.1,"pub":false}},{"type":"Feature","geometry":{"type":"Point","coordinates":[-105.3887,37.9025]},"properties":{"s":24.1,"pub":false}},{"type":"Feature","geometry":{"type":"Point","coordinates":[-105.3812,37.6299]},"properties":{"s":62.1,"pub":true}},{"type":"Feature","geometry":{"type":"Point","coordinates":[-105.3812,37.6357]},"properties":{"s":62.1,"pub":true}},{"type":"Feature","geometry":{"type":"Point","coordinates":[-105.3812,37.6415]},"properties":{"s":89.7,"pub":true}},{"type":"Feature","geometry":{"type":"Point","coordinates":[-105.3812,37.6473]},"properties":{"s":89.7,"pub":true}},{"type":"Feature","geometry":{"type":"Point","coordinates":[-105.3812,37.6531]},"properties":{"s":89.7,"pub":true}},{"type":"Feature","geometry":{"type":"Point","coordinates":[-105.3812,37.6589]},"properties":{"s":89.7,"pub":true}},{"type":"Feature","geometry":{"type":"Point","coordinates":[-105.3812,37.6647]},"properties":{"s":89.7,"pub":true}},{"type":"Feature","geometry":{"type":"Point","coordinates":[-105.3812,37.6705]},"properties":{"s":93.1,"pub":true}},{"type":"Feature","geometry":{"type":"Point","coordinates":[-105.3812,37.6763]},"properties":{"s":65.5,"pub":true}},{"type":"Feature","geometry":{"type":"Point","coordinates":[-105.3812,37.6821]},"properties":{"s":31.0,"pub":true}},{"type":"Feature","geometry":{"type":"Point","coordinates":[-105.3812,37.6879]},"properties":{"s":31.0,"pub":true}},{"type":"Feature","geometry":{"type":"Point","coordinates":[-105.3812,37.8039]},"properties":{"s":100.0,"pub":false}},{"type":"Feature","geometry":{"type":"Point","coordinates":[-105.3812,37.8097]},"properties":{"s":93.1,"pub":false}},{"type":"Feature","geometry":{"type":"Point","coordinates":[-105.3812,37.8155]},"properties":{"s":93.1,"pub":false}},{"type":"Feature","geometry":{"type":"Point","coordinates":[-105.3812,37.8213]},"properties":{"s":93.1,"pub":false}},{"type":"Feature","geometry":{"type":"Point","coordinates":[-105.3812,37.8271]},"properties":{"s":93.1,"pub":false}},{"type":"Feature","geometry":{"type":"Point","coordinates":[-105.3812,37.8329]},"properties":{"s":93.1,"pub":false}},{"type":"Feature","geometry":{"type":"Point","coordinates":[-105.3812,37.8387]},"properties":{"s":93.1,"pub":false}},{"type":"Feature","geometry":{"type":"Point","coordinates":[-105.3812,37.8445]},"properties":{"s":93.1,"pub":false}},{"type":"Feature","geometry":{"type":"Point","coordinates":[-105.3812,37.8503]},"properties":{"s":93.1,"pub":false}},{"type":"Feature","geometry":{"type":"Point","coordinates":[-105.3812,37.8561]},"properties":{"s":93.1,"pub":false}},{"type":"Feature","geometry":{"type":"Point","coordinates":[-105.3812,37.8619]},"properties":{"s":93.1,"pub":false}},{"type":"Feature","geometry":{"type":"Point","coordinates":[-105.3812,37.8677]},"properties":{"s":93.1,"pub":false}},{"type":"Feature","geometry":{"type":"Point","coordinates":[-105.3812,37.8735]},"properties":{"s":93.1,"pub":false}},{"type":"Feature","geometry":{"type":"Point","coordinates":[-105.3812,37.8793]},"properties":{"s":93.1,"pub":false}},{"type":"Feature","geometry":{"type":"Point","coordinates":[-105.3812,37.8851]},"properties":{"s":93.1,"pub":false}},{"type":"Feature","geometry":{"type":"Point","coordinates":[-105.3812,37.8909]},"properties":{"s":24.1,"pub":false}},{"type":"Feature","geometry":{"type":"Point","coordinates":[-105.3812,37.8967]},"properties":{"s":24.1,"pub":false}},{"type":"Feature","geometry":{"type":"Point","coordinates":[-105.3812,37.9025]},"properties":{"s":24.1,"pub":false}},{"type":"Feature","geometry":{"type":"Point","coordinates":[-105.3812,37.9083]},"properties":{"s":24.1,"pub":false}},{"type":"Feature","geometry":{"type":"Point","coordinates":[-105.3737,37.6415]},"properties":{"s":62.1,"pub":true}},{"type":"Feature","geometry":{"type":"Point","coordinates":[-105.3737,37.6473]},"properties":{"s":62.1,"pub":true}},{"type":"Feature","geometry":{"type":"Point","coordinates":[-105.3737,37.6531]},"properties":{"s":89.7,"pub":true}},{"type":"Feature","geometry":{"type":"Point","coordinates":[-105.3737,37.6589]},"properties":{"s":89.7,"pub":true}},{"type":"Feature","geometry":{"type":"Point","coordinates":[-105.3737,37.6647]},"properties":{"s":89.7,"pub":true}},{"type":"Feature","geometry":{"type":"Point","coordinates":[-105.3737,37.6705]},"properties":{"s":65.5,"pub":true}},{"type":"Feature","geometry":{"type":"Point","coordinates":[-105.3737,37.6763]},"properties":{"s":24.1,"pub":true}},{"type":"Feature","geometry":{"type":"Point","coordinates":[-105.3737,37.6821]},"properties":{"s":31.0,"pub":true}},{"type":"Feature","geometry":{"type":"Point","coordinates":[-105.3737,37.6879]},"properties":{"s":31.0,"pub":true}},{"type":"Feature","geometry":{"type":"Point","coordinates":[-105.3737,37.6937]},"properties":{"s":31.0,"pub":true}},{"type":"Feature","geometry":{"type":"Point","coordinates":[-105.3737,37.7981]},"properties":{"s":31.0,"pub":false}},{"type":"Feature","geometry":{"type":"Point","coordinates":[-105.3737,37.8039]},"properties":{"s":100.0,"pub":false}},{"type":"Feature","geometry":{"type":"Point","coordinates":[-105.3737,37.8097]},"properties":{"s":100.0,"pub":false}},{"type":"Feature","geometry":{"type":"Point","coordinates":[-105.3737,37.8155]},"properties":{"s":93.1,"pub":false}},{"type":"Feature","geometry":{"type":"Point","coordinates":[-105.3737,37.8213]},"properties":{"s":93.1,"pub":false}},{"type":"Feature","geometry":{"type":"Point","coordinates":[-105.3737,37.8271]},"properties":{"s":93.1,"pub":false}},{"type":"Feature","geometry":{"type":"Point","coordinates":[-105.3737,37.8329]},"properties":{"s":93.1,"pub":false}},{"type":"Feature","geometry":{"type":"Point","coordinates":[-105.3737,37.8387]},"properties":{"s":93.1,"pub":false}},{"type":"Feature","geometry":{"type":"Point","coordinates":[-105.3737,37.8445]},"properties":{"s":93.1,"pub":false}},{"type":"Feature","geometry":{"type":"Point","coordinates":[-105.3737,37.8503]},"properties":{"s":93.1,"pub":false}},{"type":"Feature","geometry":{"type":"Point","coordinates":[-105.3737,37.8561]},"properties":{"s":93.1,"pub":false}},{"type":"Feature","geometry":{"type":"Point","coordinates":[-105.3737,37.8619]},"properties":{"s":93.1,"pub":false}},{"type":"Feature","geometry":{"type":"Point","coordinates":[-105.3737,37.8677]},"properties":{"s":93.1,"pub":false}},{"type":"Feature","geometry":{"type":"Point","coordinates":[-105.3737,37.8735]},"properties":{"s":93.1,"pub":false}},{"type":"Feature","geometry":{"type":"Point","coordinates":[-105.3737,37.8793]},"properties":{"s":93.1,"pub":false}},{"type":"Feature","geometry":{"type":"Point","coordinates":[-105.3737,37.8851]},"properties":{"s":93.1,"pub":false}},{"type":"Feature","geometry":{"type":"Point","coordinates":[-105.3737,37.8909]},"properties":{"s":24.1,"pub":false}},{"type":"Feature","geometry":{"type":"Point","coordinates":[-105.3737,37.8967]},"properties":{"s":24.1,"pub":false}},{"type":"Feature","geometry":{"type":"Point","coordinates":[-105.3737,37.9025]},"properties":{"s":24.1,"pub":false}},{"type":"Feature","geometry":{"type":"Point","coordinates":[-105.3737,37.9083]},"properties":{"s":24.1,"pub":false}},{"type":"Feature","geometry":{"type":"Point","coordinates":[-105.3737,37.9141]},"properties":{"s":24.1,"pub":false}},{"type":"Feature","geometry":{"type":"Point","coordinates":[-105.3662,37.6415]},"properties":{"s":89.7,"pub":true}},{"type":"Feature","geometry":{"type":"Point","coordinates":[-105.3662,37.6473]},"properties":{"s":89.7,"pub":true}},{"type":"Feature","geometry":{"type":"Point","coordinates":[-105.3662,37.6531]},"properties":{"s":89.7,"pub":true}},{"type":"Feature","geometry":{"type":"Point","coordinates":[-105.3662,37.6589]},"properties":{"s":89.7,"pub":true}},{"type":"Feature","geometry":{"type":"Point","coordinates":[-105.3662,37.6647]},"properties":{"s":89.7,"pub":true}},{"type":"Feature","geometry":{"type":"Point","coordinates":[-105.3662,37.6705]},"properties":{"s":24.1,"pub":true}},{"type":"Feature","geometry":{"type":"Point","coordinates":[-105.3662,37.6763]},"properties":{"s":24.1,"pub":true}},{"type":"Feature","geometry":{"type":"Point","coordinates":[-105.3662,37.6821]},"properties":{"s":31.0,"pub":true}},{"type":"Feature","geometry":{"type":"Point","coordinates":[-105.3662,37.6879]},"properties":{"s":31.0,"pub":true}},{"type":"Feature","geometry":{"type":"Point","coordinates":[-105.3662,37.6937]},"properties":{"s":31.0,"pub":true}},{"type":"Feature","geometry":{"type":"Point","coordinates":[-105.3662,37.6995]},"properties":{"s":31.0,"pub":false}},{"type":"Feature","geometry":{"type":"Point","coordinates":[-105.3662,37.7923]},"properties":{"s":31.0,"pub":false}},{"type":"Feature","geometry":{"type":"Point","coordinates":[-105.3662,37.7981]},"properties":{"s":100.0,"pub":false}},{"type":"Feature","geometry":{"type":"Point","coordinates":[-105.3662,37.8039]},"properties":{"s":100.0,"pub":false}},{"type":"Feature","geometry":{"type":"Point","coordinates":[-105.3662,37.8097]},"properties":{"s":100.0,"pub":false}},{"type":"Feature","geometry":{"type":"Point","coordinates":[-105.3662,37.8155]},"properties":{"s":100.0,"pub":false}},{"type":"Feature","geometry":{"type":"Point","coordinates":[-105.3662,37.8213]},"properties":{"s":93.1,"pub":false}},{"type":"Feature","geometry":{"type":"Point","coordinates":[-105.3662,37.8271]},"properties":{"s":93.1,"pub":false}},{"type":"Feature","geometry":{"type":"Point","coordinates":[-105.3662,37.8329]},"properties":{"s":93.1,"pub":false}},{"type":"Feature","geometry":{"type":"Point","coordinates":[-105.3662,37.8387]},"properties":{"s":93.1,"pub":false}},{"type":"Feature","geometry":{"type":"Point","coordinates":[-105.3662,37.8445]},"properties":{"s":93.1,"pub":false}},{"type":"Feature","geometry":{"type":"Point","coordinates":[-105.3662,37.8503]},"properties":{"s":93.1,"pub":false}},{"type":"Feature","geometry":{"type":"Point","coordinates":[-105.3662,37.8561]},"properties":{"s":93.1,"pub":false}},{"type":"Feature","geometry":{"type":"Point","coordinates":[-105.3662,37.8619]},"properties":{"s":93.1,"pub":false}},{"type":"Feature","geometry":{"type":"Point","coordinates":[-105.3662,37.8677]},"properties":{"s":93.1,"pub":false}},{"type":"Feature","geometry":{"type":"Point","coordinates":[-105.3662,37.8735]},"properties":{"s":93.1,"pub":false}},{"type":"Feature","geometry":{"type":"Point","coordinates":[-105.3662,37.8793]},"properties":{"s":93.1,"pub":false}},{"type":"Feature","geometry":{"type":"Point","coordinates":[-105.3662,37.8851]},"properties":{"s":93.1,"pub":false}},{"type":"Feature","geometry":{"type":"Point","coordinates":[-105.3662,37.8909]},"properties":{"s":24.1,"pub":false}},{"type":"Feature","geometry":{"type":"Point","coordinates":[-105.3662,37.8967]},"properties":{"s":24.1,"pub":false}},{"type":"Feature","geometry":{"type":"Point","coordinates":[-105.3662,37.9025]},"properties":{"s":24.1,"pub":false}},{"type":"Feature","geometry":{"type":"Point","coordinates":[-105.3662,37.9083]},"properties":{"s":24.1,"pub":false}},{"type":"Feature","geometry":{"type":"Point","coordinates":[-105.3662,37.9141]},"properties":{"s":24.1,"pub":false}},{"type":"Feature","geometry":{"type":"Point","coordinates":[-105.3662,37.9199]},"properties":{"s":24.1,"pub":false}},{"type":"Feature","geometry":{"type":"Point","coordinates":[-105.3587,37.6415]},"properties":{"s":89.7,"pub":true}},{"type":"Feature","geometry":{"type":"Point","coordinates":[-105.3587,37.6473]},"properties":{"s":89.7,"pub":true}},{"type":"Feature","geometry":{"type":"Point","coordinates":[-105.3587,37.6531]},"properties":{"s":89.7,"pub":true}},{"type":"Feature","geometry":{"type":"Point","coordinates":[-105.3587,37.6589]},"properties":{"s":89.7,"pub":true}},{"type":"Feature","geometry":{"type":"Point","coordinates":[-105.3587,37.6647]},"properties":{"s":89.7,"pub":true}},{"type":"Feature","geometry":{"type":"Point","coordinates":[-105.3587,37.6705]},"properties":{"s":24.1,"pub":true}},{"type":"Feature","geometry":{"type":"Point","coordinates":[-105.3587,37.6763]},"properties":{"s":24.1,"pub":true}},{"type":"Feature","geometry":{"type":"Point","coordinates":[-105.3587,37.6821]},"properties":{"s":31.0,"pub":true}},{"type":"Feature","geometry":{"type":"Point","coordinates":[-105.3587,37.6879]},"properties":{"s":31.0,"pub":true}},{"type":"Feature","geometry":{"type":"Point","coordinates":[-105.3587,37.6937]},"properties":{"s":31.0,"pub":true}},{"type":"Feature","geometry":{"type":"Point","coordinates":[-105.3587,37.6995]},"properties":{"s":31.0,"pub":true}},{"type":"Feature","geometry":{"type":"Point","coordinates":[-105.3587,37.7923]},"properties":{"s":31.0,"pub":false}},{"type":"Feature","geometry":{"type":"Point","coordinates":[-105.3587,37.7981]},"properties":{"s":100.0,"pub":false}},{"type":"Feature","geometry":{"type":"Point","coordinates":[-105.3587,37.8039]},"properties":{"s":100.0,"pub":false}},{"type":"Feature","geometry":{"type":"Point","coordinates":[-105.3587,37.8097]},"properties":{"s":100.0,"pub":false}},{"type":"Feature","geometry":{"type":"Point","coordinates":[-105.3587,37.8155]},"properties":{"s":100.0,"pub":false}},{"type":"Feature","geometry":{"type":"Point","coordinates":[-105.3587,37.8213]},"properties":{"s":100.0,"pub":false}},{"type":"Feature","geometry":{"type":"Point","coordinates":[-105.3587,37.8271]},"properties":{"s":93.1,"pub":false}},{"type":"Feature","geometry":{"type":"Point","coordinates":[-105.3587,37.8329]},"properties":{"s":93.1,"pub":false}},{"type":"Feature","geometry":{"type":"Point","coordinates":[-105.3587,37.8387]},"properties":{"s":93.1,"pub":false}},{"type":"Feature","geometry":{"type":"Point","coordinates":[-105.3587,37.8445]},"properties":{"s":93.1,"pub":false}},{"type":"Feature","geometry":{"type":"Point","coordinates":[-105.3587,37.8503]},"properties":{"s":93.1,"pub":false}},{"type":"Feature","geometry":{"type":"Point","coordinates":[-105.3587,37.8561]},"properties":{"s":93.1,"pub":false}},{"type":"Feature","geometry":{"type":"Point","coordinates":[-105.3587,37.8619]},"properties":{"s":93.1,"pub":false}},{"type":"Feature","geometry":{"type":"Point","coordinates":[-105.3587,37.8677]},"properties":{"s":93.1,"pub":false}},{"type":"Feature","geometry":{"type":"Point","coordinates":[-105.3587,37.8735]},"properties":{"s":93.1,"pub":false}},{"type":"Feature","geometry":{"type":"Point","coordinates":[-105.3587,37.8793]},"properties":{"s":93.1,"pub":false}},{"type":"Feature","geometry":{"type":"Point","coordinates":[-105.3587,37.8851]},"properties":{"s":24.1,"pub":false}},{"type":"Feature","geometry":{"type":"Point","coordinates":[-105.3587,37.8909]},"properties":{"s":24.1,"pub":false}},{"type":"Feature","geometry":{"type":"Point","coordinates":[-105.3587,37.8967]},"properties":{"s":24.1,"pub":false}},{"type":"Feature","geometry":{"type":"Point","coordinates":[-105.3587,37.9025]},"properties":{"s":24.1,"pub":false}},{"type":"Feature","geometry":{"type":"Point","coordinates":[-105.3587,37.9083]},"properties":{"s":24.1,"pub":false}},{"type":"Feature","geometry":{"type":"Point","coordinates":[-105.3587,37.9141]},"properties":{"s":24.1,"pub":false}},{"type":"Feature","geometry":{"type":"Point","coordinates":[-105.3587,37.9199]},"properties":{"s":24.1,"pub":false}},{"type":"Feature","geometry":{"type":"Point","coordinates":[-105.3512,37.6415]},"properties":{"s":89.7,"pub":true}},{"type":"Feature","geometry":{"type":"Point","coordinates":[-105.3512,37.6473]},"properties":{"s":89.7,"pub":true}},{"type":"Feature","geometry":{"type":"Point","coordinates":[-105.3512,37.6531]},"properties":{"s":89.7,"pub":true}},{"type":"Feature","geometry":{"type":"Point","coordinates":[-105.3512,37.6589]},"properties":{"s":89.7,"pub":true}},{"type":"Feature","geometry":{"type":"Point","coordinates":[-105.3512,37.6647]},"properties":{"s":89.7,"pub":true}},{"type":"Feature","geometry":{"type":"Point","coordinates":[-105.3512,37.6705]},"properties":{"s":24.1,"pub":true}},{"type":"Feature","geometry":{"type":"Point","coordinates":[-105.3512,37.6763]},"properties":{"s":24.1,"pub":true}},{"type":"Feature","geometry":{"type":"Point","coordinates":[-105.3512,37.6821]},"properties":{"s":31.0,"pub":true}},{"type":"Feature","geometry":{"type":"Point","coordinates":[-105.3512,37.6879]},"properties":{"s":31.0,"pub":true}},{"type":"Feature","geometry":{"type":"Point","coordinates":[-105.3512,37.6937]},"properties":{"s":31.0,"pub":true}},{"type":"Feature","geometry":{"type":"Point","coordinates":[-105.3512,37.6995]},"properties":{"s":31.0,"pub":true}},{"type":"Feature","geometry":{"type":"Point","coordinates":[-105.3512,37.7923]},"properties":{"s":31.0,"pub":false}},{"type":"Feature","geometry":{"type":"Point","coordinates":[-105.3512,37.7981]},"properties":{"s":100.0,"pub":false}},{"type":"Feature","geometry":{"type":"Point","coordinates":[-105.3512,37.8039]},"properties":{"s":100.0,"pub":false}},{"type":"Feature","geometry":{"type":"Point","coordinates":[-105.3512,37.8097]},"properties":{"s":100.0,"pub":false}},{"type":"Feature","geometry":{"type":"Point","coordinates":[-105.3512,37.8155]},"properties":{"s":100.0,"pub":false}},{"type":"Feature","geometry":{"type":"Point","coordinates":[-105.3512,37.8213]},"properties":{"s":100.0,"pub":false}},{"type":"Feature","geometry":{"type":"Point","coordinates":[-105.3512,37.8271]},"properties":{"s":93.1,"pub":false}},{"type":"Feature","geometry":{"type":"Point","coordinates":[-105.3512,37.8329]},"properties":{"s":93.1,"pub":false}},{"type":"Feature","geometry":{"type":"Point","coordinates":[-105.3512,37.8387]},"properties":{"s":93.1,"pub":false}},{"type":"Feature","geometry":{"type":"Point","coordinates":[-105.3512,37.8445]},"properties":{"s":93.1,"pub":false}},{"type":"Feature","geometry":{"type":"Point","coordinates":[-105.3512,37.8503]},"properties":{"s":93.1,"pub":false}},{"type":"Feature","geometry":{"type":"Point","coordinates":[-105.3512,37.8561]},"properties":{"s":93.1,"pub":false}},{"type":"Feature","geometry":{"type":"Point","coordinates":[-105.3512,37.8619]},"properties":{"s":93.1,"pub":false}},{"type":"Feature","geometry":{"type":"Point","coordinates":[-105.3512,37.8677]},"properties":{"s":93.1,"pub":false}},{"type":"Feature","geometry":{"type":"Point","coordinates":[-105.3512,37.8735]},"properties":{"s":93.1,"pub":false}},{"type":"Feature","geometry":{"type":"Point","coordinates":[-105.3512,37.8793]},"properties":{"s":93.1,"pub":false}},{"type":"Feature","geometry":{"type":"Point","coordinates":[-105.3512,37.8851]},"properties":{"s":24.1,"pub":false}},{"type":"Feature","geometry":{"type":"Point","coordinates":[-105.3512,37.8909]},"properties":{"s":24.1,"pub":false}},{"type":"Feature","geometry":{"type":"Point","coordinates":[-105.3512,37.8967]},"properties":{"s":24.1,"pub":false}},{"type":"Feature","geometry":{"type":"Point","coordinates":[-105.3512,37.9025]},"properties":{"s":24.1,"pub":false}},{"type":"Feature","geometry":{"type":"Point","coordinates":[-105.3512,37.9083]},"properties":{"s":24.1,"pub":false}},{"type":"Feature","geometry":{"type":"Point","coordinates":[-105.3512,37.9141]},"properties":{"s":24.1,"pub":false}},{"type":"Feature","geometry":{"type":"Point","coordinates":[-105.3512,37.9199]},"properties":{"s":24.1,"pub":false}},{"type":"Feature","geometry":{"type":"Point","coordinates":[-105.3437,37.6473]},"properties":{"s":89.7,"pub":true}},{"type":"Feature","geometry":{"type":"Point","coordinates":[-105.3437,37.6531]},"properties":{"s":89.7,"pub":true}},{"type":"Feature","geometry":{"type":"Point","coordinates":[-105.3437,37.6589]},"properties":{"s":89.7,"pub":true}},{"type":"Feature","geometry":{"type":"Point","coordinates":[-105.3437,37.6705]},"properties":{"s":24.1,"pub":true}},{"type":"Feature","geometry":{"type":"Point","coordinates":[-105.3437,37.6763]},"properties":{"s":24.1,"pub":true}},{"type":"Feature","geometry":{"type":"Point","coordinates":[-105.3437,37.6821]},"properties":{"s":31.0,"pub":true}},{"type":"Feature","geometry":{"type":"Point","coordinates":[-105.3437,37.6879]},"properties":{"s":31.0,"pub":true}},{"type":"Feature","geometry":{"type":"Point","coordinates":[-105.3437,37.6937]},"properties":{"s":31.0,"pub":true}},{"type":"Feature","geometry":{"type":"Point","coordinates":[-105.3437,37.7865]},"properties":{"s":31.0,"pub":false}},{"type":"Feature","geometry":{"type":"Point","coordinates":[-105.3437,37.7923]},"properties":{"s":31.0,"pub":false}},{"type":"Feature","geometry":{"type":"Point","coordinates":[-105.3437,37.7981]},"properties":{"s":31.0,"pub":false}},{"type":"Feature","geometry":{"type":"Point","coordinates":[-105.3437,37.8039]},"properties":{"s":100.0,"pub":false}},{"type":"Feature","geometry":{"type":"Point","coordinates":[-105.3437,37.8097]},"properties":{"s":100.0,"pub":false}},{"type":"Feature","geometry":{"type":"Point","coordinates":[-105.3437,37.8155]},"properties":{"s":100.0,"pub":false}},{"type":"Feature","geometry":{"type":"Point","coordinates":[-105.3437,37.8213]},"properties":{"s":100.0,"pub":false}},{"type":"Feature","geometry":{"type":"Point","coordinates":[-105.3437,37.8271]},"properties":{"s":93.1,"pub":false}},{"type":"Feature","geometry":{"type":"Point","coordinates":[-105.3437,37.8329]},"properties":{"s":93.1,"pub":false}},{"type":"Feature","geometry":{"type":"Point","coordinates":[-105.3437,37.8387]},"properties":{"s":93.1,"pub":false}},{"type":"Feature","geometry":{"type":"Point","coordinates":[-105.3437,37.8445]},"properties":{"s":93.1,"pub":false}},{"type":"Feature","geometry":{"type":"Point","coordinates":[-105.3437,37.8503]},"properties":{"s":93.1,"pub":false}},{"type":"Feature","geometry":{"type":"Point","coordinates":[-105.3437,37.8561]},"properties":{"s":93.1,"pub":false}},{"type":"Feature","geometry":{"type":"Point","coordinates":[-105.3437,37.8619]},"properties":{"s":93.1,"pub":false}},{"type":"Feature","geometry":{"type":"Point","coordinates":[-105.3437,37.8677]},"properties":{"s":93.1,"pub":false}},{"type":"Feature","geometry":{"type":"Point","coordinates":[-105.3437,37.8735]},"properties":{"s":93.1,"pub":false}},{"type":"Feature","geometry":{"type":"Point","coordinates":[-105.3437,37.8793]},"properties":{"s":93.1,"pub":false}},{"type":"Feature","geometry":{"type":"Point","coordinates":[-105.3437,37.8851]},"properties":{"s":24.1,"pub":false}},{"type":"Feature","geometry":{"type":"Point","coordinates":[-105.3437,37.8909]},"properties":{"s":24.1,"pub":false}},{"type":"Feature","geometry":{"type":"Point","coordinates":[-105.3437,37.8967]},"properties":{"s":24.1,"pub":false}},{"type":"Feature","geometry":{"type":"Point","coordinates":[-105.3437,37.9025]},"properties":{"s":24.1,"pub":false}},{"type":"Feature","geometry":{"type":"Point","coordinates":[-105.3437,37.9083]},"properties":{"s":24.1,"pub":false}},{"type":"Feature","geometry":{"type":"Point","coordinates":[-105.3437,37.9141]},"properties":{"s":24.1,"pub":false}},{"type":"Feature","geometry":{"type":"Point","coordinates":[-105.3437,37.9199]},"properties":{"s":24.1,"pub":false}},{"type":"Feature","geometry":{"type":"Point","coordinates":[-105.3437,37.9257]},"properties":{"s":24.1,"pub":false}},{"type":"Feature","geometry":{"type":"Point","coordinates":[-105.3362,37.6473]},"properties":{"s":89.7,"pub":true}},{"type":"Feature","geometry":{"type":"Point","coordinates":[-105.3362,37.6531]},"properties":{"s":89.7,"pub":true}},{"type":"Feature","geometry":{"type":"Point","coordinates":[-105.3362,37.6589]},"properties":{"s":62.1,"pub":true}},{"type":"Feature","geometry":{"type":"Point","coordinates":[-105.3362,37.6763]},"properties":{"s":24.1,"pub":true}},{"type":"Feature","geometry":{"type":"Point","coordinates":[-105.3362,37.6821]},"properties":{"s":31.0,"pub":false}},{"type":"Feature","geometry":{"type":"Point","coordinates":[-105.3362,37.6879]},"properties":{"s":31.0,"pub":true}},{"type":"Feature","geometry":{"type":"Point","coordinates":[-105.3362,37.6937]},"properties":{"s":31.0,"pub":true}},{"type":"Feature","geometry":{"type":"Point","coordinates":[-105.3362,37.7865]},"properties":{"s":31.0,"pub":false}},{"type":"Feature","geometry":{"type":"Point","coordinates":[-105.3362,37.7923]},"properties":{"s":31.0,"pub":false}},{"type":"Feature","geometry":{"type":"Point","coordinates":[-105.3362,37.7981]},"properties":{"s":31.0,"pub":false}},{"type":"Feature","geometry":{"type":"Point","coordinates":[-105.3362,37.8039]},"properties":{"s":31.0,"pub":false}},{"type":"Feature","geometry":{"type":"Point","coordinates":[-105.3362,37.8097]},"properties":{"s":100.0,"pub":false}},{"type":"Feature","geometry":{"type":"Point","coordinates":[-105.3362,37.8155]},"properties":{"s":100.0,"pub":false}},{"type":"Feature","geometry":{"type":"Point","coordinates":[-105.3362,37.8213]},"properties":{"s":100.0,"pub":false}},{"type":"Feature","geometry":{"type":"Point","coordinates":[-105.3362,37.8271]},"properties":{"s":100.0,"pub":false}},{"type":"Feature","geometry":{"type":"Point","coordinates":[-105.3362,37.8329]},"properties":{"s":24.1,"pub":false}},{"type":"Feature","geometry":{"type":"Point","coordinates":[-105.3362,37.8387]},"properties":{"s":24.1,"pub":false}},{"type":"Feature","geometry":{"type":"Point","coordinates":[-105.3362,37.8445]},"properties":{"s":100.0,"pub":false}},{"type":"Feature","geometry":{"type":"Point","coordinates":[-105.3362,37.8503]},"properties":{"s":100.0,"pub":false}},{"type":"Feature","geometry":{"type":"Point","coordinates":[-105.3362,37.8561]},"properties":{"s":31.0,"pub":false}},{"type":"Feature","geometry":{"type":"Point","coordinates":[-105.3362,37.8619]},"properties":{"s":31.0,"pub":false}},{"type":"Feature","geometry":{"type":"Point","coordinates":[-105.3362,37.8677]},"properties":{"s":31.0,"pub":false}},{"type":"Feature","geometry":{"type":"Point","coordinates":[-105.3362,37.8735]},"properties":{"s":24.1,"pub":false}},{"type":"Feature","geometry":{"type":"Point","coordinates":[-105.3362,37.8793]},"properties":{"s":24.1,"pub":false}},{"type":"Feature","geometry":{"type":"Point","coordinates":[-105.3362,37.8851]},"properties":{"s":24.1,"pub":false}},{"type":"Feature","geometry":{"type":"Point","coordinates":[-105.3362,37.8909]},"properties":{"s":24.1,"pub":false}},{"type":"Feature","geometry":{"type":"Point","coordinates":[-105.3362,37.8967]},"properties":{"s":24.1,"pub":false}},{"type":"Feature","geometry":{"type":"Point","coordinates":[-105.3362,37.9025]},"properties":{"s":24.1,"pub":false}},{"type":"Feature","geometry":{"type":"Point","coordinates":[-105.3362,37.9083]},"properties":{"s":24.1,"pub":false}},{"type":"Feature","geometry":{"type":"Point","coordinates":[-105.3362,37.9141]},"properties":{"s":24.1,"pub":false}},{"type":"Feature","geometry":{"type":"Point","coordinates":[-105.3362,37.9199]},"properties":{"s":24.1,"pub":false}},{"type":"Feature","geometry":{"type":"Point","coordinates":[-105.3362,37.9257]},"properties":{"s":24.1,"pub":false}},{"type":"Feature","geometry":{"type":"Point","coordinates":[-105.3362,37.9315]},"properties":{"s":24.1,"pub":false}},{"type":"Feature","geometry":{"type":"Point","coordinates":[-105.3287,37.6473]},"properties":{"s":89.7,"pub":true}},{"type":"Feature","geometry":{"type":"Point","coordinates":[-105.3287,37.6531]},"properties":{"s":89.7,"pub":true}},{"type":"Feature","geometry":{"type":"Point","coordinates":[-105.3287,37.6589]},"properties":{"s":62.1,"pub":true}},{"type":"Feature","geometry":{"type":"Point","coordinates":[-105.3287,37.6705]},"properties":{"s":24.1,"pub":true}},{"type":"Feature","geometry":{"type":"Point","coordinates":[-105.3287,37.6763]},"properties":{"s":24.1,"pub":false}},{"type":"Feature","geometry":{"type":"Point","coordinates":[-105.3287,37.6821]},"properties":{"s":31.0,"pub":false}},{"type":"Feature","geometry":{"type":"Point","coordinates":[-105.3287,37.6879]},"properties":{"s":31.0,"pub":true}},{"type":"Feature","geometry":{"type":"Point","coordinates":[-105.3287,37.6937]},"properties":{"s":31.0,"pub":true}},{"type":"Feature","geometry":{"type":"Point","coordinates":[-105.3287,37.7807]},"properties":{"s":31.0,"pub":false}},{"type":"Feature","geometry":{"type":"Point","coordinates":[-105.3287,37.7865]},"properties":{"s":31.0,"pub":false}},{"type":"Feature","geometry":{"type":"Point","coordinates":[-105.3287,37.7923]},"properties":{"s":31.0,"pub":false}},{"type":"Feature","geometry":{"type":"Point","coordinates":[-105.3287,37.7981]},"properties":{"s":31.0,"pub":false}},{"type":"Feature","geometry":{"type":"Point","coordinates":[-105.3287,37.8039]},"properties":{"s":31.0,"pub":false}},{"type":"Feature","geometry":{"type":"Point","coordinates":[-105.3287,37.8097]},"properties":{"s":100.0,"pub":false}},{"type":"Feature","geometry":{"type":"Point","coordinates":[-105.3287,37.8155]},"properties":{"s":100.0,"pub":false}},{"type":"Feature","geometry":{"type":"Point","coordinates":[-105.3287,37.8213]},"properties":{"s":100.0,"pub":false}},{"type":"Feature","geometry":{"type":"Point","coordinates":[-105.3287,37.8271]},"properties":{"s":31.0,"pub":false}},{"type":"Feature","geometry":{"type":"Point","coordinates":[-105.3287,37.8329]},"properties":{"s":31.0,"pub":false}},{"type":"Feature","geometry":{"type":"Point","coordinates":[-105.3287,37.8387]},"properties":{"s":31.0,"pub":false}},{"type":"Feature","geometry":{"type":"Point","coordinates":[-105.3287,37.8445]},"properties":{"s":31.0,"pub":false}},{"type":"Feature","geometry":{"type":"Point","coordinates":[-105.3287,37.8503]},"properties":{"s":31.0,"pub":false}},{"type":"Feature","geometry":{"type":"Point","coordinates":[-105.3287,37.8561]},"properties":{"s":31.0,"pub":false}},{"type":"Feature","geometry":{"type":"Point","coordinates":[-105.3287,37.8619]},"properties":{"s":31.0,"pub":false}},{"type":"Feature","geometry":{"type":"Point","coordinates":[-105.3287,37.8677]},"properties":{"s":31.0,"pub":false}},{"type":"Feature","geometry":{"type":"Point","coordinates":[-105.3287,37.8735]},"properties":{"s":31.0,"pub":false}},{"type":"Feature","geometry":{"type":"Point","coordinates":[-105.3287,37.9199]},"properties":{"s":24.1,"pub":false}},{"type":"Feature","geometry":{"type":"Point","coordinates":[-105.3212,37.6473]},"properties":{"s":62.1,"pub":true}},{"type":"Feature","geometry":{"type":"Point","coordinates":[-105.3212,37.6531]},"properties":{"s":62.1,"pub":true}},{"type":"Feature","geometry":{"type":"Point","coordinates":[-105.3212,37.6589]},"properties":{"s":62.1,"pub":false}},{"type":"Feature","geometry":{"type":"Point","coordinates":[-105.3212,37.6647]},"properties":{"s":24.1,"pub":false}},{"type":"Feature","geometry":{"type":"Point","coordinates":[-105.3212,37.6705]},"properties":{"s":24.1,"pub":false}},{"type":"Feature","geometry":{"type":"Point","coordinates":[-105.3212,37.6763]},"properties":{"s":31.0,"pub":false}},{"type":"Feature","geometry":{"type":"Point","coordinates":[-105.3212,37.6821]},"properties":{"s":31.0,"pub":true}},{"type":"Feature","geometry":{"type":"Point","coordinates":[-105.3212,37.6879]},"properties":{"s":31.0,"pub":true}},{"type":"Feature","geometry":{"type":"Point","coordinates":[-105.3212,37.6937]},"properties":{"s":31.0,"pub":true}},{"type":"Feature","geometry":{"type":"Point","coordinates":[-105.3212,37.7691]},"properties":{"s":31.0,"pub":false}},{"type":"Feature","geometry":{"type":"Point","coordinates":[-105.3212,37.7749]},"properties":{"s":31.0,"pub":false}},{"type":"Feature","geometry":{"type":"Point","coordinates":[-105.3212,37.7807]},"properties":{"s":31.0,"pub":false}},{"type":"Feature","geometry":{"type":"Point","coordinates":[-105.3212,37.7865]},"properties":{"s":31.0,"pub":false}},{"type":"Feature","geometry":{"type":"Point","coordinates":[-105.3212,37.7923]},"properties":{"s":31.0,"pub":false}},{"type":"Feature","geometry":{"type":"Point","coordinates":[-105.3212,37.7981]},"properties":{"s":31.0,"pub":false}},{"type":"Feature","geometry":{"type":"Point","coordinates":[-105.3212,37.8039]},"properties":{"s":100.0,"pub":false}},{"type":"Feature","geometry":{"type":"Point","coordinates":[-105.3212,37.8097]},"properties":{"s":100.0,"pub":false}},{"type":"Feature","geometry":{"type":"Point","coordinates":[-105.3212,37.8155]},"properties":{"s":100.0,"pub":false}},{"type":"Feature","geometry":{"type":"Point","coordinates":[-105.3212,37.8213]},"properties":{"s":100.0,"pub":false}},{"type":"Feature","geometry":{"type":"Point","coordinates":[-105.3212,37.8271]},"properties":{"s":31.0,"pub":false}},{"type":"Feature","geometry":{"type":"Point","coordinates":[-105.3212,37.8329]},"properties":{"s":31.0,"pub":false}},{"type":"Feature","geometry":{"type":"Point","coordinates":[-105.3212,37.8387]},"properties":{"s":31.0,"pub":false}},{"type":"Feature","geometry":{"type":"Point","coordinates":[-105.3212,37.8445]},"properties":{"s":31.0,"pub":false}},{"type":"Feature","geometry":{"type":"Point","coordinates":[-105.3212,37.8503]},"properties":{"s":31.0,"pub":false}},{"type":"Feature","geometry":{"type":"Point","coordinates":[-105.3212,37.8561]},"properties":{"s":31.0,"pub":false}},{"type":"Feature","geometry":{"type":"Point","coordinates":[-105.3212,37.8619]},"properties":{"s":31.0,"pub":false}},{"type":"Feature","geometry":{"type":"Point","coordinates":[-105.3137,37.6531]},"properties":{"s":62.1,"pub":false}},{"type":"Feature","geometry":{"type":"Point","coordinates":[-105.3137,37.6589]},"properties":{"s":65.5,"pub":false}},{"type":"Feature","geometry":{"type":"Point","coordinates":[-105.3137,37.6647]},"properties":{"s":24.1,"pub":false}},{"type":"Feature","geometry":{"type":"Point","coordinates":[-105.3137,37.6705]},"properties":{"s":24.1,"pub":false}},{"type":"Feature","geometry":{"type":"Point","coordinates":[-105.3137,37.6763]},"properties":{"s":31.0,"pub":true}},{"type":"Feature","geometry":{"type":"Point","coordinates":[-105.3137,37.6821]},"properties":{"s":31.0,"pub":true}},{"type":"Feature","geometry":{"type":"Point","coordinates":[-105.3137,37.6879]},"properties":{"s":31.0,"pub":true}},{"type":"Feature","geometry":{"type":"Point","coordinates":[-105.3137,37.7691]},"properties":{"s":31.0,"pub":false}},{"type":"Feature","geometry":{"type":"Point","coordinates":[-105.3137,37.7749]},"properties":{"s":31.0,"pub":false}},{"type":"Feature","geometry":{"type":"Point","coordinates":[-105.3137,37.7807]},"properties":{"s":31.0,"pub":false}},{"type":"Feature","geometry":{"type":"Point","coordinates":[-105.3137,37.7865]},"properties":{"s":31.0,"pub":false}},{"type":"Feature","geometry":{"type":"Point","coordinates":[-105.3137,37.7923]},"properties":{"s":31.0,"pub":false}},{"type":"Feature","geometry":{"type":"Point","coordinates":[-105.3137,37.7981]},"properties":{"s":100.0,"pub":false}},{"type":"Feature","geometry":{"type":"Point","coordinates":[-105.3137,37.8039]},"properties":{"s":100.0,"pub":false}},{"type":"Feature","geometry":{"type":"Point","coordinates":[-105.3137,37.8097]},"properties":{"s":100.0,"pub":false}},{"type":"Feature","geometry":{"type":"Point","coordinates":[-105.3137,37.8155]},"properties":{"s":100.0,"pub":false}},{"type":"Feature","geometry":{"type":"Point","coordinates":[-105.3137,37.8213]},"properties":{"s":31.0,"pub":false}},{"type":"Feature","geometry":{"type":"Point","coordinates":[-105.3137,37.8271]},"properties":{"s":31.0,"pub":false}},{"type":"Feature","geometry":{"type":"Point","coordinates":[-105.3137,37.8329]},"properties":{"s":31.0,"pub":false}},{"type":"Feature","geometry":{"type":"Point","coordinates":[-105.3137,37.8387]},"properties":{"s":31.0,"pub":false}},{"type":"Feature","geometry":{"type":"Point","coordinates":[-105.3137,37.8445]},"properties":{"s":31.0,"pub":false}},{"type":"Feature","geometry":{"type":"Point","coordinates":[-105.3137,37.8503]},"properties":{"s":31.0,"pub":false}},{"type":"Feature","geometry":{"type":"Point","coordinates":[-105.3062,37.6589]},"properties":{"s":65.5,"pub":false}},{"type":"Feature","geometry":{"type":"Point","coordinates":[-105.3062,37.6647]},"properties":{"s":24.1,"pub":false}},{"type":"Feature","geometry":{"type":"Point","coordinates":[-105.3062,37.6705]},"properties":{"s":24.1,"pub":false}},{"type":"Feature","geometry":{"type":"Point","coordinates":[-105.3062,37.6763]},"properties":{"s":31.0,"pub":true}},{"type":"Feature","geometry":{"type":"Point","coordinates":[-105.3062,37.6821]},"properties":{"s":31.0,"pub":true}},{"type":"Feature","geometry":{"type":"Point","coordinates":[-105.3062,37.6879]},"properties":{"s":31.0,"pub":false}},{"type":"Feature","geometry":{"type":"Point","coordinates":[-105.3062,37.7633]},"properties":{"s":31.0,"pub":false}},{"type":"Feature","geometry":{"type":"Point","coordinates":[-105.3062,37.7691]},"properties":{"s":31.0,"pub":false}},{"type":"Feature","geometry":{"type":"Point","coordinates":[-105.3062,37.7749]},"properties":{"s":31.0,"pub":false}},{"type":"Feature","geometry":{"type":"Point","coordinates":[-105.3062,37.7807]},"properties":{"s":31.0,"pub":false}},{"type":"Feature","geometry":{"type":"Point","coordinates":[-105.3062,37.7865]},"properties":{"s":31.0,"pub":false}},{"type":"Feature","geometry":{"type":"Point","coordinates":[-105.3062,37.7923]},"properties":{"s":31.0,"pub":false}},{"type":"Feature","geometry":{"type":"Point","coordinates":[-105.3062,37.7981]},"properties":{"s":100.0,"pub":false}},{"type":"Feature","geometry":{"type":"Point","coordinates":[-105.3062,37.8039]},"properties":{"s":100.0,"pub":false}},{"type":"Feature","geometry":{"type":"Point","coordinates":[-105.3062,37.8097]},"properties":{"s":31.0,"pub":false}},{"type":"Feature","geometry":{"type":"Point","coordinates":[-105.3062,37.8155]},"properties":{"s":31.0,"pub":false}},{"type":"Feature","geometry":{"type":"Point","coordinates":[-105.3062,37.8213]},"properties":{"s":31.0,"pub":false}},{"type":"Feature","geometry":{"type":"Point","coordinates":[-105.3062,37.8271]},"properties":{"s":31.0,"pub":false}},{"type":"Feature","geometry":{"type":"Point","coordinates":[-105.3062,37.8329]},"properties":{"s":31.0,"pub":false}},{"type":"Feature","geometry":{"type":"Point","coordinates":[-105.2987,37.6647]},"properties":{"s":24.1,"pub":false}},{"type":"Feature","geometry":{"type":"Point","coordinates":[-105.2987,37.6705]},"properties":{"s":24.1,"pub":true}},{"type":"Feature","geometry":{"type":"Point","coordinates":[-105.2987,37.6763]},"properties":{"s":31.0,"pub":false}},{"type":"Feature","geometry":{"type":"Point","coordinates":[-105.2987,37.6821]},"properties":{"s":31.0,"pub":false}},{"type":"Feature","geometry":{"type":"Point","coordinates":[-105.2987,37.7517]},"properties":{"s":31.0,"pub":false}},{"type":"Feature","geometry":{"type":"Point","coordinates":[-105.2987,37.7575]},"properties":{"s":31.0,"pub":false}},{"type":"Feature","geometry":{"type":"Point","coordinates":[-105.2987,37.7633]},"properties":{"s":31.0,"pub":false}},{"type":"Feature","geometry":{"type":"Point","coordinates":[-105.2987,37.7691]},"properties":{"s":31.0,"pub":false}},{"type":"Feature","geometry":{"type":"Point","coordinates":[-105.2987,37.7749]},"properties":{"s":31.0,"pub":false}},{"type":"Feature","geometry":{"type":"Point","coordinates":[-105.2987,37.7807]},"properties":{"s":31.0,"pub":false}},{"type":"Feature","geometry":{"type":"Point","coordinates":[-105.2987,37.7865]},"properties":{"s":31.0,"pub":false}},{"type":"Feature","geometry":{"type":"Point","coordinates":[-105.2987,37.7923]},"properties":{"s":31.0,"pub":false}},{"type":"Feature","geometry":{"type":"Point","coordinates":[-105.2987,37.7981]},"properties":{"s":31.0,"pub":false}},{"type":"Feature","geometry":{"type":"Point","coordinates":[-105.2987,37.8039]},"properties":{"s":31.0,"pub":false}},{"type":"Feature","geometry":{"type":"Point","coordinates":[-105.2987,37.8097]},"properties":{"s":31.0,"pub":false}},{"type":"Feature","geometry":{"type":"Point","coordinates":[-105.2987,37.8155]},"properties":{"s":31.0,"pub":false}},{"type":"Feature","geometry":{"type":"Point","coordinates":[-105.2987,37.8213]},"properties":{"s":31.0,"pub":false}},{"type":"Feature","geometry":{"type":"Point","coordinates":[-105.2987,37.8271]},"properties":{"s":31.0,"pub":false}},{"type":"Feature","geometry":{"type":"Point","coordinates":[-105.2912,37.6705]},"properties":{"s":24.1,"pub":false}},{"type":"Feature","geometry":{"type":"Point","coordinates":[-105.2912,37.6763]},"properties":{"s":24.1,"pub":true}},{"type":"Feature","geometry":{"type":"Point","coordinates":[-105.2912,37.7517]},"properties":{"s":31.0,"pub":false}},{"type":"Feature","geometry":{"type":"Point","coordinates":[-105.2912,37.7575]},"properties":{"s":31.0,"pub":false}},{"type":"Feature","geometry":{"type":"Point","coordinates":[-105.2912,37.7633]},"properties":{"s":31.0,"pub":false}},{"type":"Feature","geometry":{"type":"Point","coordinates":[-105.2912,37.7691]},"properties":{"s":31.0,"pub":false}},{"type":"Feature","geometry":{"type":"Point","coordinates":[-105.2912,37.7749]},"properties":{"s":31.0,"pub":false}},{"type":"Feature","geometry":{"type":"Point","coordinates":[-105.2912,37.7807]},"properties":{"s":31.0,"pub":false}},{"type":"Feature","geometry":{"type":"Point","coordinates":[-105.2912,37.7865]},"properties":{"s":31.0,"pub":false}},{"type":"Feature","geometry":{"type":"Point","coordinates":[-105.2912,37.7923]},"properties":{"s":31.0,"pub":false}},{"type":"Feature","geometry":{"type":"Point","coordinates":[-105.2912,37.7981]},"properties":{"s":31.0,"pub":false}},{"type":"Feature","geometry":{"type":"Point","coordinates":[-105.2912,37.8039]},"properties":{"s":31.0,"pub":false}},{"type":"Feature","geometry":{"type":"Point","coordinates":[-105.2912,37.8097]},"properties":{"s":31.0,"pub":false}},{"type":"Feature","geometry":{"type":"Point","coordinates":[-105.2912,37.8155]},"properties":{"s":31.0,"pub":false}},{"type":"Feature","geometry":{"type":"Point","coordinates":[-105.2837,37.7575]},"properties":{"s":31.0,"pub":false}},{"type":"Feature","geometry":{"type":"Point","coordinates":[-105.2837,37.7633]},"properties":{"s":31.0,"pub":false}},{"type":"Feature","geometry":{"type":"Point","coordinates":[-105.2837,37.7691]},"properties":{"s":31.0,"pub":false}},{"type":"Feature","geometry":{"type":"Point","coordinates":[-105.2837,37.7749]},"properties":{"s":31.0,"pub":false}},{"type":"Feature","geometry":{"type":"Point","coordinates":[-105.2837,37.7807]},"properties":{"s":31.0,"pub":false}},{"type":"Feature","geometry":{"type":"Point","coordinates":[-105.2837,37.7865]},"properties":{"s":31.0,"pub":false}},{"type":"Feature","geometry":{"type":"Point","coordinates":[-105.2837,37.7923]},"properties":{"s":31.0,"pub":false}},{"type":"Feature","geometry":{"type":"Point","coordinates":[-105.2837,37.7981]},"properties":{"s":31.0,"pub":false}},{"type":"Feature","geometry":{"type":"Point","coordinates":[-105.2837,37.8213]},"properties":{"s":31.0,"pub":true}},{"type":"Feature","geometry":{"type":"Point","coordinates":[-105.2762,37.7633]},"properties":{"s":31.0,"pub":false}},{"type":"Feature","geometry":{"type":"Point","coordinates":[-105.2762,37.7691]},"properties":{"s":31.0,"pub":false}},{"type":"Feature","geometry":{"type":"Point","coordinates":[-105.2762,37.7749]},"properties":{"s":31.0,"pub":false}},{"type":"Feature","geometry":{"type":"Point","coordinates":[-105.2762,37.7807]},"properties":{"s":31.0,"pub":false}},{"type":"Feature","geometry":{"type":"Point","coordinates":[-105.2687,37.7691]},"properties":{"s":31.0,"pub":false}},{"type":"Feature","geometry":{"type":"Point","coordinates":[-105.2687,37.7749]},"properties":{"s":31.0,"pub":false}},{"type":"Feature","geometry":{"type":"Point","coordinates":[-105.2537,37.6937]},"properties":{"s":24.1,"pub":false}},{"type":"Feature","geometry":{"type":"Point","coordinates":[-105.2537,37.6995]},"properties":{"s":31.0,"pub":false}},{"type":"Feature","geometry":{"type":"Point","coordinates":[-105.2537,37.7053]},"properties":{"s":31.0,"pub":false}},{"type":"Feature","geometry":{"type":"Point","coordinates":[-105.2537,37.7575]},"properties":{"s":31.0,"pub":false}},{"type":"Feature","geometry":{"type":"Point","coordinates":[-105.2462,37.6995]},"properties":{"s":24.1,"pub":false}},{"type":"Feature","geometry":{"type":"Point","coordinates":[-105.2387,37.6241]},"properties":{"s":62.1,"pub":false}},{"type":"Feature","geometry":{"type":"Point","coordinates":[-105.2387,37.6299]},"properties":{"s":62.1,"pub":false}},{"type":"Feature","geometry":{"type":"Point","coordinates":[-105.2387,37.6937]},"properties":{"s":24.1,"pub":false}},{"type":"Feature","geometry":{"type":"Point","coordinates":[-105.2312,37.6241]},"properties":{"s":62.1,"pub":false}},{"type":"Feature","geometry":{"type":"Point","coordinates":[-105.2312,37.6299]},"properties":{"s":62.1,"pub":false}},{"type":"Feature","geometry":{"type":"Point","coordinates":[-105.2312,37.6357]},"properties":{"s":62.1,"pub":false}},{"type":"Feature","geometry":{"type":"Point","coordinates":[-105.2237,37.6299]},"properties":{"s":62.1,"pub":false}},{"type":"Feature","geometry":{"type":"Point","coordinates":[-105.2237,37.6357]},"properties":{"s":62.1,"pub":false}},{"type":"Feature","geometry":{"type":"Point","coordinates":[-105.2162,37.6357]},"properties":{"s":62.1,"pub":false}}]}