{"type":"FeatureCollection","features":[{"type":"Feature","geometry":{"type":"Point","coordinates":[-105.4049,40.9867]},"properties":{"s":5.9,"pub":false}},{"type":"Feature","geometry":{"type":"Point","coordinates":[-105.4049,40.9925]},"properties":{"s":5.9,"pub":false}},{"type":"Feature","geometry":{"type":"Point","coordinates":[-105.3974,40.9867]},"properties":{"s":5.9,"pub":false}},{"type":"Feature","geometry":{"type":"Point","coordinates":[-105.3974,40.9925]},"properties":{"s":5.9,"pub":false}},{"type":"Feature","geometry":{"type":"Point","coordinates":[-105.3899,40.9809]},"properties":{"s":5.9,"pub":false}},{"type":"Feature","geometry":{"type":"Point","coordinates":[-105.3899,40.9867]},"properties":{"s":5.9,"pub":false}},{"type":"Feature","geometry":{"type":"Point","coordinates":[-105.3899,40.9925]},"properties":{"s":5.9,"pub":false}},{"type":"Feature","geometry":{"type":"Point","coordinates":[-105.3824,40.9751]},"properties":{"s":5.9,"pub":false}},{"type":"Feature","geometry":{"type":"Point","coordinates":[-105.3824,40.9809]},"properties":{"s":5.9,"pub":false}},{"type":"Feature","geometry":{"type":"Point","coordinates":[-105.3824,40.9867]},"properties":{"s":5.9,"pub":false}},{"type":"Feature","geometry":{"type":"Point","coordinates":[-105.3824,40.9925]},"properties":{"s":5.9,"pub":false}},{"type":"Feature","geometry":{"type":"Point","coordinates":[-105.3749,40.9693]},"properties":{"s":5.9,"pub":false}},{"type":"Feature","geometry":{"type":"Point","coordinates":[-105.3749,40.9751]},"properties":{"s":5.9,"pub":false}},{"type":"Feature","geometry":{"type":"Point","coordinates":[-105.3749,40.9809]},"properties":{"s":5.9,"pub":false}},{"type":"Feature","geometry":{"type":"Point","coordinates":[-105.3749,40.9867]},"properties":{"s":41.2,"pub":false}},{"type":"Feature","geometry":{"type":"Point","coordinates":[-105.3749,40.9925]},"properties":{"s":88.2,"pub":false}},{"type":"Feature","geometry":{"type":"Point","coordinates":[-105.3674,40.9635]},"properties":{"s":5.9,"pub":false}},{"type":"Feature","geometry":{"type":"Point","coordinates":[-105.3674,40.9693]},"properties":{"s":5.9,"pub":false}},{"type":"Feature","geometry":{"type":"Point","coordinates":[-105.3674,40.9751]},"properties":{"s":5.9,"pub":false}},{"type":"Feature","geometry":{"type":"Point","coordinates":[-105.3674,40.9809]},"properties":{"s":41.2,"pub":false}},{"type":"Feature","geometry":{"type":"Point","coordinates":[-105.3674,40.9867]},"properties":{"s":88.2,"pub":false}},{"type":"Feature","geometry":{"type":"Point","coordinates":[-105.3674,40.9925]},"properties":{"s":88.2,"pub":false}},{"type":"Feature","geometry":{"type":"Point","coordinates":[-105.3599,40.9635]},"properties":{"s":5.9,"pub":false}},{"type":"Feature","geometry":{"type":"Point","coordinates":[-105.3599,40.9693]},"properties":{"s":5.9,"pub":false}},{"type":"Feature","geometry":{"type":"Point","coordinates":[-105.3599,40.9751]},"properties":{"s":41.2,"pub":false}},{"type":"Feature","geometry":{"type":"Point","coordinates":[-105.3599,40.9809]},"properties":{"s":88.2,"pub":false}},{"type":"Feature","geometry":{"type":"Point","coordinates":[-105.3599,40.9867]},"properties":{"s":88.2,"pub":false}},{"type":"Feature","geometry":{"type":"Point","coordinates":[-105.3599,40.9925]},"properties":{"s":100.0,"pub":false}},{"type":"Feature","geometry":{"type":"Point","coordinates":[-105.3524,40.9577]},"properties":{"s":5.9,"pub":false}},{"type":"Feature","geometry":{"type":"Point","coordinates":[-105.3524,40.9635]},"properties":{"s":5.9,"pub":false}},{"type":"Feature","geometry":{"type":"Point","coordinates":[-105.3524,40.9693]},"properties":{"s":41.2,"pub":false}},{"type":"Feature","geometry":{"type":"Point","coordinates":[-105.3524,40.9751]},"properties":{"s":41.2,"pub":false}},{"type":"Feature","geometry":{"type":"Point","coordinates":[-105.3524,40.9809]},"properties":{"s":88.2,"pub":false}},{"type":"Feature","geometry":{"type":"Point","coordinates":[-105.3524,40.9867]},"properties":{"s":100.0,"pub":false}},{"type":"Feature","geometry":{"type":"Point","coordinates":[-105.3524,40.9925]},"properties":{"s":100.0,"pub":false}},{"type":"Feature","geometry":{"type":"Point","coordinates":[-105.3449,40.9519]},"properties":{"s":5.9,"pub":false}},{"type":"Feature","geometry":{"type":"Point","coordinates":[-105.3449,40.9577]},"properties":{"s":5.9,"pub":false}},{"type":"Feature","geometry":{"type":"Point","coordinates":[-105.3449,40.9635]},"properties":{"s":41.2,"pub":false}},{"type":"Feature","geometry":{"type":"Point","coordinates":[-105.3449,40.9693]},"properties":{"s":88.2,"pub":false}},{"type":"Feature","geometry":{"type":"Point","coordinates":[-105.3449,40.9751]},"properties":{"s":100.0,"pub":false}},{"type":"Feature","geometry":{"type":"Point","coordinates":[-105.3449,40.9809]},"properties":{"s":100.0,"pub":false}},{"type":"Feature","geometry":{"type":"Point","coordinates":[-105.3449,40.9867]},"properties":{"s":100.0,"pub":false}},{"type":"Feature","geometry":{"type":"Point","coordinates":[-105.3449,40.9925]},"properties":{"s":100.0,"pub":false}},{"type":"Feature","geometry":{"type":"Point","coordinates":[-105.3374,40.9577]},"properties":{"s":41.2,"pub":false}},{"type":"Feature","geometry":{"type":"Point","coordinates":[-105.3374,40.9635]},"properties":{"s":88.2,"pub":false}},{"type":"Feature","geometry":{"type":"Point","coordinates":[-105.3374,40.9693]},"properties":{"s":100.0,"pub":false}},{"type":"Feature","geometry":{"type":"Point","coordinates":[-105.3374,40.9751]},"properties":{"s":100.0,"pub":false}},{"type":"Feature","geometry":{"type":"Point","coordinates":[-105.3374,40.9809]},"properties":{"s":100.0,"pub":false}},{"type":"Feature","geometry":{"type":"Point","coordinates":[-105.3374,40.9867]},"properties":{"s":100.0,"pub":false}},{"type":"Feature","geometry":{"type":"Point","coordinates":[-105.3374,40.9925]},"properties":{"s":100.0,"pub":false}},{"type":"Feature","geometry":{"type":"Point","coordinates":[-105.3299,40.9519]},"properties":{"s":5.9,"pub":false}},{"type":"Feature","geometry":{"type":"Point","coordinates":[-105.3299,40.9577]},"properties":{"s":41.2,"pub":false}},{"type":"Feature","geometry":{"type":"Point","coordinates":[-105.3299,40.9635]},"properties":{"s":100.0,"pub":false}},{"type":"Feature","geometry":{"type":"Point","coordinates":[-105.3299,40.9693]},"properties":{"s":100.0,"pub":false}},{"type":"Feature","geometry":{"type":"Point","coordinates":[-105.3299,40.9751]},"properties":{"s":100.0,"pub":false}},{"type":"Feature","geometry":{"type":"Point","coordinates":[-105.3299,40.9809]},"properties":{"s":100.0,"pub":false}},{"type":"Feature","geometry":{"type":"Point","coordinates":[-105.3299,40.9867]},"properties":{"s":100.0,"pub":false}},{"type":"Feature","geometry":{"type":"Point","coordinates":[-105.3299,40.9925]},"properties":{"s":100.0,"pub":false}},{"type":"Feature","geometry":{"type":"Point","coordinates":[-105.3224,40.9403]},"properties":{"s":5.9,"pub":false}},{"type":"Feature","geometry":{"type":"Point","coordinates":[-105.3224,40.9461]},"properties":{"s":5.9,"pub":false}},{"type":"Feature","geometry":{"type":"Point","coordinates":[-105.3224,40.9519]},"properties":{"s":5.9,"pub":false}},{"type":"Feature","geometry":{"type":"Point","coordinates":[-105.3224,40.9577]},"properties":{"s":100.0,"pub":false}},{"type":"Feature","geometry":{"type":"Point","coordinates":[-105.3224,40.9635]},"properties":{"s":100.0,"pub":false}},{"type":"Feature","geometry":{"type":"Point","coordinates":[-105.3224,40.9693]},"properties":{"s":100.0,"pub":false}},{"type":"Feature","geometry":{"type":"Point","coordinates":[-105.3224,40.9751]},"properties":{"s":100.0,"pub":false}},{"type":"Feature","geometry":{"type":"Point","coordinates":[-105.3224,40.9809]},"properties":{"s":100.0,"pub":false}},{"type":"Feature","geometry":{"type":"Point","coordinates":[-105.3224,40.9867]},"properties":{"s":100.0,"pub":false}},{"type":"Feature","geometry":{"type":"Point","coordinates":[-105.3224,40.9925]},"properties":{"s":100.0,"pub":false}},{"type":"Feature","geometry":{"type":"Point","coordinates":[-105.3149,40.9345]},"properties":{"s":5.9,"pub":false}},{"type":"Feature","geometry":{"type":"Point","coordinates":[-105.3149,40.9403]},"properties":{"s":5.9,"pub":false}},{"type":"Feature","geometry":{"type":"Point","coordinates":[-105.3149,40.9461]},"properties":{"s":5.9,"pub":false}},{"type":"Feature","geometry":{"type":"Point","coordinates":[-105.3149,40.9519]},"properties":{"s":5.9,"pub":false}},{"type":"Feature","geometry":{"type":"Point","coordinates":[-105.3149,40.9577]},"properties":{"s":41.2,"pub":false}},{"type":"Feature","geometry":{"type":"Point","coordinates":[-105.3149,40.9635]},"properties":{"s":100.0,"pub":false}},{"type":"Feature","geometry":{"type":"Point","coordinates":[-105.3149,40.9693]},"properties":{"s":100.0,"pub":false}},{"type":"Feature","geometry":{"type":"Point","coordinates":[-105.3149,40.9751]},"properties":{"s":100.0,"pub":false}},{"type":"Feature","geometry":{"type":"Point","coordinates":[-105.3149,40.9809]},"properties":{"s":100.0,"pub":false}},{"type":"Feature","geometry":{"type":"Point","coordinates":[-105.3149,40.9867]},"properties":{"s":100.0,"pub":false}},{"type":"Feature","geometry":{"type":"Point","coordinates":[-105.3149,40.9925]},"properties":{"s":100.0,"pub":false}},{"type":"Feature","geometry":{"type":"Point","coordinates":[-105.3074,40.9345]},"properties":{"s":5.9,"pub":false}},{"type":"Feature","geometry":{"type":"Point","coordinates":[-105.3074,40.9403]},"properties":{"s":5.9,"pub":false}},{"type":"Feature","geometry":{"type":"Point","coordinates":[-105.3074,40.9461]},"properties":{"s":5.9,"pub":false}},{"type":"Feature","geometry":{"type":"Point","coordinates":[-105.3074,40.9519]},"properties":{"s":5.9,"pub":false}},{"type":"Feature","geometry":{"type":"Point","coordinates":[-105.3074,40.9577]},"properties":{"s":5.9,"pub":false}},{"type":"Feature","geometry":{"type":"Point","coordinates":[-105.3074,40.9635]},"properties":{"s":88.2,"pub":true}},{"type":"Feature","geometry":{"type":"Point","coordinates":[-105.3074,40.9693]},"properties":{"s":88.2,"pub":true}},{"type":"Feature","geometry":{"type":"Point","coordinates":[-105.3074,40.9751]},"properties":{"s":88.2,"pub":true}},{"type":"Feature","geometry":{"type":"Point","coordinates":[-105.3074,40.9809]},"properties":{"s":100.0,"pub":false}},{"type":"Feature","geometry":{"type":"Point","coordinates":[-105.3074,40.9867]},"properties":{"s":100.0,"pub":false}},{"type":"Feature","geometry":{"type":"Point","coordinates":[-105.3074,40.9925]},"properties":{"s":100.0,"pub":false}},{"type":"Feature","geometry":{"type":"Point","coordinates":[-105.2999,40.9287]},"properties":{"s":5.9,"pub":false}},{"type":"Feature","geometry":{"type":"Point","coordinates":[-105.2999,40.9345]},"properties":{"s":5.9,"pub":false}},{"type":"Feature","geometry":{"type":"Point","coordinates":[-105.2999,40.9403]},"properties":{"s":5.9,"pub":false}},{"type":"Feature","geometry":{"type":"Point","coordinates":[-105.2999,40.9461]},"properties":{"s":5.9,"pub":false}},{"type":"Feature","geometry":{"type":"Point","coordinates":[-105.2999,40.9519]},"properties":{"s":5.9,"pub":false}},{"type":"Feature","geometry":{"type":"Point","coordinates":[-105.2999,40.9577]},"properties":{"s":5.9,"pub":false}},{"type":"Feature","geometry":{"type":"Point","coordinates":[-105.2999,40.9635]},"properties":{"s":5.9,"pub":true}},{"type":"Feature","geometry":{"type":"Point","coordinates":[-105.2999,40.9693]},"properties":{"s":88.2,"pub":true}},{"type":"Feature","geometry":{"type":"Point","coordinates":[-105.2999,40.9751]},"properties":{"s":88.2,"pub":true}},{"type":"Feature","geometry":{"type":"Point","coordinates":[-105.2999,40.9809]},"properties":{"s":88.2,"pub":false}},{"type":"Feature","geometry":{"type":"Point","coordinates":[-105.2999,40.9867]},"properties":{"s":88.2,"pub":false}},{"type":"Feature","geometry":{"type":"Point","coordinates":[-105.2999,40.9925]},"properties":{"s":88.2,"pub":false}},{"type":"Feature","geometry":{"type":"Point","coordinates":[-105.2924,40.9287]},"properties":{"s":5.9,"pub":false}},{"type":"Feature","geometry":{"type":"Point","coordinates":[-105.2924,40.9345]},"properties":{"s":5.9,"pub":false}},{"type":"Feature","geometry":{"type":"Point","coordinates":[-105.2924,40.9403]},"properties":{"s":5.9,"pub":false}},{"type":"Feature","geometry":{"type":"Point","coordinates":[-105.2924,40.9461]},"properties":{"s":5.9,"pub":false}},{"type":"Feature","geometry":{"type":"Point","coordinates":[-105.2924,40.9519]},"properties":{"s":5.9,"pub":false}},{"type":"Feature","geometry":{"type":"Point","coordinates":[-105.2924,40.9577]},"properties":{"s":5.9,"pub":false}},{"type":"Feature","geometry":{"type":"Point","coordinates":[-105.2924,40.9635]},"properties":{"s":5.9,"pub":true}},{"type":"Feature","geometry":{"type":"Point","coordinates":[-105.2924,40.9693]},"properties":{"s":5.9,"pub":true}},{"type":"Feature","geometry":{"type":"Point","coordinates":[-105.2924,40.9751]},"properties":{"s":88.2,"pub":true}},{"type":"Feature","geometry":{"type":"Point","coordinates":[-105.2924,40.9809]},"properties":{"s":88.2,"pub":false}},{"type":"Feature","geometry":{"type":"Point","coordinates":[-105.2924,40.9867]},"properties":{"s":88.2,"pub":false}},{"type":"Feature","geometry":{"type":"Point","coordinates":[-105.2924,40.9925]},"properties":{"s":88.2,"pub":false}},{"type":"Feature","geometry":{"type":"Point","coordinates":[-105.2849,40.9229]},"properties":{"s":5.9,"pub":false}},{"type":"Feature","geometry":{"type":"Point","coordinates":[-105.2849,40.9287]},"properties":{"s":5.9,"pub":false}},{"type":"Feature","geometry":{"type":"Point","coordinates":[-105.2849,40.9345]},"properties":{"s":5.9,"pub":false}},{"type":"Feature","geometry":{"type":"Point","coordinates":[-105.2849,40.9403]},"properties":{"s":5.9,"pub":false}},{"type":"Feature","geometry":{"type":"Point","coordinates":[-105.2849,40.9461]},"properties":{"s":5.9,"pub":false}},{"type":"Feature","geometry":{"type":"Point","coordinates":[-105.2849,40.9519]},"properties":{"s":5.9,"pub":false}},{"type":"Feature","geometry":{"type":"Point","coordinates":[-105.2849,40.9577]},"properties":{"s":5.9,"pub":false}},{"type":"Feature","geometry":{"type":"Point","coordinates":[-105.2849,40.9635]},"properties":{"s":5.9,"pub":false}},{"type":"Feature","geometry":{"type":"Point","coordinates":[-105.2849,40.9693]},"properties":{"s":5.9,"pub":false}},{"type":"Feature","geometry":{"type":"Point","coordinates":[-105.2849,40.9751]},"properties":{"s":41.2,"pub":false}},{"type":"Feature","geometry":{"type":"Point","coordinates":[-105.2849,40.9809]},"properties":{"s":88.2,"pub":false}},{"type":"Feature","geometry":{"type":"Point","coordinates":[-105.2849,40.9867]},"properties":{"s":88.2,"pub":false}},{"type":"Feature","geometry":{"type":"Point","coordinates":[-105.2849,40.9925]},"properties":{"s":88.2,"pub":false}},{"type":"Feature","geometry":{"type":"Point","coordinates":[-105.2774,40.9171]},"properties":{"s":5.9,"pub":false}},{"type":"Feature","geometry":{"type":"Point","coordinates":[-105.2774,40.9229]},"properties":{"s":5.9,"pub":false}},{"type":"Feature","geometry":{"type":"Point","coordinates":[-105.2774,40.9287]},"properties":{"s":5.9,"pub":false}},{"type":"Feature","geometry":{"type":"Point","coordinates":[-105.2774,40.9345]},"properties":{"s":5.9,"pub":false}},{"type":"Feature","geometry":{"type":"Point","coordinates":[-105.2774,40.9403]},"properties":{"s":5.9,"pub":false}},{"type":"Feature","geometry":{"type":"Point","coordinates":[-105.2774,40.9461]},"properties":{"s":5.9,"pub":false}},{"type":"Feature","geometry":{"type":"Point","coordinates":[-105.2774,40.9519]},"properties":{"s":5.9,"pub":false}},{"type":"Feature","geometry":{"type":"Point","coordinates":[-105.2774,40.9577]},"properties":{"s":5.9,"pub":false}},{"type":"Feature","geometry":{"type":"Point","coordinates":[-105.2774,40.9635]},"properties":{"s":5.9,"pub":false}},{"type":"Feature","geometry":{"type":"Point","coordinates":[-105.2774,40.9693]},"properties":{"s":5.9,"pub":false}},{"type":"Feature","geometry":{"type":"Point","coordinates":[-105.2774,40.9751]},"properties":{"s":41.2,"pub":false}},{"type":"Feature","geometry":{"type":"Point","coordinates":[-105.2774,40.9809]},"properties":{"s":88.2,"pub":false}},{"type":"Feature","geometry":{"type":"Point","coordinates":[-105.2774,40.9867]},"properties":{"s":88.2,"pub":false}},{"type":"Feature","geometry":{"type":"Point","coordinates":[-105.2774,40.9925]},"properties":{"s":88.2,"pub":false}},{"type":"Feature","geometry":{"type":"Point","coordinates":[-105.2699,40.9171]},"properties":{"s":5.9,"pub":false}},{"type":"Feature","geometry":{"type":"Point","coordinates":[-105.2699,40.9229]},"properties":{"s":5.9,"pub":false}},{"type":"Feature","geometry":{"type":"Point","coordinates":[-105.2699,40.9287]},"properties":{"s":5.9,"pub":false}},{"type":"Feature","geometry":{"type":"Point","coordinates":[-105.2699,40.9345]},"properties":{"s":5.9,"pub":false}},{"type":"Feature","geometry":{"type":"Point","coordinates":[-105.2699,40.9403]},"properties":{"s":5.9,"pub":false}},{"type":"Feature","geometry":{"type":"Point","coordinates":[-105.2699,40.9461]},"properties":{"s":5.9,"pub":false}},{"type":"Feature","geometry":{"type":"Point","coordinates":[-105.2699,40.9519]},"properties":{"s":5.9,"pub":false}},{"type":"Feature","geometry":{"type":"Point","coordinates":[-105.2699,40.9577]},"properties":{"s":5.9,"pub":false}},{"type":"Feature","geometry":{"type":"Point","coordinates":[-105.2699,40.9635]},"properties":{"s":5.9,"pub":false}},{"type":"Feature","geometry":{"type":"Point","coordinates":[-105.2699,40.9693]},"properties":{"s":41.2,"pub":false}},{"type":"Feature","geometry":{"type":"Point","coordinates":[-105.2699,40.9751]},"properties":{"s":41.2,"pub":false}},{"type":"Feature","geometry":{"type":"Point","coordinates":[-105.2699,40.9809]},"properties":{"s":88.2,"pub":false}},{"type":"Feature","geometry":{"type":"Point","coordinates":[-105.2699,40.9867]},"properties":{"s":88.2,"pub":false}},{"type":"Feature","geometry":{"type":"Point","coordinates":[-105.2699,40.9925]},"properties":{"s":88.2,"pub":false}},{"type":"Feature","geometry":{"type":"Point","coordinates":[-105.2624,40.9113]},"properties":{"s":5.9,"pub":false}},{"type":"Feature","geometry":{"type":"Point","coordinates":[-105.2624,40.9171]},"properties":{"s":5.9,"pub":false}},{"type":"Feature","geometry":{"type":"Point","coordinates":[-105.2624,40.9229]},"properties":{"s":5.9,"pub":false}},{"type":"Feature","geometry":{"type":"Point","coordinates":[-105.2624,40.9287]},"properties":{"s":5.9,"pub":false}},{"type":"Feature","geometry":{"type":"Point","coordinates":[-105.2624,40.9345]},"properties":{"s":5.9,"pub":false}},{"type":"Feature","geometry":{"type":"Point","coordinates":[-105.2624,40.9403]},"properties":{"s":5.9,"pub":false}},{"type":"Feature","geometry":{"type":"Point","coordinates":[-105.2624,40.9461]},"properties":{"s":5.9,"pub":false}},{"type":"Feature","geometry":{"type":"Point","coordinates":[-105.2624,40.9519]},"properties":{"s":5.9,"pub":false}},{"type":"Feature","geometry":{"type":"Point","coordinates":[-105.2624,40.9577]},"properties":{"s":5.9,"pub":false}},{"type":"Feature","geometry":{"type":"Point","coordinates":[-105.2624,40.9635]},"properties":{"s":41.2,"pub":false}},{"type":"Feature","geometry":{"type":"Point","coordinates":[-105.2624,40.9693]},"properties":{"s":41.2,"pub":false}},{"type":"Feature","geometry":{"type":"Point","coordinates":[-105.2624,40.9751]},"properties":{"s":88.2,"pub":false}},{"type":"Feature","geometry":{"type":"Point","coordinates":[-105.2624,40.9809]},"properties":{"s":88.2,"pub":false}},{"type":"Feature","geometry":{"type":"Point","coordinates":[-105.2624,40.9867]},"properties":{"s":88.2,"pub":false}},{"type":"Feature","geometry":{"type":"Point","coordinates":[-105.2624,40.9925]},"properties":{"s":88.2,"pub":false}},{"type":"Feature","geometry":{"type":"Point","coordinates":[-105.2549,40.9055]},"properties":{"s":5.9,"pub":false}},{"type":"Feature","geometry":{"type":"Point","coordinates":[-105.2549,40.9113]},"properties":{"s":5.9,"pub":false}},{"type":"Feature","geometry":{"type":"Point","coordinates":[-105.2549,40.9171]},"properties":{"s":5.9,"pub":false}},{"type":"Feature","geometry":{"type":"Point","coordinates":[-105.2549,40.9229]},"properties":{"s":5.9,"pub":false}},{"type":"Feature","geometry":{"type":"Point","coordinates":[-105.2549,40.9287]},"properties":{"s":5.9,"pub":false}},{"type":"Feature","geometry":{"type":"Point","coordinates":[-105.2549,40.9345]},"properties":{"s":5.9,"pub":false}},{"type":"Feature","geometry":{"type":"Point","coordinates":[-105.2549,40.9403]},"properties":{"s":5.9,"pub":false}},{"type":"Feature","geometry":{"type":"Point","coordinates":[-105.2549,40.9461]},"properties":{"s":5.9,"pub":false}},{"type":"Feature","geometry":{"type":"Point","coordinates":[-105.2549,40.9519]},"properties":{"s":5.9,"pub":false}},{"type":"Feature","geometry":{"type":"Point","coordinates":[-105.2549,40.9577]},"properties":{"s":41.2,"pub":false}},{"type":"Feature","geometry":{"type":"Point","coordinates":[-105.2549,40.9635]},"properties":{"s":41.2,"pub":false}},{"type":"Feature","geometry":{"type":"Point","coordinates":[-105.2549,40.9693]},"properties":{"s":41.2,"pub":false}},{"type":"Feature","geometry":{"type":"Point","coordinates":[-105.2549,40.9751]},"properties":{"s":88.2,"pub":false}},{"type":"Feature","geometry":{"type":"Point","coordinates":[-105.2549,40.9809]},"properties":{"s":88.2,"pub":false}},{"type":"Feature","geometry":{"type":"Point","coordinates":[-105.2549,40.9867]},"properties":{"s":88.2,"pub":false}},{"type":"Feature","geometry":{"type":"Point","coordinates":[-105.2549,40.9925]},"properties":{"s":88.2,"pub":false}},{"type":"Feature","geometry":{"type":"Point","coordinates":[-105.2474,40.8939]},"properties":{"s":5.9,"pub":false}},{"type":"Feature","geometry":{"type":"Point","coordinates":[-105.2474,40.8997]},"properties":{"s":5.9,"pub":false}},{"type":"Feature","geometry":{"type":"Point","coordinates":[-105.2474,40.9055]},"properties":{"s":5.9,"pub":false}},{"type":"Feature","geometry":{"type":"Point","coordinates":[-105.2474,40.9113]},"properties":{"s":5.9,"pub":false}},{"type":"Feature","geometry":{"type":"Point","coordinates":[-105.2474,40.9171]},"properties":{"s":5.9,"pub":false}},{"type":"Feature","geometry":{"type":"Point","coordinates":[-105.2474,40.9229]},"properties":{"s":5.9,"pub":true}},{"type":"Feature","geometry":{"type":"Point","coordinates":[-105.2474,40.9287]},"properties":{"s":5.9,"pub":true}},{"type":"Feature","geometry":{"type":"Point","coordinates":[-105.2474,40.9345]},"properties":{"s":5.9,"pub":false}},{"type":"Feature","geometry":{"type":"Point","coordinates":[-105.2474,40.9403]},"properties":{"s":5.9,"pub":false}},{"type":"Feature","geometry":{"type":"Point","coordinates":[-105.2474,40.9461]},"properties":{"s":5.9,"pub":false}},{"type":"Feature","geometry":{"type":"Point","coordinates":[-105.2474,40.9519]},"properties":{"s":5.9,"pub":false}},{"type":"Feature","geometry":{"type":"Point","coordinates":[-105.2474,40.9577]},"properties":{"s":41.2,"pub":false}},{"type":"Feature","geometry":{"type":"Point","coordinates":[-105.2474,40.9635]},"properties":{"s":41.2,"pub":false}},{"type":"Feature","geometry":{"type":"Point","coordinates":[-105.2474,40.9693]},"properties":{"s":88.2,"pub":false}},{"type":"Feature","geometry":{"type":"Point","coordinates":[-105.2474,40.9751]},"properties":{"s":88.2,"pub":false}},{"type":"Feature","geometry":{"type":"Point","coordinates":[-105.2474,40.9809]},"properties":{"s":88.2,"pub":false}},{"type":"Feature","geometry":{"type":"Point","coordinates":[-105.2474,40.9867]},"properties":{"s":88.2,"pub":false}},{"type":"Feature","geometry":{"type":"Point","coordinates":[-105.2474,40.9925]},"properties":{"s":88.2,"pub":false}},{"type":"Feature","geometry":{"type":"Point","coordinates":[-105.2474,40.9983]},"properties":{"s":88.2,"pub":false}},{"type":"Feature","geometry":{"type":"Point","coordinates":[-105.2399,40.8823]},"properties":{"s":5.9,"pub":false}},{"type":"Feature","geometry":{"type":"Point","coordinates":[-105.2399,40.8881]},"properties":{"s":5.9,"pub":false}},{"type":"Feature","geometry":{"type":"Point","coordinates":[-105.2399,40.8939]},"properties":{"s":5.9,"pub":false}},{"type":"Feature","geometry":{"type":"Point","coordinates":[-105.2399,40.8997]},"properties":{"s":5.9,"pub":false}},{"type":"Feature","geometry":{"type":"Point","coordinates":[-105.2399,40.9055]},"properties":{"s":5.9,"pub":false}},{"type":"Feature","geometry":{"type":"Point","coordinates":[-105.2399,40.9113]},"properties":{"s":5.9,"pub":false}},{"type":"Feature","geometry":{"type":"Point","coordinates":[-105.2399,40.9171]},"properties":{"s":5.9,"pub":false}},{"type":"Feature","geometry":{"type":"Point","coordinates":[-105.2399,40.9229]},"properties":{"s":5.9,"pub":true}},{"type":"Feature","geometry":{"type":"Point","coordinates":[-105.2399,40.9287]},"properties":{"s":5.9,"pub":true}},{"type":"Feature","geometry":{"type":"Point","coordinates":[-105.2399,40.9345]},"properties":{"s":5.9,"pub":false}},{"type":"Feature","geometry":{"type":"Point","coordinates":[-105.2399,40.9403]},"properties":{"s":5.9,"pub":false}},{"type":"Feature","geometry":{"type":"Point","coordinates":[-105.2399,40.9461]},"properties":{"s":5.9,"pub":false}},{"type":"Feature","geometry":{"type":"Point","coordinates":[-105.2399,40.9519]},"properties":{"s":41.2,"pub":false}},{"type":"Feature","geometry":{"type":"Point","coordinates":[-105.2399,40.9577]},"properties":{"s":88.2,"pub":false}},{"type":"Feature","geometry":{"type":"Point","coordinates":[-105.2399,40.9635]},"properties":{"s":88.2,"pub":false}},{"type":"Feature","geometry":{"type":"Point","coordinates":[-105.2399,40.9693]},"properties":{"s":88.2,"pub":false}},{"type":"Feature","geometry":{"type":"Point","coordinates":[-105.2399,40.9751]},"properties":{"s":88.2,"pub":false}},{"type":"Feature","geometry":{"type":"Point","coordinates":[-105.2399,40.9809]},"properties":{"s":88.2,"pub":false}},{"type":"Feature","geometry":{"type":"Point","coordinates":[-105.2399,40.9867]},"properties":{"s":88.2,"pub":false}},{"type":"Feature","geometry":{"type":"Point","coordinates":[-105.2399,40.9925]},"properties":{"s":88.2,"pub":false}},{"type":"Feature","geometry":{"type":"Point","coordinates":[-105.2399,40.9983]},"properties":{"s":88.2,"pub":false}},{"type":"Feature","geometry":{"type":"Point","coordinates":[-105.2324,40.8707]},"properties":{"s":5.9,"pub":false}},{"type":"Feature","geometry":{"type":"Point","coordinates":[-105.2324,40.8765]},"properties":{"s":5.9,"pub":false}},{"type":"Feature","geometry":{"type":"Point","coordinates":[-105.2324,40.8823]},"properties":{"s":5.9,"pub":false}},{"type":"Feature","geometry":{"type":"Point","coordinates":[-105.2324,40.8881]},"properties":{"s":5.9,"pub":false}},{"type":"Feature","geometry":{"type":"Point","coordinates":[-105.2324,40.8939]},"properties":{"s":5.9,"pub":false}},{"type":"Feature","geometry":{"type":"Point","coordinates":[-105.2324,40.8997]},"properties":{"s":5.9,"pub":false}},{"type":"Feature","geometry":{"type":"Point","coordinates":[-105.2324,40.9055]},"properties":{"s":5.9,"pub":false}},{"type":"Feature","geometry":{"type":"Point","coordinates":[-105.2324,40.9113]},"properties":{"s":5.9,"pub":false}},{"type":"Feature","geometry":{"type":"Point","coordinates":[-105.2324,40.9171]},"properties":{"s":5.9,"pub":false}},{"type":"Feature","geometry":{"type":"Point","coordinates":[-105.2324,40.9229]},"properties":{"s":5.9,"pub":true}},{"type":"Feature","geometry":{"type":"Point","coordinates":[-105.2324,40.9287]},"properties":{"s":5.9,"pub":true}},{"type":"Feature","geometry":{"type":"Point","coordinates":[-105.2324,40.9345]},"properties":{"s":5.9,"pub":false}},{"type":"Feature","geometry":{"type":"Point","coordinates":[-105.2324,40.9403]},"properties":{"s":5.9,"pub":false}},{"type":"Feature","geometry":{"type":"Point","coordinates":[-105.2324,40.9461]},"properties":{"s":5.9,"pub":false}},{"type":"Feature","geometry":{"type":"Point","coordinates":[-105.2324,40.9519]},"properties":{"s":88.2,"pub":false}},{"type":"Feature","geometry":{"type":"Point","coordinates":[-105.2324,40.9577]},"properties":{"s":88.2,"pub":false}},{"type":"Feature","geometry":{"type":"Point","coordinates":[-105.2324,40.9635]},"properties":{"s":88.2,"pub":false}},{"type":"Feature","geometry":{"type":"Point","coordinates":[-105.2324,40.9693]},"properties":{"s":88.2,"pub":false}},{"type":"Feature","geometry":{"type":"Point","coordinates":[-105.2324,40.9751]},"properties":{"s":88.2,"pub":false}},{"type":"Feature","geometry":{"type":"Point","coordinates":[-105.2324,40.9809]},"properties":{"s":88.2,"pub":false}},{"type":"Feature","geometry":{"type":"Point","coordinates":[-105.2324,40.9867]},"properties":{"s":88.2,"pub":false}},{"type":"Feature","geometry":{"type":"Point","coordinates":[-105.2324,40.9925]},"properties":{"s":88.2,"pub":false}},{"type":"Feature","geometry":{"type":"Point","coordinates":[-105.2324,40.9983]},"properties":{"s":88.2,"pub":false}},{"type":"Feature","geometry":{"type":"Point","coordinates":[-105.2249,40.8707]},"properties":{"s":5.9,"pub":false}},{"type":"Feature","geometry":{"type":"Point","coordinates":[-105.2249,40.8765]},"properties":{"s":5.9,"pub":false}},{"type":"Feature","geometry":{"type":"Point","coordinates":[-105.2249,40.8823]},"properties":{"s":5.9,"pub":false}},{"type":"Feature","geometry":{"type":"Point","coordinates":[-105.2249,40.8881]},"properties":{"s":5.9,"pub":false}},{"type":"Feature","geometry":{"type":"Point","coordinates":[-105.2249,40.8939]},"properties":{"s":5.9,"pub":false}},{"type":"Feature","geometry":{"type":"Point","coordinates":[-105.2249,40.8997]},"properties":{"s":5.9,"pub":false}},{"type":"Feature","geometry":{"type":"Point","coordinates":[-105.2249,40.9055]},"properties":{"s":5.9,"pub":false}},{"type":"Feature","geometry":{"type":"Point","coordinates":[-105.2249,40.9113]},"properties":{"s":5.9,"pub":false}},{"type":"Feature","geometry":{"type":"Point","coordinates":[-105.2249,40.9171]},"properties":{"s":5.9,"pub":false}},{"type":"Feature","geometry":{"type":"Point","coordinates":[-105.2249,40.9229]},"properties":{"s":5.9,"pub":false}},{"type":"Feature","geometry":{"type":"Point","coordinates":[-105.2249,40.9287]},"properties":{"s":5.9,"pub":false}},{"type":"Feature","geometry":{"type":"Point","coordinates":[-105.2249,40.9345]},"properties":{"s":5.9,"pub":false}},{"type":"Feature","geometry":{"type":"Point","coordinates":[-105.2249,40.9403]},"properties":{"s":52.9,"pub":false}},{"type":"Feature","geometry":{"type":"Point","coordinates":[-105.2249,40.9461]},"properties":{"s":88.2,"pub":false}},{"type":"Feature","geometry":{"type":"Point","coordinates":[-105.2249,40.9519]},"properties":{"s":88.2,"pub":false}},{"type":"Feature","geometry":{"type":"Point","coordinates":[-105.2249,40.9577]},"properties":{"s":88.2,"pub":false}},{"type":"Feature","geometry":{"type":"Point","coordinates":[-105.2249,40.9635]},"properties":{"s":88.2,"pub":false}},{"type":"Feature","geometry":{"type":"Point","coordinates":[-105.2249,40.9693]},"properties":{"s":88.2,"pub":false}},{"type":"Feature","geometry":{"type":"Point","coordinates":[-105.2249,40.9751]},"properties":{"s":88.2,"pub":false}},{"type":"Feature","geometry":{"type":"Point","coordinates":[-105.2249,40.9809]},"properties":{"s":88.2,"pub":false}},{"type":"Feature","geometry":{"type":"Point","coordinates":[-105.2249,40.9867]},"properties":{"s":88.2,"pub":false}},{"type":"Feature","geometry":{"type":"Point","coordinates":[-105.2249,40.9925]},"properties":{"s":88.2,"pub":false}},{"type":"Feature","geometry":{"type":"Point","coordinates":[-105.2249,40.9983]},"properties":{"s":88.2,"pub":false}},{"type":"Feature","geometry":{"type":"Point","coordinates":[-105.2174,40.8707]},"properties":{"s":5.9,"pub":false}},{"type":"Feature","geometry":{"type":"Point","coordinates":[-105.2174,40.8765]},"properties":{"s":5.9,"pub":false}},{"type":"Feature","geometry":{"type":"Point","coordinates":[-105.2174,40.8823]},"properties":{"s":5.9,"pub":false}},{"type":"Feature","geometry":{"type":"Point","coordinates":[-105.2174,40.8881]},"properties":{"s":5.9,"pub":false}},{"type":"Feature","geometry":{"type":"Point","coordinates":[-105.2174,40.8939]},"properties":{"s":5.9,"pub":false}},{"type":"Feature","geometry":{"type":"Point","coordinates":[-105.2174,40.8997]},"properties":{"s":52.9,"pub":false}},{"type":"Feature","geometry":{"type":"Point","coordinates":[-105.2174,40.9055]},"properties":{"s":52.9,"pub":false}},{"type":"Feature","geometry":{"type":"Point","coordinates":[-105.2174,40.9113]},"properties":{"s":52.9,"pub":false}},{"type":"Feature","geometry":{"type":"Point","coordinates":[-105.2174,40.9171]},"properties":{"s":5.9,"pub":false}},{"type":"Feature","geometry":{"type":"Point","coordinates":[-105.2174,40.9229]},"properties":{"s":5.9,"pub":false}},{"type":"Feature","geometry":{"type":"Point","coordinates":[-105.2174,40.9287]},"properties":{"s":52.9,"pub":false}},{"type":"Feature","geometry":{"type":"Point","coordinates":[-105.2174,40.9345]},"properties":{"s":52.9,"pub":false}},{"type":"Feature","geometry":{"type":"Point","coordinates":[-105.2174,40.9403]},"properties":{"s":52.9,"pub":false}},{"type":"Feature","geometry":{"type":"Point","coordinates":[-105.2174,40.9461]},"properties":{"s":88.2,"pub":false}},{"type":"Feature","geometry":{"type":"Point","coordinates":[-105.2174,40.9519]},"properties":{"s":88.2,"pub":false}},{"type":"Feature","geometry":{"type":"Point","coordinates":[-105.2174,40.9577]},"properties":{"s":88.2,"pub":false}},{"type":"Feature","geometry":{"type":"Point","coordinates":[-105.2174,40.9635]},"properties":{"s":88.2,"pub":false}},{"type":"Feature","geometry":{"type":"Point","coordinates":[-105.2174,40.9693]},"properties":{"s":88.2,"pub":false}},{"type":"Feature","geometry":{"type":"Point","coordinates":[-105.2174,40.9751]},"properties":{"s":88.2,"pub":false}},{"type":"Feature","geometry":{"type":"Point","coordinates":[-105.2174,40.9809]},"properties":{"s":88.2,"pub":false}},{"type":"Feature","geometry":{"type":"Point","coordinates":[-105.2174,40.9867]},"properties":{"s":88.2,"pub":false}},{"type":"Feature","geometry":{"type":"Point","coordinates":[-105.2174,40.9925]},"properties":{"s":88.2,"pub":false}},{"type":"Feature","geometry":{"type":"Point","coordinates":[-105.2174,40.9983]},"properties":{"s":88.2,"pub":false}},{"type":"Feature","geometry":{"type":"Point","coordinates":[-105.2099,40.8707]},"properties":{"s":5.9,"pub":false}},{"type":"Feature","geometry":{"type":"Point","coordinates":[-105.2099,40.8765]},"properties":{"s":5.9,"pub":false}},{"type":"Feature","geometry":{"type":"Point","coordinates":[-105.2099,40.8823]},"properties":{"s":5.9,"pub":false}},{"type":"Feature","geometry":{"type":"Point","coordinates":[-105.2099,40.8881]},"properties":{"s":5.9,"pub":false}},{"type":"Feature","geometry":{"type":"Point","coordinates":[-105.2099,40.8939]},"properties":{"s":52.9,"pub":false}},{"type":"Feature","geometry":{"type":"Point","coordinates":[-105.2099,40.8997]},"properties":{"s":52.9,"pub":false}},{"type":"Feature","geometry":{"type":"Point","coordinates":[-105.2099,40.9055]},"properties":{"s":52.9,"pub":false}},{"type":"Feature","geometry":{"type":"Point","coordinates":[-105.2099,40.9113]},"properties":{"s":52.9,"pub":false}},{"type":"Feature","geometry":{"type":"Point","coordinates":[-105.2099,40.9171]},"properties":{"s":52.9,"pub":false}},{"type":"Feature","geometry":{"type":"Point","coordinates":[-105.2099,40.9229]},"properties":{"s":52.9,"pub":false}},{"type":"Feature","geometry":{"type":"Point","coordinates":[-105.2099,40.9287]},"properties":{"s":52.9,"pub":false}},{"type":"Feature","geometry":{"type":"Point","coordinates":[-105.2099,40.9345]},"properties":{"s":52.9,"pub":false}},{"type":"Feature","geometry":{"type":"Point","coordinates":[-105.2099,40.9403]},"properties":{"s":88.2,"pub":false}},{"type":"Feature","geometry":{"type":"Point","coordinates":[-105.2099,40.9461]},"properties":{"s":88.2,"pub":false}},{"type":"Feature","geometry":{"type":"Point","coordinates":[-105.2099,40.9519]},"properties":{"s":88.2,"pub":false}},{"type":"Feature","geometry":{"type":"Point","coordinates":[-105.2099,40.9577]},"properties":{"s":88.2,"pub":false}},{"type":"Feature","geometry":{"type":"Point","coordinates":[-105.2099,40.9635]},"properties":{"s":88.2,"pub":false}},{"type":"Feature","geometry":{"type":"Point","coordinates":[-105.2099,40.9693]},"properties":{"s":88.2,"pub":false}},{"type":"Feature","geometry":{"type":"Point","coordinates":[-105.2099,40.9751]},"properties":{"s":88.2,"pub":false}},{"type":"Feature","geometry":{"type":"Point","coordinates":[-105.2099,40.9809]},"properties":{"s":88.2,"pub":false}},{"type":"Feature","geometry":{"type":"Point","coordinates":[-105.2099,40.9867]},"properties":{"s":88.2,"pub":false}},{"type":"Feature","geometry":{"type":"Point","coordinates":[-105.2099,40.9925]},"properties":{"s":88.2,"pub":false}},{"type":"Feature","geometry":{"type":"Point","coordinates":[-105.2099,40.9983]},"properties":{"s":88.2,"pub":false}},{"type":"Feature","geometry":{"type":"Point","coordinates":[-105.2024,40.8649]},"properties":{"s":5.9,"pub":false}},{"type":"Feature","geometry":{"type":"Point","coordinates":[-105.2024,40.8707]},"properties":{"s":5.9,"pub":false}},{"type":"Feature","geometry":{"type":"Point","coordinates":[-105.2024,40.8765]},"properties":{"s":5.9,"pub":false}},{"type":"Feature","geometry":{"type":"Point","coordinates":[-105.2024,40.8823]},"properties":{"s":5.9,"pub":false}},{"type":"Feature","geometry":{"type":"Point","coordinates":[-105.2024,40.8881]},"properties":{"s":52.9,"pub":false}},{"type":"Feature","geometry":{"type":"Point","coordinates":[-105.2024,40.8939]},"properties":{"s":52.9,"pub":false}},{"type":"Feature","geometry":{"type":"Point","coordinates":[-105.2024,40.8997]},"properties":{"s":52.9,"pub":false}},{"type":"Feature","geometry":{"type":"Point","coordinates":[-105.2024,40.9055]},"properties":{"s":52.9,"pub":false}},{"type":"Feature","geometry":{"type":"Point","coordinates":[-105.2024,40.9113]},"properties":{"s":52.9,"pub":false}},{"type":"Feature","geometry":{"type":"Point","coordinates":[-105.2024,40.9171]},"properties":{"s":52.9,"pub":false}},{"type":"Feature","geometry":{"type":"Point","coordinates":[-105.2024,40.9229]},"properties":{"s":52.9,"pub":false}},{"type":"Feature","geometry":{"type":"Point","coordinates":[-105.2024,40.9287]},"properties":{"s":52.9,"pub":false}},{"type":"Feature","geometry":{"type":"Point","coordinates":[-105.2024,40.9345]},"properties":{"s":52.9,"pub":false}},{"type":"Feature","geometry":{"type":"Point","coordinates":[-105.2024,40.9403]},"properties":{"s":88.2,"pub":false}},{"type":"Feature","geometry":{"type":"Point","coordinates":[-105.2024,40.9461]},"properties":{"s":88.2,"pub":false}},{"type":"Feature","geometry":{"type":"Point","coordinates":[-105.2024,40.9519]},"properties":{"s":88.2,"pub":false}},{"type":"Feature","geometry":{"type":"Point","coordinates":[-105.2024,40.9577]},"properties":{"s":88.2,"pub":false}},{"type":"Feature","geometry":{"type":"Point","coordinates":[-105.2024,40.9635]},"properties":{"s":88.2,"pub":false}},{"type":"Feature","geometry":{"type":"Point","coordinates":[-105.2024,40.9693]},"properties":{"s":88.2,"pub":false}},{"type":"Feature","geometry":{"type":"Point","coordinates":[-105.2024,40.9751]},"properties":{"s":88.2,"pub":false}},{"type":"Feature","geometry":{"type":"Point","coordinates":[-105.2024,40.9809]},"properties":{"s":88.2,"pub":false}},{"type":"Feature","geometry":{"type":"Point","coordinates":[-105.2024,40.9867]},"properties":{"s":88.2,"pub":false}},{"type":"Feature","geometry":{"type":"Point","coordinates":[-105.2024,40.9925]},"properties":{"s":88.2,"pub":false}},{"type":"Feature","geometry":{"type":"Point","coordinates":[-105.2024,40.9983]},"properties":{"s":88.2,"pub":false}},{"type":"Feature","geometry":{"type":"Point","coordinates":[-105.1949,40.8649]},"properties":{"s":5.9,"pub":false}},{"type":"Feature","geometry":{"type":"Point","coordinates":[-105.1949,40.8707]},"properties":{"s":5.9,"pub":false}},{"type":"Feature","geometry":{"type":"Point","coordinates":[-105.1949,40.8765]},"properties":{"s":5.9,"pub":false}},{"type":"Feature","geometry":{"type":"Point","coordinates":[-105.1949,40.8823]},"properties":{"s":52.9,"pub":false}},{"type":"Feature","geometry":{"type":"Point","coordinates":[-105.1949,40.8881]},"properties":{"s":52.9,"pub":false}},{"type":"Feature","geometry":{"type":"Point","coordinates":[-105.1949,40.8939]},"properties":{"s":52.9,"pub":false}},{"type":"Feature","geometry":{"type":"Point","coordinates":[-105.1949,40.8997]},"properties":{"s":52.9,"pub":false}},{"type":"Feature","geometry":{"type":"Point","coordinates":[-105.1949,40.9055]},"properties":{"s":52.9,"pub":false}},{"type":"Feature","geometry":{"type":"Point","coordinates":[-105.1949,40.9113]},"properties":{"s":52.9,"pub":false}},{"type":"Feature","geometry":{"type":"Point","coordinates":[-105.1949,40.9171]},"properties":{"s":52.9,"pub":false}},{"type":"Feature","geometry":{"type":"Point","coordinates":[-105.1949,40.9229]},"properties":{"s":52.9,"pub":false}},{"type":"Feature","geometry":{"type":"Point","coordinates":[-105.1949,40.9287]},"properties":{"s":52.9,"pub":false}},{"type":"Feature","geometry":{"type":"Point","coordinates":[-105.1949,40.9345]},"properties":{"s":88.2,"pub":false}},{"type":"Feature","geometry":{"type":"Point","coordinates":[-105.1949,40.9403]},"properties":{"s":88.2,"pub":false}},{"type":"Feature","geometry":{"type":"Point","coordinates":[-105.1949,40.9461]},"properties":{"s":88.2,"pub":false}},{"type":"Feature","geometry":{"type":"Point","coordinates":[-105.1949,40.9519]},"properties":{"s":88.2,"pub":false}},{"type":"Feature","geometry":{"type":"Point","coordinates":[-105.1949,40.9577]},"properties":{"s":88.2,"pub":false}},{"type":"Feature","geometry":{"type":"Point","coordinates":[-105.1949,40.9635]},"properties":{"s":88.2,"pub":false}},{"type":"Feature","geometry":{"type":"Point","coordinates":[-105.1949,40.9693]},"properties":{"s":88.2,"pub":false}},{"type":"Feature","geometry":{"type":"Point","coordinates":[-105.1949,40.9751]},"properties":{"s":88.2,"pub":false}},{"type":"Feature","geometry":{"type":"Point","coordinates":[-105.1949,40.9809]},"properties":{"s":88.2,"pub":false}},{"type":"Feature","geometry":{"type":"Point","coordinates":[-105.1949,40.9867]},"properties":{"s":88.2,"pub":false}},{"type":"Feature","geometry":{"type":"Point","coordinates":[-105.1949,40.9925]},"properties":{"s":88.2,"pub":false}},{"type":"Feature","geometry":{"type":"Point","coordinates":[-105.1949,40.9983]},"properties":{"s":88.2,"pub":false}},{"type":"Feature","geometry":{"type":"Point","coordinates":[-105.1874,40.8127]},"properties":{"s":5.9,"pub":false}},{"type":"Feature","geometry":{"type":"Point","coordinates":[-105.1874,40.8185]},"properties":{"s":5.9,"pub":false}},{"type":"Feature","geometry":{"type":"Point","coordinates":[-105.1874,40.8243]},"properties":{"s":5.9,"pub":false}},{"type":"Feature","geometry":{"type":"Point","coordinates":[-105.1874,40.8301]},"properties":{"s":5.9,"pub":false}},{"type":"Feature","geometry":{"type":"Point","coordinates":[-105.1874,40.8649]},"properties":{"s":5.9,"pub":false}},{"type":"Feature","geometry":{"type":"Point","coordinates":[-105.1874,40.8707]},"properties":{"s":5.9,"pub":true}},{"type":"Feature","geometry":{"type":"Point","coordinates":[-105.1874,40.8765]},"properties":{"s":52.9,"pub":true}},{"type":"Feature","geometry":{"type":"Point","coordinates":[-105.1874,40.8823]},"properties":{"s":52.9,"pub":true}},{"type":"Feature","geometry":{"type":"Point","coordinates":[-105.1874,40.8881]},"properties":{"s":52.9,"pub":false}},{"type":"Feature","geometry":{"type":"Point","coordinates":[-105.1874,40.8939]},"properties":{"s":52.9,"pub":false}},{"type":"Feature","geometry":{"type":"Point","coordinates":[-105.1874,40.8997]},"properties":{"s":52.9,"pub":false}},{"type":"Feature","geometry":{"type":"Point","coordinates":[-105.1874,40.9055]},"properties":{"s":52.9,"pub":false}},{"type":"Feature","geometry":{"type":"Point","coordinates":[-105.1874,40.9113]},"properties":{"s":52.9,"pub":false}},{"type":"Feature","geometry":{"type":"Point","coordinates":[-105.1874,40.9171]},"properties":{"s":52.9,"pub":false}},{"type":"Feature","geometry":{"type":"Point","coordinates":[-105.1874,40.9229]},"properties":{"s":5.9,"pub":false}},{"type":"Feature","geometry":{"type":"Point","coordinates":[-105.1874,40.9287]},"properties":{"s":5.9,"pub":false}},{"type":"Feature","geometry":{"type":"Point","coordinates":[-105.1874,40.9345]},"properties":{"s":41.2,"pub":false}},{"type":"Feature","geometry":{"type":"Point","coordinates":[-105.1874,40.9403]},"properties":{"s":88.2,"pub":false}},{"type":"Feature","geometry":{"type":"Point","coordinates":[-105.1874,40.9461]},"properties":{"s":88.2,"pub":false}},{"type":"Feature","geometry":{"type":"Point","coordinates":[-105.1874,40.9519]},"properties":{"s":88.2,"pub":false}},{"type":"Feature","geometry":{"type":"Point","coordinates":[-105.1874,40.9577]},"properties":{"s":88.2,"pub":false}},{"type":"Feature","geometry":{"type":"Point","coordinates":[-105.1874,40.9635]},"properties":{"s":88.2,"pub":false}},{"type":"Feature","geometry":{"type":"Point","coordinates":[-105.1874,40.9693]},"properties":{"s":88.2,"pub":false}},{"type":"Feature","geometry":{"type":"Point","coordinates":[-105.1874,40.9751]},"properties":{"s":88.2,"pub":false}},{"type":"Feature","geometry":{"type":"Point","coordinates":[-105.1874,40.9809]},"properties":{"s":88.2,"pub":false}},{"type":"Feature","geometry":{"type":"Point","coordinates":[-105.1874,40.9867]},"properties":{"s":88.2,"pub":false}},{"type":"Feature","geometry":{"type":"Point","coordinates":[-105.1874,40.9925]},"properties":{"s":88.2,"pub":false}},{"type":"Feature","geometry":{"type":"Point","coordinates":[-105.1874,40.9983]},"properties":{"s":88.2,"pub":false}},{"type":"Feature","geometry":{"type":"Point","coordinates":[-105.1799,40.8127]},"properties":{"s":5.9,"pub":false}},{"type":"Feature","geometry":{"type":"Point","coordinates":[-105.1799,40.8185]},"properties":{"s":5.9,"pub":false}},{"type":"Feature","geometry":{"type":"Point","coordinates":[-105.1799,40.8243]},"properties":{"s":5.9,"pub":false}},{"type":"Feature","geometry":{"type":"Point","coordinates":[-105.1799,40.8301]},"properties":{"s":5.9,"pub":false}},{"type":"Feature","geometry":{"type":"Point","coordinates":[-105.1799,40.8359]},"properties":{"s":5.9,"pub":false}},{"type":"Feature","geometry":{"type":"Point","coordinates":[-105.1799,40.8591]},"properties":{"s":5.9,"pub":false}},{"type":"Feature","geometry":{"type":"Point","coordinates":[-105.1799,40.8649]},"properties":{"s":5.9,"pub":false}},{"type":"Feature","geometry":{"type":"Point","coordinates":[-105.1799,40.8707]},"properties":{"s":5.9,"pub":true}},{"type":"Feature","geometry":{"type":"Point","coordinates":[-105.1799,40.8765]},"properties":{"s":52.9,"pub":true}},{"type":"Feature","geometry":{"type":"Point","coordinates":[-105.1799,40.8823]},"properties":{"s":52.9,"pub":true}},{"type":"Feature","geometry":{"type":"Point","coordinates":[-105.1799,40.8881]},"properties":{"s":52.9,"pub":false}},{"type":"Feature","geometry":{"type":"Point","coordinates":[-105.1799,40.8939]},"properties":{"s":52.9,"pub":false}},{"type":"Feature","geometry":{"type":"Point","coordinates":[-105.1799,40.8997]},"properties":{"s":52.9,"pub":false}},{"type":"Feature","geometry":{"type":"Point","coordinates":[-105.1799,40.9055]},"properties":{"s":52.9,"pub":false}},{"type":"Feature","geometry":{"type":"Point","coordinates":[-105.1799,40.9113]},"properties":{"s":52.9,"pub":false}},{"type":"Feature","geometry":{"type":"Point","coordinates":[-105.1799,40.9171]},"properties":{"s":5.9,"pub":false}},{"type":"Feature","geometry":{"type":"Point","coordinates":[-105.1799,40.9229]},"properties":{"s":5.9,"pub":false}},{"type":"Feature","geometry":{"type":"Point","coordinates":[-105.1799,40.9287]},"properties":{"s":5.9,"pub":false}},{"type":"Feature","geometry":{"type":"Point","coordinates":[-105.1799,40.9345]},"properties":{"s":41.2,"pub":false}},{"type":"Feature","geometry":{"type":"Point","coordinates":[-105.1799,40.9403]},"properties":{"s":41.2,"pub":false}},{"type":"Feature","geometry":{"type":"Point","coordinates":[-105.1799,40.9461]},"properties":{"s":41.2,"pub":false}},{"type":"Feature","geometry":{"type":"Point","coordinates":[-105.1799,40.9519]},"properties":{"s":88.2,"pub":false}},{"type":"Feature","geometry":{"type":"Point","coordinates":[-105.1799,40.9577]},"properties":{"s":88.2,"pub":false}},{"type":"Feature","geometry":{"type":"Point","coordinates":[-105.1799,40.9635]},"properties":{"s":88.2,"pub":false}},{"type":"Feature","geometry":{"type":"Point","coordinates":[-105.1799,40.9693]},"properties":{"s":88.2,"pub":false}},{"type":"Feature","geometry":{"type":"Point","coordinates":[-105.1799,40.9751]},"properties":{"s":41.2,"pub":false}},{"type":"Feature","geometry":{"type":"Point","coordinates":[-105.1799,40.9809]},"properties":{"s":41.2,"pub":false}},{"type":"Feature","geometry":{"type":"Point","coordinates":[-105.1799,40.9867]},"properties":{"s":41.2,"pub":false}},{"type":"Feature","geometry":{"type":"Point","coordinates":[-105.1799,40.9925]},"properties":{"s":41.2,"pub":false}},{"type":"Feature","geometry":{"type":"Point","coordinates":[-105.1799,40.9983]},"properties":{"s":41.2,"pub":false}},{"type":"Feature","geometry":{"type":"Point","coordinates":[-105.1724,40.8069]},"properties":{"s":5.9,"pub":false}},{"type":"Feature","geometry":{"type":"Point","coordinates":[-105.1724,40.8127]},"properties":{"s":5.9,"pub":false}},{"type":"Feature","geometry":{"type":"Point","coordinates":[-105.1724,40.8185]},"properties":{"s":5.9,"pub":false}},{"type":"Feature","geometry":{"type":"Point","coordinates":[-105.1724,40.8243]},"properties":{"s":5.9,"pub":false}},{"type":"Feature","geometry":{"type":"Point","coordinates":[-105.1724,40.8301]},"properties":{"s":5.9,"pub":false}},{"type":"Feature","geometry":{"type":"Point","coordinates":[-105.1724,40.8359]},"properties":{"s":5.9,"pub":false}},{"type":"Feature","geometry":{"type":"Point","coordinates":[-105.1724,40.8591]},"properties":{"s":5.9,"pub":false}},{"type":"Feature","geometry":{"type":"Point","coordinates":[-105.1724,40.8649]},"properties":{"s":5.9,"pub":false}},{"type":"Feature","geometry":{"type":"Point","coordinates":[-105.1724,40.8707]},"properties":{"s":5.9,"pub":true}},{"type":"Feature","geometry":{"type":"Point","coordinates":[-105.1724,40.8765]},"properties":{"s":5.9,"pub":true}},{"type":"Feature","geometry":{"type":"Point","coordinates":[-105.1724,40.8823]},"properties":{"s":52.9,"pub":true}},{"type":"Feature","geometry":{"type":"Point","coordinates":[-105.1724,40.8881]},"properties":{"s":52.9,"pub":false}},{"type":"Feature","geometry":{"type":"Point","coordinates":[-105.1724,40.8939]},"properties":{"s":52.9,"pub":false}},{"type":"Feature","geometry":{"type":"Point","coordinates":[-105.1724,40.8997]},"properties":{"s":52.9,"pub":false}},{"type":"Feature","geometry":{"type":"Point","coordinates":[-105.1724,40.9055]},"properties":{"s":52.9,"pub":false}},{"type":"Feature","geometry":{"type":"Point","coordinates":[-105.1724,40.9113]},"properties":{"s":5.9,"pub":false}},{"type":"Feature","geometry":{"type":"Point","coordinates":[-105.1724,40.9171]},"properties":{"s":5.9,"pub":false}},{"type":"Feature","geometry":{"type":"Point","coordinates":[-105.1724,40.9229]},"properties":{"s":5.9,"pub":false}},{"type":"Feature","geometry":{"type":"Point","coordinates":[-105.1724,40.9287]},"properties":{"s":5.9,"pub":false}},{"type":"Feature","geometry":{"type":"Point","coordinates":[-105.1724,40.9345]},"properties":{"s":5.9,"pub":false}},{"type":"Feature","geometry":{"type":"Point","coordinates":[-105.1724,40.9403]},"properties":{"s":5.9,"pub":false}},{"type":"Feature","geometry":{"type":"Point","coordinates":[-105.1724,40.9461]},"properties":{"s":41.2,"pub":false}},{"type":"Feature","geometry":{"type":"Point","coordinates":[-105.1724,40.9519]},"properties":{"s":41.2,"pub":false}},{"type":"Feature","geometry":{"type":"Point","coordinates":[-105.1724,40.9577]},"properties":{"s":41.2,"pub":false}},{"type":"Feature","geometry":{"type":"Point","coordinates":[-105.1724,40.9635]},"properties":{"s":41.2,"pub":false}},{"type":"Feature","geometry":{"type":"Point","coordinates":[-105.1724,40.9693]},"properties":{"s":41.2,"pub":false}},{"type":"Feature","geometry":{"type":"Point","coordinates":[-105.1724,40.9751]},"properties":{"s":41.2,"pub":false}},{"type":"Feature","geometry":{"type":"Point","coordinates":[-105.1724,40.9809]},"properties":{"s":41.2,"pub":false}},{"type":"Feature","geometry":{"type":"Point","coordinates":[-105.1724,40.9867]},"properties":{"s":41.2,"pub":false}},{"type":"Feature","geometry":{"type":"Point","coordinates":[-105.1724,40.9925]},"properties":{"s":41.2,"pub":false}},{"type":"Feature","geometry":{"type":"Point","coordinates":[-105.1724,40.9983]},"properties":{"s":41.2,"pub":false}},{"type":"Feature","geometry":{"type":"Point","coordinates":[-105.1649,40.8127]},"properties":{"s":5.9,"pub":false}},{"type":"Feature","geometry":{"type":"Point","coordinates":[-105.1649,40.8185]},"properties":{"s":5.9,"pub":false}},{"type":"Feature","geometry":{"type":"Point","coordinates":[-105.1649,40.8243]},"properties":{"s":5.9,"pub":false}},{"type":"Feature","geometry":{"type":"Point","coordinates":[-105.1649,40.8301]},"properties":{"s":5.9,"pub":false}},{"type":"Feature","geometry":{"type":"Point","coordinates":[-105.1649,40.8359]},"properties":{"s":5.9,"pub":false}},{"type":"Feature","geometry":{"type":"Point","coordinates":[-105.1649,40.8417]},"properties":{"s":5.9,"pub":false}},{"type":"Feature","geometry":{"type":"Point","coordinates":[-105.1649,40.8591]},"properties":{"s":5.9,"pub":false}},{"type":"Feature","geometry":{"type":"Point","coordinates":[-105.1649,40.8649]},"properties":{"s":5.9,"pub":false}},{"type":"Feature","geometry":{"type":"Point","coordinates":[-105.1649,40.8707]},"properties":{"s":5.9,"pub":false}},{"type":"Feature","geometry":{"type":"Point","coordinates":[-105.1649,40.8765]},"properties":{"s":5.9,"pub":false}},{"type":"Feature","geometry":{"type":"Point","coordinates":[-105.1649,40.8823]},"properties":{"s":5.9,"pub":false}},{"type":"Feature","geometry":{"type":"Point","coordinates":[-105.1649,40.8881]},"properties":{"s":5.9,"pub":false}},{"type":"Feature","geometry":{"type":"Point","coordinates":[-105.1649,40.8939]},"properties":{"s":5.9,"pub":false}},{"type":"Feature","geometry":{"type":"Point","coordinates":[-105.1649,40.8997]},"properties":{"s":5.9,"pub":false}},{"type":"Feature","geometry":{"type":"Point","coordinates":[-105.1649,40.9055]},"properties":{"s":5.9,"pub":false}},{"type":"Feature","geometry":{"type":"Point","coordinates":[-105.1649,40.9113]},"properties":{"s":5.9,"pub":false}},{"type":"Feature","geometry":{"type":"Point","coordinates":[-105.1649,40.9171]},"properties":{"s":5.9,"pub":false}},{"type":"Feature","geometry":{"type":"Point","coordinates":[-105.1649,40.9229]},"properties":{"s":5.9,"pub":false}},{"type":"Feature","geometry":{"type":"Point","coordinates":[-105.1649,40.9287]},"properties":{"s":5.9,"pub":false}},{"type":"Feature","geometry":{"type":"Point","coordinates":[-105.1649,40.9345]},"properties":{"s":5.9,"pub":false}},{"type":"Feature","geometry":{"type":"Point","coordinates":[-105.1649,40.9403]},"properties":{"s":5.9,"pub":false}},{"type":"Feature","geometry":{"type":"Point","coordinates":[-105.1649,40.9461]},"properties":{"s":5.9,"pub":false}},{"type":"Feature","geometry":{"type":"Point","coordinates":[-105.1649,40.9519]},"properties":{"s":41.2,"pub":false}},{"type":"Feature","geometry":{"type":"Point","coordinates":[-105.1649,40.9577]},"properties":{"s":41.2,"pub":false}},{"type":"Feature","geometry":{"type":"Point","coordinates":[-105.1649,40.9635]},"properties":{"s":41.2,"pub":false}},{"type":"Feature","geometry":{"type":"Point","coordinates":[-105.1649,40.9693]},"properties":{"s":41.2,"pub":false}},{"type":"Feature","geometry":{"type":"Point","coordinates":[-105.1649,40.9751]},"properties":{"s":41.2,"pub":false}},{"type":"Feature","geometry":{"type":"Point","coordinates":[-105.1649,40.9809]},"properties":{"s":41.2,"pub":false}},{"type":"Feature","geometry":{"type":"Point","coordinates":[-105.1649,40.9867]},"properties":{"s":41.2,"pub":false}},{"type":"Feature","geometry":{"type":"Point","coordinates":[-105.1649,40.9925]},"properties":{"s":41.2,"pub":false}},{"type":"Feature","geometry":{"type":"Point","coordinates":[-105.1574,40.8127]},"properties":{"s":5.9,"pub":false}},{"type":"Feature","geometry":{"type":"Point","coordinates":[-105.1574,40.8185]},"properties":{"s":5.9,"pub":false}},{"type":"Feature","geometry":{"type":"Point","coordinates":[-105.1574,40.8243]},"properties":{"s":5.9,"pub":false}},{"type":"Feature","geometry":{"type":"Point","coordinates":[-105.1574,40.8301]},"properties":{"s":5.9,"pub":false}},{"type":"Feature","geometry":{"type":"Point","coordinates":[-105.1574,40.8359]},"properties":{"s":5.9,"pub":false}},{"type":"Feature","geometry":{"type":"Point","coordinates":[-105.1574,40.8417]},"properties":{"s":5.9,"pub":false}},{"type":"Feature","geometry":{"type":"Point","coordinates":[-105.1574,40.8475]},"properties":{"s":5.9,"pub":false}},{"type":"Feature","geometry":{"type":"Point","coordinates":[-105.1574,40.8533]},"properties":{"s":5.9,"pub":false}},{"type":"Feature","geometry":{"type":"Point","coordinates":[-105.1574,40.8591]},"properties":{"s":5.9,"pub":false}},{"type":"Feature","geometry":{"type":"Point","coordinates":[-105.1574,40.8649]},"properties":{"s":5.9,"pub":false}},{"type":"Feature","geometry":{"type":"Point","coordinates":[-105.1574,40.8707]},"properties":{"s":5.9,"pub":false}},{"type":"Feature","geometry":{"type":"Point","coordinates":[-105.1574,40.8765]},"properties":{"s":5.9,"pub":false}},{"type":"Feature","geometry":{"type":"Point","coordinates":[-105.1574,40.8823]},"properties":{"s":5.9,"pub":false}},{"type":"Feature","geometry":{"type":"Point","coordinates":[-105.1574,40.8881]},"properties":{"s":5.9,"pub":false}},{"type":"Feature","geometry":{"type":"Point","coordinates":[-105.1574,40.8939]},"properties":{"s":5.9,"pub":false}},{"type":"Feature","geometry":{"type":"Point","coordinates":[-105.1574,40.8997]},"properties":{"s":5.9,"pub":false}},{"type":"Feature","geometry":{"type":"Point","coordinates":[-105.1574,40.9055]},"properties":{"s":5.9,"pub":false}},{"type":"Feature","geometry":{"type":"Point","coordinates":[-105.1574,40.9113]},"properties":{"s":5.9,"pub":false}},{"type":"Feature","geometry":{"type":"Point","coordinates":[-105.1574,40.9171]},"properties":{"s":5.9,"pub":false}},{"type":"Feature","geometry":{"type":"Point","coordinates":[-105.1574,40.9229]},"properties":{"s":5.9,"pub":false}},{"type":"Feature","geometry":{"type":"Point","coordinates":[-105.1574,40.9287]},"properties":{"s":5.9,"pub":false}},{"type":"Feature","geometry":{"type":"Point","coordinates":[-105.1574,40.9345]},"properties":{"s":5.9,"pub":false}},{"type":"Feature","geometry":{"type":"Point","coordinates":[-105.1574,40.9403]},"properties":{"s":5.9,"pub":false}},{"type":"Feature","geometry":{"type":"Point","coordinates":[-105.1574,40.9461]},"properties":{"s":5.9,"pub":false}},{"type":"Feature","geometry":{"type":"Point","coordinates":[-105.1574,40.9519]},"properties":{"s":41.2,"pub":false}},{"type":"Feature","geometry":{"type":"Point","coordinates":[-105.1574,40.9577]},"properties":{"s":41.2,"pub":false}},{"type":"Feature","geometry":{"type":"Point","coordinates":[-105.1574,40.9635]},"properties":{"s":41.2,"pub":false}},{"type":"Feature","geometry":{"type":"Point","coordinates":[-105.1574,40.9693]},"properties":{"s":41.2,"pub":false}},{"type":"Feature","geometry":{"type":"Point","coordinates":[-105.1574,40.9751]},"properties":{"s":41.2,"pub":false}},{"type":"Feature","geometry":{"type":"Point","coordinates":[-105.1574,40.9809]},"properties":{"s":41.2,"pub":false}},{"type":"Feature","geometry":{"type":"Point","coordinates":[-105.1574,40.9867]},"properties":{"s":41.2,"pub":false}},{"type":"Feature","geometry":{"type":"Point","coordinates":[-105.1574,40.9925]},"properties":{"s":41.2,"pub":false}},{"type":"Feature","geometry":{"type":"Point","coordinates":[-105.1499,40.8301]},"properties":{"s":5.9,"pub":false}},{"type":"Feature","geometry":{"type":"Point","coordinates":[-105.1499,40.8359]},"properties":{"s":5.9,"pub":false}},{"type":"Feature","geometry":{"type":"Point","coordinates":[-105.1499,40.8417]},"properties":{"s":5.9,"pub":false}},{"type":"Feature","geometry":{"type":"Point","coordinates":[-105.1499,40.8475]},"properties":{"s":5.9,"pub":false}},{"type":"Feature","geometry":{"type":"Point","coordinates":[-105.1499,40.8533]},"properties":{"s":5.9,"pub":false}},{"type":"Feature","geometry":{"type":"Point","coordinates":[-105.1499,40.8591]},"properties":{"s":5.9,"pub":false}},{"type":"Feature","geometry":{"type":"Point","coordinates":[-105.1499,40.8649]},"properties":{"s":5.9,"pub":false}},{"type":"Feature","geometry":{"type":"Point","coordinates":[-105.1499,40.8707]},"properties":{"s":5.9,"pub":false}},{"type":"Feature","geometry":{"type":"Point","coordinates":[-105.1499,40.8765]},"properties":{"s":5.9,"pub":false}},{"type":"Feature","geometry":{"type":"Point","coordinates":[-105.1499,40.8823]},"properties":{"s":5.9,"pub":false}},{"type":"Feature","geometry":{"type":"Point","coordinates":[-105.1499,40.8881]},"properties":{"s":5.9,"pub":false}},{"type":"Feature","geometry":{"type":"Point","coordinates":[-105.1499,40.8939]},"properties":{"s":5.9,"pub":false}},{"type":"Feature","geometry":{"type":"Point","coordinates":[-105.1499,40.8997]},"properties":{"s":5.9,"pub":false}},{"type":"Feature","geometry":{"type":"Point","coordinates":[-105.1499,40.9055]},"properties":{"s":5.9,"pub":false}},{"type":"Feature","geometry":{"type":"Point","coordinates":[-105.1499,40.9113]},"properties":{"s":5.9,"pub":false}},{"type":"Feature","geometry":{"type":"Point","coordinates":[-105.1499,40.9171]},"properties":{"s":5.9,"pub":false}},{"type":"Feature","geometry":{"type":"Point","coordinates":[-105.1499,40.9229]},"properties":{"s":5.9,"pub":false}},{"type":"Feature","geometry":{"type":"Point","coordinates":[-105.1499,40.9287]},"properties":{"s":5.9,"pub":false}},{"type":"Feature","geometry":{"type":"Point","coordinates":[-105.1499,40.9345]},"properties":{"s":5.9,"pub":false}},{"type":"Feature","geometry":{"type":"Point","coordinates":[-105.1499,40.9403]},"properties":{"s":5.9,"pub":false}},{"type":"Feature","geometry":{"type":"Point","coordinates":[-105.1499,40.9461]},"properties":{"s":5.9,"pub":false}},{"type":"Feature","geometry":{"type":"Point","coordinates":[-105.1499,40.9519]},"properties":{"s":41.2,"pub":false}},{"type":"Feature","geometry":{"type":"Point","coordinates":[-105.1499,40.9577]},"properties":{"s":41.2,"pub":false}},{"type":"Feature","geometry":{"type":"Point","coordinates":[-105.1499,40.9635]},"properties":{"s":41.2,"pub":false}},{"type":"Feature","geometry":{"type":"Point","coordinates":[-105.1499,40.9693]},"properties":{"s":41.2,"pub":false}},{"type":"Feature","geometry":{"type":"Point","coordinates":[-105.1499,40.9751]},"properties":{"s":41.2,"pub":false}},{"type":"Feature","geometry":{"type":"Point","coordinates":[-105.1499,40.9809]},"properties":{"s":41.2,"pub":false}},{"type":"Feature","geometry":{"type":"Point","coordinates":[-105.1499,40.9867]},"properties":{"s":41.2,"pub":false}},{"type":"Feature","geometry":{"type":"Point","coordinates":[-105.1499,40.9925]},"properties":{"s":41.2,"pub":false}},{"type":"Feature","geometry":{"type":"Point","coordinates":[-105.1424,40.8359]},"properties":{"s":5.9,"pub":false}},{"type":"Feature","geometry":{"type":"Point","coordinates":[-105.1424,40.8417]},"properties":{"s":5.9,"pub":false}},{"type":"Feature","geometry":{"type":"Point","coordinates":[-105.1424,40.8475]},"properties":{"s":5.9,"pub":false}},{"type":"Feature","geometry":{"type":"Point","coordinates":[-105.1424,40.8533]},"properties":{"s":5.9,"pub":false}},{"type":"Feature","geometry":{"type":"Point","coordinates":[-105.1424,40.8591]},"properties":{"s":5.9,"pub":false}},{"type":"Feature","geometry":{"type":"Point","coordinates":[-105.1424,40.8649]},"properties":{"s":5.9,"pub":false}},{"type":"Feature","geometry":{"type":"Point","coordinates":[-105.1424,40.8707]},"properties":{"s":5.9,"pub":false}},{"type":"Feature","geometry":{"type":"Point","coordinates":[-105.1424,40.8765]},"properties":{"s":5.9,"pub":false}},{"type":"Feature","geometry":{"type":"Point","coordinates":[-105.1424,40.8823]},"properties":{"s":5.9,"pub":false}},{"type":"Feature","geometry":{"type":"Point","coordinates":[-105.1424,40.8881]},"properties":{"s":5.9,"pub":false}},{"type":"Feature","geometry":{"type":"Point","coordinates":[-105.1424,40.8939]},"properties":{"s":5.9,"pub":false}},{"type":"Feature","geometry":{"type":"Point","coordinates":[-105.1424,40.8997]},"properties":{"s":5.9,"pub":false}},{"type":"Feature","geometry":{"type":"Point","coordinates":[-105.1424,40.9055]},"properties":{"s":5.9,"pub":false}},{"type":"Feature","geometry":{"type":"Point","coordinates":[-105.1424,40.9113]},"properties":{"s":5.9,"pub":false}},{"type":"Feature","geometry":{"type":"Point","coordinates":[-105.1424,40.9171]},"properties":{"s":5.9,"pub":false}},{"type":"Feature","geometry":{"type":"Point","coordinates":[-105.1424,40.9229]},"properties":{"s":5.9,"pub":false}},{"type":"Feature","geometry":{"type":"Point","coordinates":[-105.1424,40.9287]},"properties":{"s":5.9,"pub":false}},{"type":"Feature","geometry":{"type":"Point","coordinates":[-105.1424,40.9345]},"properties":{"s":5.9,"pub":false}},{"type":"Feature","geometry":{"type":"Point","coordinates":[-105.1424,40.9403]},"properties":{"s":5.9,"pub":false}},{"type":"Feature","geometry":{"type":"Point","coordinates":[-105.1424,40.9461]},"properties":{"s":5.9,"pub":false}},{"type":"Feature","geometry":{"type":"Point","coordinates":[-105.1424,40.9519]},"properties":{"s":5.9,"pub":false}},{"type":"Feature","geometry":{"type":"Point","coordinates":[-105.1424,40.9577]},"properties":{"s":41.2,"pub":false}},{"type":"Feature","geometry":{"type":"Point","coordinates":[-105.1424,40.9635]},"properties":{"s":41.2,"pub":false}},{"type":"Feature","geometry":{"type":"Point","coordinates":[-105.1424,40.9693]},"properties":{"s":41.2,"pub":false}},{"type":"Feature","geometry":{"type":"Point","coordinates":[-105.1424,40.9751]},"properties":{"s":41.2,"pub":false}},{"type":"Feature","geometry":{"type":"Point","coordinates":[-105.1424,40.9809]},"properties":{"s":41.2,"pub":false}},{"type":"Feature","geometry":{"type":"Point","coordinates":[-105.1424,40.9867]},"properties":{"s":41.2,"pub":false}},{"type":"Feature","geometry":{"type":"Point","coordinates":[-105.1424,40.9925]},"properties":{"s":41.2,"pub":false}},{"type":"Feature","geometry":{"type":"Point","coordinates":[-105.1349,40.8359]},"properties":{"s":5.9,"pub":false}},{"type":"Feature","geometry":{"type":"Point","coordinates":[-105.1349,40.8417]},"properties":{"s":5.9,"pub":false}},{"type":"Feature","geometry":{"type":"Point","coordinates":[-105.1349,40.8475]},"properties":{"s":5.9,"pub":false}},{"type":"Feature","geometry":{"type":"Point","coordinates":[-105.1349,40.8533]},"properties":{"s":5.9,"pub":false}},{"type":"Feature","geometry":{"type":"Point","coordinates":[-105.1349,40.8591]},"properties":{"s":5.9,"pub":false}},{"type":"Feature","geometry":{"type":"Point","coordinates":[-105.1349,40.8649]},"properties":{"s":5.9,"pub":false}},{"type":"Feature","geometry":{"type":"Point","coordinates":[-105.1349,40.8707]},"properties":{"s":5.9,"pub":false}},{"type":"Feature","geometry":{"type":"Point","coordinates":[-105.1349,40.8765]},"properties":{"s":5.9,"pub":false}},{"type":"Feature","geometry":{"type":"Point","coordinates":[-105.1349,40.8823]},"properties":{"s":5.9,"pub":false}},{"type":"Feature","geometry":{"type":"Point","coordinates":[-105.1349,40.8881]},"properties":{"s":5.9,"pub":false}},{"type":"Feature","geometry":{"type":"Point","coordinates":[-105.1349,40.8939]},"properties":{"s":5.9,"pub":false}},{"type":"Feature","geometry":{"type":"Point","coordinates":[-105.1349,40.8997]},"properties":{"s":5.9,"pub":false}},{"type":"Feature","geometry":{"type":"Point","coordinates":[-105.1349,40.9055]},"properties":{"s":5.9,"pub":false}},{"type":"Feature","geometry":{"type":"Point","coordinates":[-105.1349,40.9113]},"properties":{"s":5.9,"pub":false}},{"type":"Feature","geometry":{"type":"Point","coordinates":[-105.1349,40.9171]},"properties":{"s":5.9,"pub":false}},{"type":"Feature","geometry":{"type":"Point","coordinates":[-105.1349,40.9229]},"properties":{"s":5.9,"pub":false}},{"type":"Feature","geometry":{"type":"Point","coordinates":[-105.1349,40.9287]},"properties":{"s":5.9,"pub":false}},{"type":"Feature","geometry":{"type":"Point","coordinates":[-105.1349,40.9345]},"properties":{"s":5.9,"pub":false}},{"type":"Feature","geometry":{"type":"Point","coordinates":[-105.1349,40.9403]},"properties":{"s":5.9,"pub":false}},{"type":"Feature","geometry":{"type":"Point","coordinates":[-105.1349,40.9461]},"properties":{"s":5.9,"pub":false}},{"type":"Feature","geometry":{"type":"Point","coordinates":[-105.1349,40.9519]},"properties":{"s":5.9,"pub":false}},{"type":"Feature","geometry":{"type":"Point","coordinates":[-105.1349,40.9577]},"properties":{"s":5.9,"pub":false}},{"type":"Feature","geometry":{"type":"Point","coordinates":[-105.1349,40.9635]},"properties":{"s":41.2,"pub":false}},{"type":"Feature","geometry":{"type":"Point","coordinates":[-105.1349,40.9693]},"properties":{"s":41.2,"pub":false}},{"type":"Feature","geometry":{"type":"Point","coordinates":[-105.1349,40.9751]},"properties":{"s":41.2,"pub":false}},{"type":"Feature","geometry":{"type":"Point","coordinates":[-105.1349,40.9809]},"properties":{"s":41.2,"pub":false}},{"type":"Feature","geometry":{"type":"Point","coordinates":[-105.1349,40.9867]},"properties":{"s":41.2,"pub":false}},{"type":"Feature","geometry":{"type":"Point","coordinates":[-105.1349,40.9925]},"properties":{"s":41.2,"pub":false}},{"type":"Feature","geometry":{"type":"Point","coordinates":[-105.1274,40.8417]},"properties":{"s":5.9,"pub":false}},{"type":"Feature","geometry":{"type":"Point","coordinates":[-105.1274,40.8475]},"properties":{"s":5.9,"pub":false}},{"type":"Feature","geometry":{"type":"Point","coordinates":[-105.1274,40.8533]},"properties":{"s":5.9,"pub":false}},{"type":"Feature","geometry":{"type":"Point","coordinates":[-105.1274,40.8591]},"properties":{"s":5.9,"pub":false}},{"type":"Feature","geometry":{"type":"Point","coordinates":[-105.1274,40.8649]},"properties":{"s":5.9,"pub":false}},{"type":"Feature","geometry":{"type":"Point","coordinates":[-105.1274,40.8707]},"properties":{"s":5.9,"pub":false}},{"type":"Feature","geometry":{"type":"Point","coordinates":[-105.1274,40.8765]},"properties":{"s":5.9,"pub":false}},{"type":"Feature","geometry":{"type":"Point","coordinates":[-105.1274,40.8823]},"properties":{"s":5.9,"pub":false}},{"type":"Feature","geometry":{"type":"Point","coordinates":[-105.1274,40.8881]},"properties":{"s":5.9,"pub":false}},{"type":"Feature","geometry":{"type":"Point","coordinates":[-105.1274,40.8939]},"properties":{"s":5.9,"pub":false}},{"type":"Feature","geometry":{"type":"Point","coordinates":[-105.1274,40.8997]},"properties":{"s":5.9,"pub":false}},{"type":"Feature","geometry":{"type":"Point","coordinates":[-105.1274,40.9055]},"properties":{"s":5.9,"pub":false}},{"type":"Feature","geometry":{"type":"Point","coordinates":[-105.1274,40.9635]},"properties":{"s":5.9,"pub":false}},{"type":"Feature","geometry":{"type":"Point","coordinates":[-105.1274,40.9693]},"properties":{"s":5.9,"pub":false}},{"type":"Feature","geometry":{"type":"Point","coordinates":[-105.1274,40.9751]},"properties":{"s":5.9,"pub":false}},{"type":"Feature","geometry":{"type":"Point","coordinates":[-105.1274,40.9809]},"properties":{"s":41.2,"pub":false}},{"type":"Feature","geometry":{"type":"Point","coordinates":[-105.1274,40.9867]},"properties":{"s":41.2,"pub":false}},{"type":"Feature","geometry":{"type":"Point","coordinates":[-105.1274,40.9925]},"properties":{"s":41.2,"pub":false}},{"type":"Feature","geometry":{"type":"Point","coordinates":[-105.1199,40.8591]},"properties":{"s":5.9,"pub":false}},{"type":"Feature","geometry":{"type":"Point","coordinates":[-105.1199,40.8649]},"properties":{"s":5.9,"pub":false}},{"type":"Feature","geometry":{"type":"Point","coordinates":[-105.1199,40.8707]},"properties":{"s":5.9,"pub":false}},{"type":"Feature","geometry":{"type":"Point","coordinates":[-105.1199,40.8765]},"properties":{"s":5.9,"pub":false}},{"type":"Feature","geometry":{"type":"Point","coordinates":[-105.1199,40.8823]},"properties":{"s":5.9,"pub":false}},{"type":"Feature","geometry":{"type":"Point","coordinates":[-105.1199,40.8881]},"properties":{"s":5.9,"pub":false}},{"type":"Feature","geometry":{"type":"Point","coordinates":[-105.1199,40.9693]},"properties":{"s":5.9,"pub":false}},{"type":"Feature","geometry":{"type":"Point","coordinates":[-105.1199,40.9751]},"properties":{"s":5.9,"pub":false}},{"type":"Feature","geometry":{"type":"Point","coordinates":[-105.1199,40.9809]},"properties":{"s":41.2,"pub":false}},{"type":"Feature","geometry":{"type":"Point","coordinates":[-105.1199,40.9867]},"properties":{"s":41.2,"pub":false}},{"type":"Feature","geometry":{"type":"Point","coordinates":[-105.1199,40.9925]},"properties":{"s":41.2,"pub":false}},{"type":"Feature","geometry":{"type":"Point","coordinates":[-105.1124,40.8765]},"properties":{"s":5.9,"pub":false}},{"type":"Feature","geometry":{"type":"Point","coordinates":[-105.1124,40.9751]},"properties":{"s":5.9,"pub":false}},{"type":"Feature","geometry":{"type":"Point","coordinates":[-105.1124,40.9809]},"properties":{"s":41.2,"pub":false}},{"type":"Feature","geometry":{"type":"Point","coordinates":[-105.1124,40.9867]},"properties":{"s":41.2,"pub":false}},{"type":"Feature","geometry":{"type":"Point","coordinates":[-105.1124,40.9925]},"properties":{"s":41.2,"pub":false}},{"type":"Feature","geometry":{"type":"Point","coordinates":[-105.1049,40.9751]},"properties":{"s":5.9,"pub":false}},{"type":"Feature","geometry":{"type":"Point","coordinates":[-105.1049,40.9809]},"properties":{"s":41.2,"pub":false}},{"type":"Feature","geometry":{"type":"Point","coordinates":[-105.1049,40.9867]},"properties":{"s":41.2,"pub":false}},{"type":"Feature","geometry":{"type":"Point","coordinates":[-105.1049,40.9925]},"properties":{"s":41.2,"pub":false}},{"type":"Feature","geometry":{"type":"Point","coordinates":[-105.0974,40.9751]},"properties":{"s":5.9,"pub":false}},{"type":"Feature","geometry":{"type":"Point","coordinates":[-105.0974,40.9809]},"properties":{"s":41.2,"pub":false}},{"type":"Feature","geometry":{"type":"Point","coordinates":[-105.0974,40.9867]},"properties":{"s":41.2,"pub":false}},{"type":"Feature","geometry":{"type":"Point","coordinates":[-105.0974,40.9925]},"properties":{"s":41.2,"pub":false}},{"type":"Feature","geometry":{"type":"Point","coordinates":[-105.0899,40.9751]},"properties":{"s":5.9,"pub":false}},{"type":"Feature","geometry":{"type":"Point","coordinates":[-105.0899,40.9809]},"properties":{"s":5.9,"pub":false}},{"type":"Feature","geometry":{"type":"Point","coordinates":[-105.0899,40.9867]},"properties":{"s":41.2,"pub":false}},{"type":"Feature","geometry":{"type":"Point","coordinates":[-105.0899,40.9925]},"properties":{"s":41.2,"pub":false}},{"type":"Feature","geometry":{"type":"Point","coordinates":[-105.0824,40.9809]},"properties":{"s":5.9,"pub":false}},{"type":"Feature","geometry":{"type":"Point","coordinates":[-105.0824,40.9867]},"properties":{"s":5.9,"pub":false}},{"type":"Feature","geometry":{"type":"Point","coordinates":[-105.0824,40.9925]},"properties":{"s":5.9,"pub":false}},{"type":"Feature","geometry":{"type":"Point","coordinates":[-105.0749,40.9809]},"properties":{"s":5.9,"pub":false}},{"type":"Feature","geometry":{"type":"Point","coordinates":[-105.0749,40.9867]},"properties":{"s":5.9,"pub":false}},{"type":"Feature","geometry":{"type":"Point","coordinates":[-105.0749,40.9925]},"properties":{"s":5.9,"pub":false}},{"type":"Feature","geometry":{"type":"Point","coordinates":[-105.0674,40.9809]},"properties":{"s":5.9,"pub":false}},{"type":"Feature","geometry":{"type":"Point","coordinates":[-105.0674,40.9867]},"properties":{"s":5.9,"pub":false}},{"type":"Feature","geometry":{"type":"Point","coordinates":[-105.0674,40.9925]},"properties":{"s":5.9,"pub":false}},{"type":"Feature","geometry":{"type":"Point","coordinates":[-105.0599,40.9809]},"properties":{"s":5.9,"pub":false}},{"type":"Feature","geometry":{"type":"Point","coordinates":[-105.0599,40.9867]},"properties":{"s":5.9,"pub":false}}]}